{"type": "FeatureCollection", "features": [{"type": "Feature", "geometry": {"type": "Polygon", "coordinates": [[[80.625, 9.625], [80.875, 9.625], [80.875, 9.875], [80.625, 9.875], [80.625, 9.625]]]}, "properties": {"time": "2020-11-25T18:00:00", "variable": "ws", "tier": "low", "percentile": 95.7, "z": 1.65, "wind_ms": 9.42, "value": 9.42, "lat": 9.75, "lon": 80.75}}, {"type": "Feature", "geometry": {"type": "Polygon", "coordinates": [[[80.875, 9.625], [81.125, 9.625], [81.125, 9.875], [80.875, 9.875], [80.875, 9.625]]]}, "properties": {"time": "2020-11-25T18:00:00", "variable": "ws", "tier": "low", "percentile": 97.4, "z": 2.18, "wind_ms": 10.21, "value": 10.21, "lat": 9.75, "lon": 81.0}}, {"type": "Feature", "geometry": {"type": "Polygon", "coordinates": [[[81.125, 9.625], [81.375, 9.625], [81.375, 9.875], [81.125, 9.875], [81.125, 9.625]]]}, "properties": {"time": "2020-11-25T18:00:00", "variable": "ws", "tier": "low", "percentile": 97.4, "z": 2.26, "wind_ms": 10.64, "value": 10.64, "lat": 9.75, "lon": 81.25}}, {"type": "Feature", "geometry": {"type": "Polygon", "coordinates": [[[81.375, 9.625], [81.625, 9.625], [81.625, 9.875], [81.375, 9.875], [81.375, 9.625]]]}, "properties": {"time": "2020-11-25T18:00:00", "variable": "ws", "tier": "low", "percentile": 97.4, "z": 2.21, "wind_ms": 10.82, "value": 10.82, "lat": 9.75, "lon": 81.5}}, {"type": "Feature", "geometry": {"type": "Polygon", "coordinates": [[[81.625, 9.625], [81.875, 9.625], [81.875, 9.875], [81.625, 9.875], [81.625, 9.625]]]}, "properties": {"time": "2020-11-25T18:00:00", "variable": "ws", "tier": "low", "percentile": 97.4, "z": 2.09, "wind_ms": 10.37, "value": 10.37, "lat": 9.75, "lon": 81.75}}, {"type": "Feature", "geometry": {"type": "Polygon", "coordinates": [[[81.875, 9.625], [82.125, 9.625], [82.125, 9.875], [81.875, 9.875], [81.875, 9.625]]]}, "properties": {"time": "2020-11-25T18:00:00", "variable": "ws", "tier": "low", "percentile": 95.7, "z": 1.76, "wind_ms": 9.65, "value": 9.65, "lat": 9.75, "lon": 82.0}}, {"type": "Feature", "geometry": {"type": "Polygon", "coordinates": [[[79.875, 9.875], [80.125, 9.875], [80.125, 10.125], [79.875, 10.125], [79.875, 9.875]]]}, "properties": {"time": "2020-11-25T18:00:00", "variable": "ws", "tier": "low", "percentile": 94.8, "z": 1.59, "wind_ms": 9.18, "value": 9.18, "lat": 10.0, "lon": 80.0}}, {"type": "Feature", "geometry": {"type": "Polygon", "coordinates": [[[80.125, 9.875], [80.375, 9.875], [80.375, 10.125], [80.125, 10.125], [80.125, 9.875]]]}, "properties": {"time": "2020-11-25T18:00:00", "variable": "ws", "tier": "low", "percentile": 94.8, "z": 1.83, "wind_ms": 9.32, "value": 9.32, "lat": 10.0, "lon": 80.25}}, {"type": "Feature", "geometry": {"type": "Polygon", "coordinates": [[[80.375, 9.875], [80.625, 9.875], [80.625, 10.125], [80.375, 10.125], [80.375, 9.875]]]}, "properties": {"time": "2020-11-25T18:00:00", "variable": "ws", "tier": "low", "percentile": 95.7, "z": 2.11, "wind_ms": 10.24, "value": 10.24, "lat": 10.0, "lon": 80.5}}, {"type": "Feature", "geometry": {"type": "Polygon", "coordinates": [[[80.625, 9.875], [80.875, 9.875], [80.875, 10.125], [80.625, 10.125], [80.625, 9.875]]]}, "properties": {"time": "2020-11-25T18:00:00", "variable": "ws", "tier": "low", "percentile": 98.3, "z": 2.51, "wind_ms": 10.86, "value": 10.86, "lat": 10.0, "lon": 80.75}}, {"type": "Feature", "geometry": {"type": "Polygon", "coordinates": [[[80.875, 9.875], [81.125, 9.875], [81.125, 10.125], [80.875, 10.125], [80.875, 9.875]]]}, "properties": {"time": "2020-11-25T18:00:00", "variable": "ws", "tier": "low", "percentile": 98.3, "z": 2.77, "wind_ms": 11.65, "value": 11.65, "lat": 10.0, "lon": 81.0}}, {"type": "Feature", "geometry": {"type": "Polygon", "coordinates": [[[81.125, 9.875], [81.375, 9.875], [81.375, 10.125], [81.125, 10.125], [81.125, 9.875]]]}, "properties": {"time": "2020-11-25T18:00:00", "variable": "ws", "tier": "low", "percentile": 98.3, "z": 2.81, "wind_ms": 12.09, "value": 12.09, "lat": 10.0, "lon": 81.25}}, {"type": "Feature", "geometry": {"type": "Polygon", "coordinates": [[[81.375, 9.875], [81.625, 9.875], [81.625, 10.125], [81.375, 10.125], [81.375, 9.875]]]}, "properties": {"time": "2020-11-25T18:00:00", "variable": "ws", "tier": "low", "percentile": 98.3, "z": 2.79, "wind_ms": 11.93, "value": 11.93, "lat": 10.0, "lon": 81.5}}, {"type": "Feature", "geometry": {"type": "Polygon", "coordinates": [[[81.625, 9.875], [81.875, 9.875], [81.875, 10.125], [81.625, 10.125], [81.625, 9.875]]]}, "properties": {"time": "2020-11-25T18:00:00", "variable": "ws", "tier": "low", "percentile": 98.3, "z": 2.53, "wind_ms": 11.36, "value": 11.36, "lat": 10.0, "lon": 81.75}}, {"type": "Feature", "geometry": {"type": "Polygon", "coordinates": [[[81.875, 9.875], [82.125, 9.875], [82.125, 10.125], [81.875, 10.125], [81.875, 9.875]]]}, "properties": {"time": "2020-11-25T18:00:00", "variable": "ws", "tier": "low", "percentile": 99.1, "z": 2.13, "wind_ms": 10.54, "value": 10.54, "lat": 10.0, "lon": 82.0}}, {"type": "Feature", "geometry": {"type": "Polygon", "coordinates": [[[82.125, 9.875], [82.375, 9.875], [82.375, 10.125], [82.125, 10.125], [82.125, 9.875]]]}, "properties": {"time": "2020-11-25T18:00:00", "variable": "ws", "tier": "low", "percentile": 97.4, "z": 1.73, "wind_ms": 9.73, "value": 9.73, "lat": 10.0, "lon": 82.25}}, {"type": "Feature", "geometry": {"type": "Polygon", "coordinates": [[[79.625, 10.125], [79.875, 10.125], [79.875, 10.375], [79.625, 10.375], [79.625, 10.125]]]}, "properties": {"time": "2020-11-25T18:00:00", "variable": "ws", "tier": "low", "percentile": 98.3, "z": 2.64, "wind_ms": 10.55, "value": 10.55, "lat": 10.25, "lon": 79.75}}, {"type": "Feature", "geometry": {"type": "Polygon", "coordinates": [[[79.875, 10.125], [80.125, 10.125], [80.125, 10.375], [79.875, 10.375], [79.875, 10.125]]]}, "properties": {"time": "2020-11-25T18:00:00", "variable": "ws", "tier": "low", "percentile": 100.0, "z": 3.11, "wind_ms": 12.03, "value": 12.03, "lat": 10.25, "lon": 80.0}}, {"type": "Feature", "geometry": {"type": "Polygon", "coordinates": [[[80.125, 10.125], [80.375, 10.125], [80.375, 10.375], [80.125, 10.375], [80.125, 10.125]]]}, "properties": {"time": "2020-11-25T18:00:00", "variable": "ws", "tier": "low", "percentile": 100.0, "z": 3.66, "wind_ms": 12.6, "value": 12.6, "lat": 10.25, "lon": 80.25}}, {"type": "Feature", "geometry": {"type": "Polygon", "coordinates": [[[80.375, 10.125], [80.625, 10.125], [80.625, 10.375], [80.375, 10.375], [80.375, 10.125]]]}, "properties": {"time": "2020-11-25T18:00:00", "variable": "ws", "tier": "low", "percentile": 100.0, "z": 3.92, "wind_ms": 13.21, "value": 13.21, "lat": 10.25, "lon": 80.5}}, {"type": "Feature", "geometry": {"type": "Polygon", "coordinates": [[[80.625, 10.125], [80.875, 10.125], [80.875, 10.375], [80.625, 10.375], [80.625, 10.125]]]}, "properties": {"time": "2020-11-25T18:00:00", "variable": "ws", "tier": "low", "percentile": 100.0, "z": 3.81, "wind_ms": 13.34, "value": 13.34, "lat": 10.25, "lon": 80.75}}, {"type": "Feature", "geometry": {"type": "Polygon", "coordinates": [[[80.875, 10.125], [81.125, 10.125], [81.125, 10.375], [80.875, 10.375], [80.875, 10.125]]]}, "properties": {"time": "2020-11-25T18:00:00", "variable": "ws", "tier": "low", "percentile": 99.1, "z": 3.44, "wind_ms": 13.35, "value": 13.35, "lat": 10.25, "lon": 81.0}}, {"type": "Feature", "geometry": {"type": "Polygon", "coordinates": [[[81.125, 10.125], [81.375, 10.125], [81.375, 10.375], [81.125, 10.375], [81.125, 10.125]]]}, "properties": {"time": "2020-11-25T18:00:00", "variable": "ws", "tier": "low", "percentile": 98.3, "z": 3.34, "wind_ms": 13.01, "value": 13.01, "lat": 10.25, "lon": 81.25}}, {"type": "Feature", "geometry": {"type": "Polygon", "coordinates": [[[81.375, 10.125], [81.625, 10.125], [81.625, 10.375], [81.375, 10.375], [81.375, 10.125]]]}, "properties": {"time": "2020-11-25T18:00:00", "variable": "ws", "tier": "low", "percentile": 98.3, "z": 3.13, "wind_ms": 12.65, "value": 12.65, "lat": 10.25, "lon": 81.5}}, {"type": "Feature", "geometry": {"type": "Polygon", "coordinates": [[[81.625, 10.125], [81.875, 10.125], [81.875, 10.375], [81.625, 10.375], [81.625, 10.125]]]}, "properties": {"time": "2020-11-25T18:00:00", "variable": "ws", "tier": "low", "percentile": 98.3, "z": 2.8, "wind_ms": 12.09, "value": 12.09, "lat": 10.25, "lon": 81.75}}, {"type": "Feature", "geometry": {"type": "Polygon", "coordinates": [[[81.875, 10.125], [82.125, 10.125], [82.125, 10.375], [81.875, 10.375], [81.875, 10.125]]]}, "properties": {"time": "2020-11-25T18:00:00", "variable": "ws", "tier": "low", "percentile": 99.1, "z": 2.48, "wind_ms": 11.36, "value": 11.36, "lat": 10.25, "lon": 82.0}}, {"type": "Feature", "geometry": {"type": "Polygon", "coordinates": [[[82.125, 10.125], [82.375, 10.125], [82.375, 10.375], [82.125, 10.375], [82.125, 10.125]]]}, "properties": {"time": "2020-11-25T18:00:00", "variable": "ws", "tier": "low", "percentile": 98.3, "z": 2.13, "wind_ms": 10.66, "value": 10.66, "lat": 10.25, "lon": 82.25}}, {"type": "Feature", "geometry": {"type": "Polygon", "coordinates": [[[82.375, 10.125], [82.625, 10.125], [82.625, 10.375], [82.375, 10.375], [82.375, 10.125]]]}, "properties": {"time": "2020-11-25T18:00:00", "variable": "ws", "tier": "low", "percentile": 97.4, "z": 1.83, "wind_ms": 10.11, "value": 10.11, "lat": 10.25, "lon": 82.5}}, {"type": "Feature", "geometry": {"type": "Polygon", "coordinates": [[[82.625, 10.125], [82.875, 10.125], [82.875, 10.375], [82.625, 10.375], [82.625, 10.125]]]}, "properties": {"time": "2020-11-25T18:00:00", "variable": "ws", "tier": "low", "percentile": 97.4, "z": 1.65, "wind_ms": 9.66, "value": 9.66, "lat": 10.25, "lon": 82.75}}, {"type": "Feature", "geometry": {"type": "Polygon", "coordinates": [[[82.875, 10.125], [83.125, 10.125], [83.125, 10.375], [82.875, 10.375], [82.875, 10.125]]]}, "properties": {"time": "2020-11-25T18:00:00", "variable": "ws", "tier": "low", "percentile": 96.5, "z": 1.52, "wind_ms": 9.21, "value": 9.21, "lat": 10.25, "lon": 83.0}}, {"type": "Feature", "geometry": {"type": "Polygon", "coordinates": [[[79.625, 10.375], [79.875, 10.375], [79.875, 10.625], [79.625, 10.625], [79.625, 10.375]]]}, "properties": {"time": "2020-11-25T18:00:00", "variable": "ws", "tier": "low", "percentile": 100.0, "z": 3.53, "wind_ms": 10.02, "value": 10.02, "lat": 10.5, "lon": 79.75}}, {"type": "Feature", "geometry": {"type": "Polygon", "coordinates": [[[79.875, 10.375], [80.125, 10.375], [80.125, 10.625], [79.875, 10.625], [79.875, 10.375]]]}, "properties": {"time": "2020-11-25T18:00:00", "variable": "ws", "tier": "low", "percentile": 100.0, "z": 3.98, "wind_ms": 13.34, "value": 13.34, "lat": 10.5, "lon": 80.0}}, {"type": "Feature", "geometry": {"type": "Polygon", "coordinates": [[[80.125, 10.375], [80.375, 10.375], [80.375, 10.625], [80.125, 10.625], [80.125, 10.375]]]}, "properties": {"time": "2020-11-25T18:00:00", "variable": "ws", "tier": "low", "percentile": 100.0, "z": 4.7, "wind_ms": 14.67, "value": 14.67, "lat": 10.5, "lon": 80.25}}, {"type": "Feature", "geometry": {"type": "Polygon", "coordinates": [[[80.375, 10.375], [80.625, 10.375], [80.625, 10.625], [80.375, 10.625], [80.375, 10.375]]]}, "properties": {"time": "2020-11-25T18:00:00", "variable": "ws", "tier": "low", "percentile": 100.0, "z": 5.3, "wind_ms": 15.36, "value": 15.36, "lat": 10.5, "lon": 80.5}}, {"type": "Feature", "geometry": {"type": "Polygon", "coordinates": [[[80.625, 10.375], [80.875, 10.375], [80.875, 10.625], [80.625, 10.625], [80.625, 10.375]]]}, "properties": {"time": "2020-11-25T18:00:00", "variable": "ws", "tier": "low", "percentile": 100.0, "z": 4.92, "wind_ms": 15.63, "value": 15.63, "lat": 10.5, "lon": 80.75}}, {"type": "Feature", "geometry": {"type": "Polygon", "coordinates": [[[80.875, 10.375], [81.125, 10.375], [81.125, 10.625], [80.875, 10.625], [80.875, 10.375]]]}, "properties": {"time": "2020-11-25T18:00:00", "variable": "ws", "tier": "low", "percentile": 100.0, "z": 4.36, "wind_ms": 15.09, "value": 15.09, "lat": 10.5, "lon": 81.0}}, {"type": "Feature", "geometry": {"type": "Polygon", "coordinates": [[[81.125, 10.375], [81.375, 10.375], [81.375, 10.625], [81.125, 10.625], [81.125, 10.375]]]}, "properties": {"time": "2020-11-25T18:00:00", "variable": "ws", "tier": "low", "percentile": 99.1, "z": 3.92, "wind_ms": 14.46, "value": 14.46, "lat": 10.5, "lon": 81.25}}, {"type": "Feature", "geometry": {"type": "Polygon", "coordinates": [[[81.375, 10.375], [81.625, 10.375], [81.625, 10.625], [81.375, 10.625], [81.375, 10.375]]]}, "properties": {"time": "2020-11-25T18:00:00", "variable": "ws", "tier": "low", "percentile": 99.1, "z": 3.52, "wind_ms": 13.69, "value": 13.69, "lat": 10.5, "lon": 81.5}}, {"type": "Feature", "geometry": {"type": "Polygon", "coordinates": [[[81.625, 10.375], [81.875, 10.375], [81.875, 10.625], [81.625, 10.625], [81.625, 10.375]]]}, "properties": {"time": "2020-11-25T18:00:00", "variable": "ws", "tier": "low", "percentile": 99.1, "z": 3.11, "wind_ms": 12.77, "value": 12.77, "lat": 10.5, "lon": 81.75}}, {"type": "Feature", "geometry": {"type": "Polygon", "coordinates": [[[81.875, 10.375], [82.125, 10.375], [82.125, 10.625], [81.875, 10.625], [81.875, 10.375]]]}, "properties": {"time": "2020-11-25T18:00:00", "variable": "ws", "tier": "low", "percentile": 99.1, "z": 2.77, "wind_ms": 12.05, "value": 12.05, "lat": 10.5, "lon": 82.0}}, {"type": "Feature", "geometry": {"type": "Polygon", "coordinates": [[[82.125, 10.375], [82.375, 10.375], [82.375, 10.625], [82.125, 10.625], [82.125, 10.375]]]}, "properties": {"time": "2020-11-25T18:00:00", "variable": "ws", "tier": "low", "percentile": 98.3, "z": 2.45, "wind_ms": 11.42, "value": 11.42, "lat": 10.5, "lon": 82.25}}, {"type": "Feature", "geometry": {"type": "Polygon", "coordinates": [[[82.375, 10.375], [82.625, 10.375], [82.625, 10.625], [82.375, 10.625], [82.375, 10.375]]]}, "properties": {"time": "2020-11-25T18:00:00", "variable": "ws", "tier": "low", "percentile": 99.1, "z": 2.17, "wind_ms": 10.87, "value": 10.87, "lat": 10.5, "lon": 82.5}}, {"type": "Feature", "geometry": {"type": "Polygon", "coordinates": [[[82.625, 10.375], [82.875, 10.375], [82.875, 10.625], [82.625, 10.625], [82.625, 10.375]]]}, "properties": {"time": "2020-11-25T18:00:00", "variable": "ws", "tier": "low", "percentile": 98.3, "z": 1.98, "wind_ms": 10.42, "value": 10.42, "lat": 10.5, "lon": 82.75}}, {"type": "Feature", "geometry": {"type": "Polygon", "coordinates": [[[82.875, 10.375], [83.125, 10.375], [83.125, 10.625], [82.875, 10.625], [82.875, 10.375]]]}, "properties": {"time": "2020-11-25T18:00:00", "variable": "ws", "tier": "low", "percentile": 98.3, "z": 1.87, "wind_ms": 10.11, "value": 10.11, "lat": 10.5, "lon": 83.0}}, {"type": "Feature", "geometry": {"type": "Polygon", "coordinates": [[[79.625, 10.625], [79.875, 10.625], [79.875, 10.875], [79.625, 10.875], [79.625, 10.625]]]}, "properties": {"time": "2020-11-25T18:00:00", "variable": "ws", "tier": "low", "percentile": 100.0, "z": 3.91, "wind_ms": 10.33, "value": 10.33, "lat": 10.75, "lon": 79.75}}, {"type": "Feature", "geometry": {"type": "Polygon", "coordinates": [[[79.875, 10.625], [80.125, 10.625], [80.125, 10.875], [79.875, 10.875], [79.875, 10.625]]]}, "properties": {"time": "2020-11-25T18:00:00", "variable": "ws", "tier": "low", "percentile": 100.0, "z": 4.25, "wind_ms": 13.88, "value": 13.88, "lat": 10.75, "lon": 80.0}}, {"type": "Feature", "geometry": {"type": "Polygon", "coordinates": [[[80.125, 10.625], [80.375, 10.625], [80.375, 10.875], [80.125, 10.875], [80.125, 10.625]]]}, "properties": {"time": "2020-11-25T18:00:00", "variable": "ws", "tier": "low", "percentile": 100.0, "z": 5.21, "wind_ms": 15.88, "value": 15.88, "lat": 10.75, "lon": 80.25}}, {"type": "Feature", "geometry": {"type": "Polygon", "coordinates": [[[80.375, 10.625], [80.625, 10.625], [80.625, 10.875], [80.375, 10.875], [80.375, 10.625]]]}, "properties": {"time": "2020-11-25T18:00:00", "variable": "ws", "tier": "low", "percentile": 100.0, "z": 5.91, "wind_ms": 16.68, "value": 16.68, "lat": 10.75, "lon": 80.5}}, {"type": "Feature", "geometry": {"type": "Polygon", "coordinates": [[[80.625, 10.625], [80.875, 10.625], [80.875, 10.875], [80.625, 10.875], [80.625, 10.625]]]}, "properties": {"time": "2020-11-25T18:00:00", "variable": "ws", "tier": "moderate", "percentile": 100.0, "z": 5.56, "wind_ms": 17.14, "value": 17.14, "lat": 10.75, "lon": 80.75}}, {"type": "Feature", "geometry": {"type": "Polygon", "coordinates": [[[80.875, 10.625], [81.125, 10.625], [81.125, 10.875], [80.875, 10.875], [80.875, 10.625]]]}, "properties": {"time": "2020-11-25T18:00:00", "variable": "ws", "tier": "low", "percentile": 100.0, "z": 4.99, "wind_ms": 16.43, "value": 16.43, "lat": 10.75, "lon": 81.0}}, {"type": "Feature", "geometry": {"type": "Polygon", "coordinates": [[[81.125, 10.625], [81.375, 10.625], [81.375, 10.875], [81.125, 10.875], [81.125, 10.625]]]}, "properties": {"time": "2020-11-25T18:00:00", "variable": "ws", "tier": "low", "percentile": 100.0, "z": 4.46, "wind_ms": 15.66, "value": 15.66, "lat": 10.75, "lon": 81.25}}, {"type": "Feature", "geometry": {"type": "Polygon", "coordinates": [[[81.375, 10.625], [81.625, 10.625], [81.625, 10.875], [81.375, 10.875], [81.375, 10.625]]]}, "properties": {"time": "2020-11-25T18:00:00", "variable": "ws", "tier": "low", "percentile": 100.0, "z": 3.99, "wind_ms": 14.55, "value": 14.55, "lat": 10.75, "lon": 81.5}}, {"type": "Feature", "geometry": {"type": "Polygon", "coordinates": [[[81.625, 10.625], [81.875, 10.625], [81.875, 10.875], [81.625, 10.875], [81.625, 10.625]]]}, "properties": {"time": "2020-11-25T18:00:00", "variable": "ws", "tier": "low", "percentile": 99.1, "z": 3.6, "wind_ms": 13.77, "value": 13.77, "lat": 10.75, "lon": 81.75}}, {"type": "Feature", "geometry": {"type": "Polygon", "coordinates": [[[81.875, 10.625], [82.125, 10.625], [82.125, 10.875], [81.875, 10.875], [81.875, 10.625]]]}, "properties": {"time": "2020-11-25T18:00:00", "variable": "ws", "tier": "low", "percentile": 99.1, "z": 3.23, "wind_ms": 12.97, "value": 12.97, "lat": 10.75, "lon": 82.0}}, {"type": "Feature", "geometry": {"type": "Polygon", "coordinates": [[[82.125, 10.625], [82.375, 10.625], [82.375, 10.875], [82.125, 10.875], [82.125, 10.625]]]}, "properties": {"time": "2020-11-25T18:00:00", "variable": "ws", "tier": "low", "percentile": 99.1, "z": 2.88, "wind_ms": 12.28, "value": 12.28, "lat": 10.75, "lon": 82.25}}, {"type": "Feature", "geometry": {"type": "Polygon", "coordinates": [[[82.375, 10.625], [82.625, 10.625], [82.625, 10.875], [82.375, 10.875], [82.375, 10.625]]]}, "properties": {"time": "2020-11-25T18:00:00", "variable": "ws", "tier": "low", "percentile": 99.1, "z": 2.54, "wind_ms": 11.57, "value": 11.57, "lat": 10.75, "lon": 82.5}}, {"type": "Feature", "geometry": {"type": "Polygon", "coordinates": [[[82.625, 10.625], [82.875, 10.625], [82.875, 10.875], [82.625, 10.875], [82.625, 10.625]]]}, "properties": {"time": "2020-11-25T18:00:00", "variable": "ws", "tier": "low", "percentile": 99.1, "z": 2.32, "wind_ms": 11.12, "value": 11.12, "lat": 10.75, "lon": 82.75}}, {"type": "Feature", "geometry": {"type": "Polygon", "coordinates": [[[82.875, 10.625], [83.125, 10.625], [83.125, 10.875], [82.875, 10.875], [82.875, 10.625]]]}, "properties": {"time": "2020-11-25T18:00:00", "variable": "ws", "tier": "low", "percentile": 99.1, "z": 2.17, "wind_ms": 10.83, "value": 10.83, "lat": 10.75, "lon": 83.0}}, {"type": "Feature", "geometry": {"type": "Polygon", "coordinates": [[[79.625, 10.875], [79.875, 10.875], [79.875, 11.125], [79.625, 11.125], [79.625, 10.875]]]}, "properties": {"time": "2020-11-25T18:00:00", "variable": "ws", "tier": "low", "percentile": 100.0, "z": 3.98, "wind_ms": 10.46, "value": 10.46, "lat": 11.0, "lon": 79.75}}, {"type": "Feature", "geometry": {"type": "Polygon", "coordinates": [[[79.875, 10.875], [80.125, 10.875], [80.125, 11.125], [79.875, 11.125], [79.875, 10.875]]]}, "properties": {"time": "2020-11-25T18:00:00", "variable": "ws", "tier": "low", "percentile": 100.0, "z": 4.31, "wind_ms": 14.39, "value": 14.39, "lat": 11.0, "lon": 80.0}}, {"type": "Feature", "geometry": {"type": "Polygon", "coordinates": [[[80.125, 10.875], [80.375, 10.875], [80.375, 11.125], [80.125, 11.125], [80.125, 10.875]]]}, "properties": {"time": "2020-11-25T18:00:00", "variable": "ws", "tier": "low", "percentile": 100.0, "z": 5.42, "wind_ms": 16.37, "value": 16.37, "lat": 11.0, "lon": 80.25}}, {"type": "Feature", "geometry": {"type": "Polygon", "coordinates": [[[80.375, 10.875], [80.625, 10.875], [80.625, 11.125], [80.375, 11.125], [80.375, 10.875]]]}, "properties": {"time": "2020-11-25T18:00:00", "variable": "ws", "tier": "moderate", "percentile": 100.0, "z": 6.16, "wind_ms": 17.59, "value": 17.59, "lat": 11.0, "lon": 80.5}}, {"type": "Feature", "geometry": {"type": "Polygon", "coordinates": [[[80.625, 10.875], [80.875, 10.875], [80.875, 11.125], [80.625, 11.125], [80.625, 10.875]]]}, "properties": {"time": "2020-11-25T18:00:00", "variable": "ws", "tier": "moderate", "percentile": 100.0, "z": 5.89, "wind_ms": 18.16, "value": 18.16, "lat": 11.0, "lon": 80.75}}, {"type": "Feature", "geometry": {"type": "Polygon", "coordinates": [[[80.875, 10.875], [81.125, 10.875], [81.125, 11.125], [80.875, 11.125], [80.875, 10.875]]]}, "properties": {"time": "2020-11-25T18:00:00", "variable": "ws", "tier": "moderate", "percentile": 100.0, "z": 5.57, "wind_ms": 17.74, "value": 17.74, "lat": 11.0, "lon": 81.0}}, {"type": "Feature", "geometry": {"type": "Polygon", "coordinates": [[[81.125, 10.875], [81.375, 10.875], [81.375, 11.125], [81.125, 11.125], [81.125, 10.875]]]}, "properties": {"time": "2020-11-25T18:00:00", "variable": "ws", "tier": "moderate", "percentile": 100.0, "z": 5.18, "wind_ms": 17.06, "value": 17.06, "lat": 11.0, "lon": 81.25}}, {"type": "Feature", "geometry": {"type": "Polygon", "coordinates": [[[81.375, 10.875], [81.625, 10.875], [81.625, 11.125], [81.375, 11.125], [81.375, 10.875]]]}, "properties": {"time": "2020-11-25T18:00:00", "variable": "ws", "tier": "low", "percentile": 100.0, "z": 4.64, "wind_ms": 15.94, "value": 15.94, "lat": 11.0, "lon": 81.5}}, {"type": "Feature", "geometry": {"type": "Polygon", "coordinates": [[[81.625, 10.875], [81.875, 10.875], [81.875, 11.125], [81.625, 11.125], [81.625, 10.875]]]}, "properties": {"time": "2020-11-25T18:00:00", "variable": "ws", "tier": "low", "percentile": 100.0, "z": 4.16, "wind_ms": 14.93, "value": 14.93, "lat": 11.0, "lon": 81.75}}, {"type": "Feature", "geometry": {"type": "Polygon", "coordinates": [[[81.875, 10.875], [82.125, 10.875], [82.125, 11.125], [81.875, 11.125], [81.875, 10.875]]]}, "properties": {"time": "2020-11-25T18:00:00", "variable": "ws", "tier": "low", "percentile": 100.0, "z": 3.82, "wind_ms": 14.17, "value": 14.17, "lat": 11.0, "lon": 82.0}}, {"type": "Feature", "geometry": {"type": "Polygon", "coordinates": [[[82.125, 10.875], [82.375, 10.875], [82.375, 11.125], [82.125, 11.125], [82.125, 10.875]]]}, "properties": {"time": "2020-11-25T18:00:00", "variable": "ws", "tier": "low", "percentile": 99.1, "z": 3.33, "wind_ms": 13.07, "value": 13.07, "lat": 11.0, "lon": 82.25}}, {"type": "Feature", "geometry": {"type": "Polygon", "coordinates": [[[82.375, 10.875], [82.625, 10.875], [82.625, 11.125], [82.375, 11.125], [82.375, 10.875]]]}, "properties": {"time": "2020-11-25T18:00:00", "variable": "ws", "tier": "low", "percentile": 99.1, "z": 2.97, "wind_ms": 12.35, "value": 12.35, "lat": 11.0, "lon": 82.5}}, {"type": "Feature", "geometry": {"type": "Polygon", "coordinates": [[[82.625, 10.875], [82.875, 10.875], [82.875, 11.125], [82.625, 11.125], [82.625, 10.875]]]}, "properties": {"time": "2020-11-25T18:00:00", "variable": "ws", "tier": "low", "percentile": 99.1, "z": 2.7, "wind_ms": 11.78, "value": 11.78, "lat": 11.0, "lon": 82.75}}, {"type": "Feature", "geometry": {"type": "Polygon", "coordinates": [[[82.875, 10.875], [83.125, 10.875], [83.125, 11.125], [82.875, 11.125], [82.875, 10.875]]]}, "properties": {"time": "2020-11-25T18:00:00", "variable": "ws", "tier": "low", "percentile": 99.1, "z": 2.48, "wind_ms": 11.4, "value": 11.4, "lat": 11.0, "lon": 83.0}}, {"type": "Feature", "geometry": {"type": "Polygon", "coordinates": [[[79.625, 11.125], [79.875, 11.125], [79.875, 11.375], [79.625, 11.375], [79.625, 11.125]]]}, "properties": {"time": "2020-11-25T18:00:00", "variable": "ws", "tier": "low", "percentile": 100.0, "z": 4.2, "wind_ms": 10.99, "value": 10.99, "lat": 11.25, "lon": 79.75}}, {"type": "Feature", "geometry": {"type": "Polygon", "coordinates": [[[79.875, 11.125], [80.125, 11.125], [80.125, 11.375], [79.875, 11.375], [79.875, 11.125]]]}, "properties": {"time": "2020-11-25T18:00:00", "variable": "ws", "tier": "low", "percentile": 100.0, "z": 4.28, "wind_ms": 14.78, "value": 14.78, "lat": 11.25, "lon": 80.0}}, {"type": "Feature", "geometry": {"type": "Polygon", "coordinates": [[[80.125, 11.125], [80.375, 11.125], [80.375, 11.375], [80.125, 11.375], [80.125, 11.125]]]}, "properties": {"time": "2020-11-25T18:00:00", "variable": "ws", "tier": "moderate", "percentile": 100.0, "z": 5.5, "wind_ms": 17.09, "value": 17.09, "lat": 11.25, "lon": 80.25}}, {"type": "Feature", "geometry": {"type": "Polygon", "coordinates": [[[80.375, 11.125], [80.625, 11.125], [80.625, 11.375], [80.375, 11.375], [80.375, 11.125]]]}, "properties": {"time": "2020-11-25T18:00:00", "variable": "ws", "tier": "moderate", "percentile": 100.0, "z": 6.06, "wind_ms": 18.14, "value": 18.14, "lat": 11.25, "lon": 80.5}}, {"type": "Feature", "geometry": {"type": "Polygon", "coordinates": [[[80.625, 11.125], [80.875, 11.125], [80.875, 11.375], [80.625, 11.375], [80.625, 11.125]]]}, "properties": {"time": "2020-11-25T18:00:00", "variable": "ws", "tier": "moderate", "percentile": 100.0, "z": 6.02, "wind_ms": 18.65, "value": 18.65, "lat": 11.25, "lon": 80.75}}, {"type": "Feature", "geometry": {"type": "Polygon", "coordinates": [[[80.875, 11.125], [81.125, 11.125], [81.125, 11.375], [80.875, 11.375], [80.875, 11.125]]]}, "properties": {"time": "2020-11-25T18:00:00", "variable": "ws", "tier": "moderate", "percentile": 100.0, "z": 5.94, "wind_ms": 18.6, "value": 18.6, "lat": 11.25, "lon": 81.0}}, {"type": "Feature", "geometry": {"type": "Polygon", "coordinates": [[[81.125, 11.125], [81.375, 11.125], [81.375, 11.375], [81.125, 11.375], [81.125, 11.125]]]}, "properties": {"time": "2020-11-25T18:00:00", "variable": "ws", "tier": "moderate", "percentile": 100.0, "z": 5.73, "wind_ms": 18.25, "value": 18.25, "lat": 11.25, "lon": 81.25}}, {"type": "Feature", "geometry": {"type": "Polygon", "coordinates": [[[81.375, 11.125], [81.625, 11.125], [81.625, 11.375], [81.375, 11.375], [81.375, 11.125]]]}, "properties": {"time": "2020-11-25T18:00:00", "variable": "ws", "tier": "moderate", "percentile": 100.0, "z": 5.31, "wind_ms": 17.21, "value": 17.21, "lat": 11.25, "lon": 81.5}}, {"type": "Feature", "geometry": {"type": "Polygon", "coordinates": [[[81.625, 11.125], [81.875, 11.125], [81.875, 11.375], [81.625, 11.375], [81.625, 11.125]]]}, "properties": {"time": "2020-11-25T18:00:00", "variable": "ws", "tier": "low", "percentile": 100.0, "z": 4.9, "wind_ms": 16.37, "value": 16.37, "lat": 11.25, "lon": 81.75}}, {"type": "Feature", "geometry": {"type": "Polygon", "coordinates": [[[81.875, 11.125], [82.125, 11.125], [82.125, 11.375], [81.875, 11.375], [81.875, 11.125]]]}, "properties": {"time": "2020-11-25T18:00:00", "variable": "ws", "tier": "low", "percentile": 100.0, "z": 4.32, "wind_ms": 15.11, "value": 15.11, "lat": 11.25, "lon": 82.0}}, {"type": "Feature", "geometry": {"type": "Polygon", "coordinates": [[[82.125, 11.125], [82.375, 11.125], [82.375, 11.375], [82.125, 11.375], [82.125, 11.125]]]}, "properties": {"time": "2020-11-25T18:00:00", "variable": "ws", "tier": "low", "percentile": 100.0, "z": 3.82, "wind_ms": 14.02, "value": 14.02, "lat": 11.25, "lon": 82.25}}, {"type": "Feature", "geometry": {"type": "Polygon", "coordinates": [[[82.375, 11.125], [82.625, 11.125], [82.625, 11.375], [82.375, 11.375], [82.375, 11.125]]]}, "properties": {"time": "2020-11-25T18:00:00", "variable": "ws", "tier": "low", "percentile": 99.1, "z": 3.41, "wind_ms": 13.06, "value": 13.06, "lat": 11.25, "lon": 82.5}}, {"type": "Feature", "geometry": {"type": "Polygon", "coordinates": [[[82.625, 11.125], [82.875, 11.125], [82.875, 11.375], [82.625, 11.375], [82.625, 11.125]]]}, "properties": {"time": "2020-11-25T18:00:00", "variable": "ws", "tier": "low", "percentile": 99.1, "z": 3.14, "wind_ms": 12.48, "value": 12.48, "lat": 11.25, "lon": 82.75}}, {"type": "Feature", "geometry": {"type": "Polygon", "coordinates": [[[82.875, 11.125], [83.125, 11.125], [83.125, 11.375], [82.875, 11.375], [82.875, 11.125]]]}, "properties": {"time": "2020-11-25T18:00:00", "variable": "ws", "tier": "low", "percentile": 99.1, "z": 2.75, "wind_ms": 11.87, "value": 11.87, "lat": 11.25, "lon": 83.0}}, {"type": "Feature", "geometry": {"type": "Polygon", "coordinates": [[[79.625, 11.375], [79.875, 11.375], [79.875, 11.625], [79.625, 11.625], [79.625, 11.375]]]}, "properties": {"time": "2020-11-25T18:00:00", "variable": "ws", "tier": "low", "percentile": 100.0, "z": 4.45, "wind_ms": 11.49, "value": 11.49, "lat": 11.5, "lon": 79.75}}, {"type": "Feature", "geometry": {"type": "Polygon", "coordinates": [[[79.875, 11.375], [80.125, 11.375], [80.125, 11.625], [79.875, 11.625], [79.875, 11.375]]]}, "properties": {"time": "2020-11-25T18:00:00", "variable": "ws", "tier": "low", "percentile": 100.0, "z": 4.75, "wind_ms": 15.69, "value": 15.69, "lat": 11.5, "lon": 80.0}}, {"type": "Feature", "geometry": {"type": "Polygon", "coordinates": [[[80.125, 11.375], [80.375, 11.375], [80.375, 11.625], [80.125, 11.625], [80.125, 11.375]]]}, "properties": {"time": "2020-11-25T18:00:00", "variable": "ws", "tier": "moderate", "percentile": 100.0, "z": 5.66, "wind_ms": 17.67, "value": 17.67, "lat": 11.5, "lon": 80.25}}, {"type": "Feature", "geometry": {"type": "Polygon", "coordinates": [[[80.375, 11.375], [80.625, 11.375], [80.625, 11.625], [80.375, 11.625], [80.375, 11.375]]]}, "properties": {"time": "2020-11-25T18:00:00", "variable": "ws", "tier": "moderate", "percentile": 100.0, "z": 5.87, "wind_ms": 18.09, "value": 18.09, "lat": 11.5, "lon": 80.5}}, {"type": "Feature", "geometry": {"type": "Polygon", "coordinates": [[[80.625, 11.375], [80.875, 11.375], [80.875, 11.625], [80.625, 11.625], [80.625, 11.375]]]}, "properties": {"time": "2020-11-25T18:00:00", "variable": "ws", "tier": "moderate", "percentile": 100.0, "z": 5.83, "wind_ms": 18.36, "value": 18.36, "lat": 11.5, "lon": 80.75}}, {"type": "Feature", "geometry": {"type": "Polygon", "coordinates": [[[80.875, 11.375], [81.125, 11.375], [81.125, 11.625], [80.875, 11.625], [80.875, 11.375]]]}, "properties": {"time": "2020-11-25T18:00:00", "variable": "ws", "tier": "moderate", "percentile": 100.0, "z": 6.17, "wind_ms": 18.96, "value": 18.96, "lat": 11.5, "lon": 81.0}}, {"type": "Feature", "geometry": {"type": "Polygon", "coordinates": [[[81.125, 11.375], [81.375, 11.375], [81.375, 11.625], [81.125, 11.625], [81.125, 11.375]]]}, "properties": {"time": "2020-11-25T18:00:00", "variable": "ws", "tier": "moderate", "percentile": 100.0, "z": 6.14, "wind_ms": 19.15, "value": 19.15, "lat": 11.5, "lon": 81.25}}, {"type": "Feature", "geometry": {"type": "Polygon", "coordinates": [[[81.375, 11.375], [81.625, 11.375], [81.625, 11.625], [81.375, 11.625], [81.375, 11.375]]]}, "properties": {"time": "2020-11-25T18:00:00", "variable": "ws", "tier": "moderate", "percentile": 100.0, "z": 5.88, "wind_ms": 18.31, "value": 18.31, "lat": 11.5, "lon": 81.5}}, {"type": "Feature", "geometry": {"type": "Polygon", "coordinates": [[[81.625, 11.375], [81.875, 11.375], [81.875, 11.625], [81.625, 11.625], [81.625, 11.375]]]}, "properties": {"time": "2020-11-25T18:00:00", "variable": "ws", "tier": "moderate", "percentile": 100.0, "z": 5.4, "wind_ms": 17.27, "value": 17.27, "lat": 11.5, "lon": 81.75}}, {"type": "Feature", "geometry": {"type": "Polygon", "coordinates": [[[81.875, 11.375], [82.125, 11.375], [82.125, 11.625], [81.875, 11.625], [81.875, 11.375]]]}, "properties": {"time": "2020-11-25T18:00:00", "variable": "ws", "tier": "low", "percentile": 100.0, "z": 4.89, "wind_ms": 16.16, "value": 16.16, "lat": 11.5, "lon": 82.0}}, {"type": "Feature", "geometry": {"type": "Polygon", "coordinates": [[[82.125, 11.375], [82.375, 11.375], [82.375, 11.625], [82.125, 11.625], [82.125, 11.375]]]}, "properties": {"time": "2020-11-25T18:00:00", "variable": "ws", "tier": "low", "percentile": 100.0, "z": 4.28, "wind_ms": 14.74, "value": 14.74, "lat": 11.5, "lon": 82.25}}, {"type": "Feature", "geometry": {"type": "Polygon", "coordinates": [[[82.375, 11.375], [82.625, 11.375], [82.625, 11.625], [82.375, 11.625], [82.375, 11.375]]]}, "properties": {"time": "2020-11-25T18:00:00", "variable": "ws", "tier": "low", "percentile": 100.0, "z": 3.81, "wind_ms": 13.74, "value": 13.74, "lat": 11.5, "lon": 82.5}}, {"type": "Feature", "geometry": {"type": "Polygon", "coordinates": [[[82.625, 11.375], [82.875, 11.375], [82.875, 11.625], [82.625, 11.625], [82.625, 11.375]]]}, "properties": {"time": "2020-11-25T18:00:00", "variable": "ws", "tier": "low", "percentile": 99.1, "z": 3.45, "wind_ms": 12.95, "value": 12.95, "lat": 11.5, "lon": 82.75}}, {"type": "Feature", "geometry": {"type": "Polygon", "coordinates": [[[82.875, 11.375], [83.125, 11.375], [83.125, 11.625], [82.875, 11.625], [82.875, 11.375]]]}, "properties": {"time": "2020-11-25T18:00:00", "variable": "ws", "tier": "low", "percentile": 99.1, "z": 3.02, "wind_ms": 12.27, "value": 12.27, "lat": 11.5, "lon": 83.0}}, {"type": "Feature", "geometry": {"type": "Polygon", "coordinates": [[[79.375, 11.625], [79.625, 11.625], [79.625, 11.875], [79.375, 11.875], [79.375, 11.625]]]}, "properties": {"time": "2020-11-25T18:00:00", "variable": "ws", "tier": "low", "percentile": 100.0, "z": 6.07, "wind_ms": 8.72, "value": 8.72, "lat": 11.75, "lon": 79.5}}, {"type": "Feature", "geometry": {"type": "Polygon", "coordinates": [[[79.625, 11.625], [79.875, 11.625], [79.875, 11.875], [79.625, 11.875], [79.625, 11.625]]]}, "properties": {"time": "2020-11-25T18:00:00", "variable": "ws", "tier": "low", "percentile": 100.0, "z": 5.77, "wind_ms": 12.57, "value": 12.57, "lat": 11.75, "lon": 79.75}}, {"type": "Feature", "geometry": {"type": "Polygon", "coordinates": [[[79.875, 11.625], [80.125, 11.625], [80.125, 11.875], [79.875, 11.875], [79.875, 11.625]]]}, "properties": {"time": "2020-11-25T18:00:00", "variable": "ws", "tier": "low", "percentile": 100.0, "z": 5.54, "wind_ms": 16.28, "value": 16.28, "lat": 11.75, "lon": 80.0}}, {"type": "Feature", "geometry": {"type": "Polygon", "coordinates": [[[80.125, 11.625], [80.375, 11.625], [80.375, 11.875], [80.125, 11.875], [80.125, 11.625]]]}, "properties": {"time": "2020-11-25T18:00:00", "variable": "ws", "tier": "low", "percentile": 100.0, "z": 4.55, "wind_ms": 15.68, "value": 15.68, "lat": 11.75, "lon": 80.25}}, {"type": "Feature", "geometry": {"type": "Polygon", "coordinates": [[[80.375, 11.625], [80.625, 11.625], [80.625, 11.875], [80.375, 11.875], [80.375, 11.625]]]}, "properties": {"time": "2020-11-25T18:00:00", "variable": "ws", "tier": "low", "percentile": 100.0, "z": 4.68, "wind_ms": 15.69, "value": 15.69, "lat": 11.75, "lon": 80.5}}, {"type": "Feature", "geometry": {"type": "Polygon", "coordinates": [[[80.625, 11.625], [80.875, 11.625], [80.875, 11.875], [80.625, 11.875], [80.625, 11.625]]]}, "properties": {"time": "2020-11-25T18:00:00", "variable": "ws", "tier": "low", "percentile": 100.0, "z": 5.01, "wind_ms": 16.63, "value": 16.63, "lat": 11.75, "lon": 80.75}}, {"type": "Feature", "geometry": {"type": "Polygon", "coordinates": [[[80.875, 11.625], [81.125, 11.625], [81.125, 11.875], [80.875, 11.875], [80.875, 11.625]]]}, "properties": {"time": "2020-11-25T18:00:00", "variable": "ws", "tier": "moderate", "percentile": 100.0, "z": 5.95, "wind_ms": 18.4, "value": 18.4, "lat": 11.75, "lon": 81.0}}, {"type": "Feature", "geometry": {"type": "Polygon", "coordinates": [[[81.125, 11.625], [81.375, 11.625], [81.375, 11.875], [81.125, 11.875], [81.125, 11.625]]]}, "properties": {"time": "2020-11-25T18:00:00", "variable": "ws", "tier": "moderate", "percentile": 100.0, "z": 6.42, "wind_ms": 19.39, "value": 19.39, "lat": 11.75, "lon": 81.25}}, {"type": "Feature", "geometry": {"type": "Polygon", "coordinates": [[[81.375, 11.625], [81.625, 11.625], [81.625, 11.875], [81.375, 11.875], [81.375, 11.625]]]}, "properties": {"time": "2020-11-25T18:00:00", "variable": "ws", "tier": "moderate", "percentile": 100.0, "z": 6.15, "wind_ms": 18.82, "value": 18.82, "lat": 11.75, "lon": 81.5}}, {"type": "Feature", "geometry": {"type": "Polygon", "coordinates": [[[81.625, 11.625], [81.875, 11.625], [81.875, 11.875], [81.625, 11.875], [81.625, 11.625]]]}, "properties": {"time": "2020-11-25T18:00:00", "variable": "ws", "tier": "moderate", "percentile": 100.0, "z": 5.9, "wind_ms": 18.17, "value": 18.17, "lat": 11.75, "lon": 81.75}}, {"type": "Feature", "geometry": {"type": "Polygon", "coordinates": [[[81.875, 11.625], [82.125, 11.625], [82.125, 11.875], [81.875, 11.875], [81.875, 11.625]]]}, "properties": {"time": "2020-11-25T18:00:00", "variable": "ws", "tier": "low", "percentile": 100.0, "z": 5.3, "wind_ms": 16.8, "value": 16.8, "lat": 11.75, "lon": 82.0}}, {"type": "Feature", "geometry": {"type": "Polygon", "coordinates": [[[82.125, 11.625], [82.375, 11.625], [82.375, 11.875], [82.125, 11.875], [82.125, 11.625]]]}, "properties": {"time": "2020-11-25T18:00:00", "variable": "ws", "tier": "low", "percentile": 100.0, "z": 4.66, "wind_ms": 15.33, "value": 15.33, "lat": 11.75, "lon": 82.25}}, {"type": "Feature", "geometry": {"type": "Polygon", "coordinates": [[[82.375, 11.625], [82.625, 11.625], [82.625, 11.875], [82.375, 11.875], [82.375, 11.625]]]}, "properties": {"time": "2020-11-25T18:00:00", "variable": "ws", "tier": "low", "percentile": 100.0, "z": 4.09, "wind_ms": 14.13, "value": 14.13, "lat": 11.75, "lon": 82.5}}, {"type": "Feature", "geometry": {"type": "Polygon", "coordinates": [[[82.625, 11.625], [82.875, 11.625], [82.875, 11.875], [82.625, 11.875], [82.625, 11.625]]]}, "properties": {"time": "2020-11-25T18:00:00", "variable": "ws", "tier": "low", "percentile": 99.1, "z": 3.62, "wind_ms": 13.32, "value": 13.32, "lat": 11.75, "lon": 82.75}}, {"type": "Feature", "geometry": {"type": "Polygon", "coordinates": [[[82.875, 11.625], [83.125, 11.625], [83.125, 11.875], [82.875, 11.875], [82.875, 11.625]]]}, "properties": {"time": "2020-11-25T18:00:00", "variable": "ws", "tier": "low", "percentile": 99.1, "z": 3.23, "wind_ms": 12.6, "value": 12.6, "lat": 11.75, "lon": 83.0}}, {"type": "Feature", "geometry": {"type": "Polygon", "coordinates": [[[79.375, 11.875], [79.625, 11.875], [79.625, 12.125], [79.375, 12.125], [79.375, 11.875]]]}, "properties": {"time": "2020-11-25T18:00:00", "variable": "ws", "tier": "low", "percentile": 100.0, "z": 7.24, "wind_ms": 9.7, "value": 9.7, "lat": 12.0, "lon": 79.5}}, {"type": "Feature", "geometry": {"type": "Polygon", "coordinates": [[[79.625, 11.875], [79.875, 11.875], [79.875, 12.125], [79.625, 12.125], [79.625, 11.875]]]}, "properties": {"time": "2020-11-25T18:00:00", "variable": "ws", "tier": "low", "percentile": 100.0, "z": 6.69, "wind_ms": 13.08, "value": 13.08, "lat": 12.0, "lon": 79.75}}, {"type": "Feature", "geometry": {"type": "Polygon", "coordinates": [[[79.875, 11.875], [80.125, 11.875], [80.125, 12.125], [79.875, 12.125], [79.875, 11.875]]]}, "properties": {"time": "2020-11-25T18:00:00", "variable": "ws", "tier": "low", "percentile": 99.1, "z": 3.37, "wind_ms": 11.69, "value": 11.69, "lat": 12.0, "lon": 80.0}}, {"type": "Feature", "geometry": {"type": "Polygon", "coordinates": [[[80.625, 11.875], [80.875, 11.875], [80.875, 12.125], [80.625, 12.125], [80.625, 11.875]]]}, "properties": {"time": "2020-11-25T18:00:00", "variable": "ws", "tier": "low", "percentile": 100.0, "z": 3.34, "wind_ms": 13.05, "value": 13.05, "lat": 12.0, "lon": 80.75}}, {"type": "Feature", "geometry": {"type": "Polygon", "coordinates": [[[80.875, 11.875], [81.125, 11.875], [81.125, 12.125], [80.875, 12.125], [80.875, 11.875]]]}, "properties": {"time": "2020-11-25T18:00:00", "variable": "ws", "tier": "moderate", "percentile": 100.0, "z": 5.3, "wind_ms": 17.03, "value": 17.03, "lat": 12.0, "lon": 81.0}}, {"type": "Feature", "geometry": {"type": "Polygon", "coordinates": [[[81.125, 11.875], [81.375, 11.875], [81.375, 12.125], [81.125, 12.125], [81.125, 11.875]]]}, "properties": {"time": "2020-11-25T18:00:00", "variable": "ws", "tier": "moderate", "percentile": 100.0, "z": 6.58, "wind_ms": 19.25, "value": 19.25, "lat": 12.0, "lon": 81.25}}, {"type": "Feature", "geometry": {"type": "Polygon", "coordinates": [[[81.375, 11.875], [81.625, 11.875], [81.625, 12.125], [81.375, 12.125], [81.375, 11.875]]]}, "properties": {"time": "2020-11-25T18:00:00", "variable": "ws", "tier": "moderate", "percentile": 100.0, "z": 6.62, "wind_ms": 19.39, "value": 19.39, "lat": 12.0, "lon": 81.5}}, {"type": "Feature", "geometry": {"type": "Polygon", "coordinates": [[[81.625, 11.875], [81.875, 11.875], [81.875, 12.125], [81.625, 12.125], [81.625, 11.875]]]}, "properties": {"time": "2020-11-25T18:00:00", "variable": "ws", "tier": "moderate", "percentile": 100.0, "z": 6.27, "wind_ms": 18.57, "value": 18.57, "lat": 12.0, "lon": 81.75}}, {"type": "Feature", "geometry": {"type": "Polygon", "coordinates": [[[81.875, 11.875], [82.125, 11.875], [82.125, 12.125], [81.875, 12.125], [81.875, 11.875]]]}, "properties": {"time": "2020-11-25T18:00:00", "variable": "ws", "tier": "moderate", "percentile": 100.0, "z": 5.65, "wind_ms": 17.23, "value": 17.23, "lat": 12.0, "lon": 82.0}}, {"type": "Feature", "geometry": {"type": "Polygon", "coordinates": [[[82.125, 11.875], [82.375, 11.875], [82.375, 12.125], [82.125, 12.125], [82.125, 11.875]]]}, "properties": {"time": "2020-11-25T18:00:00", "variable": "ws", "tier": "low", "percentile": 100.0, "z": 4.83, "wind_ms": 15.67, "value": 15.67, "lat": 12.0, "lon": 82.25}}, {"type": "Feature", "geometry": {"type": "Polygon", "coordinates": [[[82.375, 11.875], [82.625, 11.875], [82.625, 12.125], [82.375, 12.125], [82.375, 11.875]]]}, "properties": {"time": "2020-11-25T18:00:00", "variable": "ws", "tier": "low", "percentile": 100.0, "z": 4.18, "wind_ms": 14.45, "value": 14.45, "lat": 12.0, "lon": 82.5}}, {"type": "Feature", "geometry": {"type": "Polygon", "coordinates": [[[82.625, 11.875], [82.875, 11.875], [82.875, 12.125], [82.625, 12.125], [82.625, 11.875]]]}, "properties": {"time": "2020-11-25T18:00:00", "variable": "ws", "tier": "low", "percentile": 100.0, "z": 3.66, "wind_ms": 13.48, "value": 13.48, "lat": 12.0, "lon": 82.75}}, {"type": "Feature", "geometry": {"type": "Polygon", "coordinates": [[[82.875, 11.875], [83.125, 11.875], [83.125, 12.125], [82.875, 12.125], [82.875, 11.875]]]}, "properties": {"time": "2020-11-25T18:00:00", "variable": "ws", "tier": "low", "percentile": 99.1, "z": 3.33, "wind_ms": 12.81, "value": 12.81, "lat": 12.0, "lon": 83.0}}, {"type": "Feature", "geometry": {"type": "Polygon", "coordinates": [[[79.375, 12.125], [79.625, 12.125], [79.625, 12.375], [79.375, 12.375], [79.375, 12.125]]]}, "properties": {"time": "2020-11-25T18:00:00", "variable": "ws", "tier": "low", "percentile": 100.0, "z": 7.81, "wind_ms": 10.17, "value": 10.17, "lat": 12.25, "lon": 79.5}}, {"type": "Feature", "geometry": {"type": "Polygon", "coordinates": [[[79.625, 12.125], [79.875, 12.125], [79.875, 12.375], [79.625, 12.375], [79.625, 12.125]]]}, "properties": {"time": "2020-11-25T18:00:00", "variable": "ws", "tier": "low", "percentile": 100.0, "z": 7.54, "wind_ms": 10.28, "value": 10.28, "lat": 12.25, "lon": 79.75}}, {"type": "Feature", "geometry": {"type": "Polygon", "coordinates": [[[80.375, 12.125], [80.625, 12.125], [80.625, 12.375], [80.375, 12.375], [80.375, 12.125]]]}, "properties": {"time": "2020-11-25T18:00:00", "variable": "ws", "tier": "low", "percentile": 97.4, "z": 2.12, "wind_ms": 10.71, "value": 10.71, "lat": 12.25, "lon": 80.5}}, {"type": "Feature", "geometry": {"type": "Polygon", "coordinates": [[[80.625, 12.125], [80.875, 12.125], [80.875, 12.375], [80.625, 12.375], [80.625, 12.125]]]}, "properties": {"time": "2020-11-25T18:00:00", "variable": "ws", "tier": "low", "percentile": 100.0, "z": 4.14, "wind_ms": 14.18, "value": 14.18, "lat": 12.25, "lon": 80.75}}, {"type": "Feature", "geometry": {"type": "Polygon", "coordinates": [[[80.875, 12.125], [81.125, 12.125], [81.125, 12.375], [80.875, 12.375], [80.875, 12.125]]]}, "properties": {"time": "2020-11-25T18:00:00", "variable": "ws", "tier": "moderate", "percentile": 100.0, "z": 5.5, "wind_ms": 17.03, "value": 17.03, "lat": 12.25, "lon": 81.0}}, {"type": "Feature", "geometry": {"type": "Polygon", "coordinates": [[[81.125, 12.125], [81.375, 12.125], [81.375, 12.375], [81.125, 12.375], [81.125, 12.125]]]}, "properties": {"time": "2020-11-25T18:00:00", "variable": "ws", "tier": "moderate", "percentile": 100.0, "z": 7.11, "wind_ms": 19.77, "value": 19.77, "lat": 12.25, "lon": 81.25}}, {"type": "Feature", "geometry": {"type": "Polygon", "coordinates": [[[81.375, 12.125], [81.625, 12.125], [81.625, 12.375], [81.375, 12.375], [81.375, 12.125]]]}, "properties": {"time": "2020-11-25T18:00:00", "variable": "ws", "tier": "moderate", "percentile": 100.0, "z": 7.03, "wind_ms": 19.79, "value": 19.79, "lat": 12.25, "lon": 81.5}}, {"type": "Feature", "geometry": {"type": "Polygon", "coordinates": [[[81.625, 12.125], [81.875, 12.125], [81.875, 12.375], [81.625, 12.375], [81.625, 12.125]]]}, "properties": {"time": "2020-11-25T18:00:00", "variable": "ws", "tier": "moderate", "percentile": 100.0, "z": 6.68, "wind_ms": 19.0, "value": 19.0, "lat": 12.25, "lon": 81.75}}, {"type": "Feature", "geometry": {"type": "Polygon", "coordinates": [[[81.875, 12.125], [82.125, 12.125], [82.125, 12.375], [81.875, 12.375], [81.875, 12.125]]]}, "properties": {"time": "2020-11-25T18:00:00", "variable": "ws", "tier": "moderate", "percentile": 100.0, "z": 5.82, "wind_ms": 17.38, "value": 17.38, "lat": 12.25, "lon": 82.0}}, {"type": "Feature", "geometry": {"type": "Polygon", "coordinates": [[[82.125, 12.125], [82.375, 12.125], [82.375, 12.375], [82.125, 12.375], [82.125, 12.125]]]}, "properties": {"time": "2020-11-25T18:00:00", "variable": "ws", "tier": "low", "percentile": 100.0, "z": 4.9, "wind_ms": 15.74, "value": 15.74, "lat": 12.25, "lon": 82.25}}, {"type": "Feature", "geometry": {"type": "Polygon", "coordinates": [[[82.375, 12.125], [82.625, 12.125], [82.625, 12.375], [82.375, 12.375], [82.375, 12.125]]]}, "properties": {"time": "2020-11-25T18:00:00", "variable": "ws", "tier": "low", "percentile": 100.0, "z": 4.24, "wind_ms": 14.53, "value": 14.53, "lat": 12.25, "lon": 82.5}}, {"type": "Feature", "geometry": {"type": "Polygon", "coordinates": [[[82.625, 12.125], [82.875, 12.125], [82.875, 12.375], [82.625, 12.375], [82.625, 12.125]]]}, "properties": {"time": "2020-11-25T18:00:00", "variable": "ws", "tier": "low", "percentile": 100.0, "z": 3.73, "wind_ms": 13.54, "value": 13.54, "lat": 12.25, "lon": 82.75}}, {"type": "Feature", "geometry": {"type": "Polygon", "coordinates": [[[82.875, 12.125], [83.125, 12.125], [83.125, 12.375], [82.875, 12.375], [82.875, 12.125]]]}, "properties": {"time": "2020-11-25T18:00:00", "variable": "ws", "tier": "low", "percentile": 100.0, "z": 3.45, "wind_ms": 12.97, "value": 12.97, "lat": 12.25, "lon": 83.0}}, {"type": "Feature", "geometry": {"type": "Polygon", "coordinates": [[[79.375, 12.375], [79.625, 12.375], [79.625, 12.625], [79.375, 12.625], [79.375, 12.375]]]}, "properties": {"time": "2020-11-25T18:00:00", "variable": "ws", "tier": "low", "percentile": 100.0, "z": 8.11, "wind_ms": 10.45, "value": 10.45, "lat": 12.5, "lon": 79.5}}, {"type": "Feature", "geometry": {"type": "Polygon", "coordinates": [[[79.625, 12.375], [79.875, 12.375], [79.875, 12.625], [79.625, 12.625], [79.625, 12.375]]]}, "properties": {"time": "2020-11-25T18:00:00", "variable": "ws", "tier": "low", "percentile": 100.0, "z": 7.88, "wind_ms": 10.32, "value": 10.32, "lat": 12.5, "lon": 79.75}}, {"type": "Feature", "geometry": {"type": "Polygon", "coordinates": [[[79.875, 12.375], [80.125, 12.375], [80.125, 12.625], [79.875, 12.625], [79.875, 12.375]]]}, "properties": {"time": "2020-11-25T18:00:00", "variable": "ws", "tier": "low", "percentile": 100.0, "z": 4.94, "wind_ms": 10.48, "value": 10.48, "lat": 12.5, "lon": 80.0}}, {"type": "Feature", "geometry": {"type": "Polygon", "coordinates": [[[80.125, 12.375], [80.375, 12.375], [80.375, 12.625], [80.125, 12.625], [80.125, 12.375]]]}, "properties": {"time": "2020-11-25T18:00:00", "variable": "ws", "tier": "low", "percentile": 100.0, "z": 4.39, "wind_ms": 13.66, "value": 13.66, "lat": 12.5, "lon": 80.25}}, {"type": "Feature", "geometry": {"type": "Polygon", "coordinates": [[[80.375, 12.375], [80.625, 12.375], [80.625, 12.625], [80.375, 12.625], [80.375, 12.375]]]}, "properties": {"time": "2020-11-25T18:00:00", "variable": "ws", "tier": "low", "percentile": 100.0, "z": 5.2, "wind_ms": 16.76, "value": 16.76, "lat": 12.5, "lon": 80.5}}, {"type": "Feature", "geometry": {"type": "Polygon", "coordinates": [[[80.625, 12.375], [80.875, 12.375], [80.875, 12.625], [80.625, 12.625], [80.625, 12.375]]]}, "properties": {"time": "2020-11-25T18:00:00", "variable": "ws", "tier": "moderate", "percentile": 100.0, "z": 5.99, "wind_ms": 17.67, "value": 17.67, "lat": 12.5, "lon": 80.75}}, {"type": "Feature", "geometry": {"type": "Polygon", "coordinates": [[[80.875, 12.375], [81.125, 12.375], [81.125, 12.625], [80.875, 12.625], [80.875, 12.375]]]}, "properties": {"time": "2020-11-25T18:00:00", "variable": "ws", "tier": "moderate", "percentile": 100.0, "z": 6.44, "wind_ms": 18.82, "value": 18.82, "lat": 12.5, "lon": 81.0}}, {"type": "Feature", "geometry": {"type": "Polygon", "coordinates": [[[81.125, 12.375], [81.375, 12.375], [81.375, 12.625], [81.125, 12.625], [81.125, 12.375]]]}, "properties": {"time": "2020-11-25T18:00:00", "variable": "ws", "tier": "moderate", "percentile": 100.0, "z": 7.55, "wind_ms": 20.58, "value": 20.58, "lat": 12.5, "lon": 81.25}}, {"type": "Feature", "geometry": {"type": "Polygon", "coordinates": [[[81.375, 12.375], [81.625, 12.375], [81.625, 12.625], [81.375, 12.625], [81.375, 12.375]]]}, "properties": {"time": "2020-11-25T18:00:00", "variable": "ws", "tier": "moderate", "percentile": 100.0, "z": 7.33, "wind_ms": 20.06, "value": 20.06, "lat": 12.5, "lon": 81.5}}, {"type": "Feature", "geometry": {"type": "Polygon", "coordinates": [[[81.625, 12.375], [81.875, 12.375], [81.875, 12.625], [81.625, 12.625], [81.625, 12.375]]]}, "properties": {"time": "2020-11-25T18:00:00", "variable": "ws", "tier": "moderate", "percentile": 100.0, "z": 6.67, "wind_ms": 18.67, "value": 18.67, "lat": 12.5, "lon": 81.75}}, {"type": "Feature", "geometry": {"type": "Polygon", "coordinates": [[[81.875, 12.375], [82.125, 12.375], [82.125, 12.625], [81.875, 12.625], [81.875, 12.375]]]}, "properties": {"time": "2020-11-25T18:00:00", "variable": "ws", "tier": "low", "percentile": 100.0, "z": 5.77, "wind_ms": 16.97, "value": 16.97, "lat": 12.5, "lon": 82.0}}, {"type": "Feature", "geometry": {"type": "Polygon", "coordinates": [[[82.125, 12.375], [82.375, 12.375], [82.375, 12.625], [82.125, 12.625], [82.125, 12.375]]]}, "properties": {"time": "2020-11-25T18:00:00", "variable": "ws", "tier": "low", "percentile": 100.0, "z": 4.89, "wind_ms": 15.5, "value": 15.5, "lat": 12.5, "lon": 82.25}}, {"type": "Feature", "geometry": {"type": "Polygon", "coordinates": [[[82.375, 12.375], [82.625, 12.375], [82.625, 12.625], [82.375, 12.625], [82.375, 12.375]]]}, "properties": {"time": "2020-11-25T18:00:00", "variable": "ws", "tier": "low", "percentile": 100.0, "z": 4.2, "wind_ms": 14.36, "value": 14.36, "lat": 12.5, "lon": 82.5}}, {"type": "Feature", "geometry": {"type": "Polygon", "coordinates": [[[82.625, 12.375], [82.875, 12.375], [82.875, 12.625], [82.625, 12.625], [82.625, 12.375]]]}, "properties": {"time": "2020-11-25T18:00:00", "variable": "ws", "tier": "low", "percentile": 100.0, "z": 3.71, "wind_ms": 13.49, "value": 13.49, "lat": 12.5, "lon": 82.75}}, {"type": "Feature", "geometry": {"type": "Polygon", "coordinates": [[[82.875, 12.375], [83.125, 12.375], [83.125, 12.625], [82.875, 12.625], [82.875, 12.375]]]}, "properties": {"time": "2020-11-25T18:00:00", "variable": "ws", "tier": "low", "percentile": 100.0, "z": 3.5, "wind_ms": 13.05, "value": 13.05, "lat": 12.5, "lon": 83.0}}, {"type": "Feature", "geometry": {"type": "Polygon", "coordinates": [[[79.375, 12.625], [79.625, 12.625], [79.625, 12.875], [79.375, 12.875], [79.375, 12.625]]]}, "properties": {"time": "2020-11-25T18:00:00", "variable": "ws", "tier": "low", "percentile": 100.0, "z": 7.14, "wind_ms": 9.37, "value": 9.37, "lat": 12.75, "lon": 79.5}}, {"type": "Feature", "geometry": {"type": "Polygon", "coordinates": [[[79.625, 12.625], [79.875, 12.625], [79.875, 12.875], [79.625, 12.875], [79.625, 12.625]]]}, "properties": {"time": "2020-11-25T18:00:00", "variable": "ws", "tier": "low", "percentile": 100.0, "z": 7.63, "wind_ms": 9.93, "value": 9.93, "lat": 12.75, "lon": 79.75}}, {"type": "Feature", "geometry": {"type": "Polygon", "coordinates": [[[79.875, 12.625], [80.125, 12.625], [80.125, 12.875], [79.875, 12.875], [79.875, 12.625]]]}, "properties": {"time": "2020-11-25T18:00:00", "variable": "ws", "tier": "low", "percentile": 100.0, "z": 7.06, "wind_ms": 10.08, "value": 10.08, "lat": 12.75, "lon": 80.0}}, {"type": "Feature", "geometry": {"type": "Polygon", "coordinates": [[[80.125, 12.625], [80.375, 12.625], [80.375, 12.875], [80.125, 12.875], [80.125, 12.625]]]}, "properties": {"time": "2020-11-25T18:00:00", "variable": "ws", "tier": "low", "percentile": 100.0, "z": 6.22, "wind_ms": 13.06, "value": 13.06, "lat": 12.75, "lon": 80.25}}, {"type": "Feature", "geometry": {"type": "Polygon", "coordinates": [[[80.375, 12.625], [80.625, 12.625], [80.625, 12.875], [80.375, 12.875], [80.375, 12.625]]]}, "properties": {"time": "2020-11-25T18:00:00", "variable": "ws", "tier": "moderate", "percentile": 100.0, "z": 6.56, "wind_ms": 18.29, "value": 18.29, "lat": 12.75, "lon": 80.5}}, {"type": "Feature", "geometry": {"type": "Polygon", "coordinates": [[[80.625, 12.625], [80.875, 12.625], [80.875, 12.875], [80.625, 12.875], [80.625, 12.625]]]}, "properties": {"time": "2020-11-25T18:00:00", "variable": "ws", "tier": "moderate", "percentile": 100.0, "z": 7.17, "wind_ms": 19.8, "value": 19.8, "lat": 12.75, "lon": 80.75}}, {"type": "Feature", "geometry": {"type": "Polygon", "coordinates": [[[80.875, 12.625], [81.125, 12.625], [81.125, 12.875], [80.875, 12.875], [80.875, 12.625]]]}, "properties": {"time": "2020-11-25T18:00:00", "variable": "ws", "tier": "moderate", "percentile": 100.0, "z": 7.92, "wind_ms": 20.58, "value": 20.58, "lat": 12.75, "lon": 81.0}}, {"type": "Feature", "geometry": {"type": "Polygon", "coordinates": [[[81.125, 12.625], [81.375, 12.625], [81.375, 12.875], [81.125, 12.875], [81.125, 12.625]]]}, "properties": {"time": "2020-11-25T18:00:00", "variable": "ws", "tier": "moderate", "percentile": 100.0, "z": 7.67, "wind_ms": 20.6, "value": 20.6, "lat": 12.75, "lon": 81.25}}, {"type": "Feature", "geometry": {"type": "Polygon", "coordinates": [[[81.375, 12.625], [81.625, 12.625], [81.625, 12.875], [81.375, 12.875], [81.375, 12.625]]]}, "properties": {"time": "2020-11-25T18:00:00", "variable": "ws", "tier": "moderate", "percentile": 100.0, "z": 7.24, "wind_ms": 19.73, "value": 19.73, "lat": 12.75, "lon": 81.5}}, {"type": "Feature", "geometry": {"type": "Polygon", "coordinates": [[[81.625, 12.625], [81.875, 12.625], [81.875, 12.875], [81.625, 12.875], [81.625, 12.625]]]}, "properties": {"time": "2020-11-25T18:00:00", "variable": "ws", "tier": "moderate", "percentile": 100.0, "z": 6.3, "wind_ms": 17.95, "value": 17.95, "lat": 12.75, "lon": 81.75}}, {"type": "Feature", "geometry": {"type": "Polygon", "coordinates": [[[81.875, 12.625], [82.125, 12.625], [82.125, 12.875], [81.875, 12.875], [81.875, 12.625]]]}, "properties": {"time": "2020-11-25T18:00:00", "variable": "ws", "tier": "low", "percentile": 100.0, "z": 5.38, "wind_ms": 16.18, "value": 16.18, "lat": 12.75, "lon": 82.0}}, {"type": "Feature", "geometry": {"type": "Polygon", "coordinates": [[[82.125, 12.625], [82.375, 12.625], [82.375, 12.875], [82.125, 12.875], [82.125, 12.625]]]}, "properties": {"time": "2020-11-25T18:00:00", "variable": "ws", "tier": "low", "percentile": 100.0, "z": 4.65, "wind_ms": 14.92, "value": 14.92, "lat": 12.75, "lon": 82.25}}, {"type": "Feature", "geometry": {"type": "Polygon", "coordinates": [[[82.375, 12.625], [82.625, 12.625], [82.625, 12.875], [82.375, 12.875], [82.375, 12.625]]]}, "properties": {"time": "2020-11-25T18:00:00", "variable": "ws", "tier": "low", "percentile": 100.0, "z": 4.06, "wind_ms": 14.03, "value": 14.03, "lat": 12.75, "lon": 82.5}}, {"type": "Feature", "geometry": {"type": "Polygon", "coordinates": [[[82.625, 12.625], [82.875, 12.625], [82.875, 12.875], [82.625, 12.875], [82.625, 12.625]]]}, "properties": {"time": "2020-11-25T18:00:00", "variable": "ws", "tier": "low", "percentile": 100.0, "z": 3.67, "wind_ms": 13.44, "value": 13.44, "lat": 12.75, "lon": 82.75}}, {"type": "Feature", "geometry": {"type": "Polygon", "coordinates": [[[82.875, 12.625], [83.125, 12.625], [83.125, 12.875], [82.875, 12.875], [82.875, 12.625]]]}, "properties": {"time": "2020-11-25T18:00:00", "variable": "ws", "tier": "low", "percentile": 100.0, "z": 3.43, "wind_ms": 13.12, "value": 13.12, "lat": 12.75, "lon": 83.0}}, {"type": "Feature", "geometry": {"type": "Polygon", "coordinates": [[[79.625, 12.875], [79.875, 12.875], [79.875, 13.125], [79.625, 13.125], [79.625, 12.875]]]}, "properties": {"time": "2020-11-25T18:00:00", "variable": "ws", "tier": "low", "percentile": 100.0, "z": 7.11, "wind_ms": 9.23, "value": 9.23, "lat": 13.0, "lon": 79.75}}, {"type": "Feature", "geometry": {"type": "Polygon", "coordinates": [[[79.875, 12.875], [80.125, 12.875], [80.125, 13.125], [79.875, 13.125], [79.875, 12.875]]]}, "properties": {"time": "2020-11-25T18:00:00", "variable": "ws", "tier": "low", "percentile": 100.0, "z": 7.78, "wind_ms": 10.09, "value": 10.09, "lat": 13.0, "lon": 80.0}}, {"type": "Feature", "geometry": {"type": "Polygon", "coordinates": [[[80.125, 12.875], [80.375, 12.875], [80.375, 13.125], [80.125, 13.125], [80.125, 12.875]]]}, "properties": {"time": "2020-11-25T18:00:00", "variable": "ws", "tier": "low", "percentile": 100.0, "z": 7.85, "wind_ms": 13.46, "value": 13.46, "lat": 13.0, "lon": 80.25}}, {"type": "Feature", "geometry": {"type": "Polygon", "coordinates": [[[80.375, 12.875], [80.625, 12.875], [80.625, 13.125], [80.375, 13.125], [80.375, 12.875]]]}, "properties": {"time": "2020-11-25T18:00:00", "variable": "ws", "tier": "moderate", "percentile": 100.0, "z": 7.03, "wind_ms": 18.21, "value": 18.21, "lat": 13.0, "lon": 80.5}}, {"type": "Feature", "geometry": {"type": "Polygon", "coordinates": [[[80.625, 12.875], [80.875, 12.875], [80.875, 13.125], [80.625, 13.125], [80.625, 12.875]]]}, "properties": {"time": "2020-11-25T18:00:00", "variable": "ws", "tier": "moderate", "percentile": 100.0, "z": 7.27, "wind_ms": 19.67, "value": 19.67, "lat": 13.0, "lon": 80.75}}, {"type": "Feature", "geometry": {"type": "Polygon", "coordinates": [[[80.875, 12.875], [81.125, 12.875], [81.125, 13.125], [80.875, 13.125], [80.875, 12.875]]]}, "properties": {"time": "2020-11-25T18:00:00", "variable": "ws", "tier": "moderate", "percentile": 100.0, "z": 7.76, "wind_ms": 19.63, "value": 19.63, "lat": 13.0, "lon": 81.0}}, {"type": "Feature", "geometry": {"type": "Polygon", "coordinates": [[[81.125, 12.875], [81.375, 12.875], [81.375, 13.125], [81.125, 13.125], [81.125, 12.875]]]}, "properties": {"time": "2020-11-25T18:00:00", "variable": "ws", "tier": "moderate", "percentile": 100.0, "z": 7.26, "wind_ms": 19.44, "value": 19.44, "lat": 13.0, "lon": 81.25}}, {"type": "Feature", "geometry": {"type": "Polygon", "coordinates": [[[81.375, 12.875], [81.625, 12.875], [81.625, 13.125], [81.375, 13.125], [81.375, 12.875]]]}, "properties": {"time": "2020-11-25T18:00:00", "variable": "ws", "tier": "moderate", "percentile": 100.0, "z": 6.98, "wind_ms": 18.85, "value": 18.85, "lat": 13.0, "lon": 81.5}}, {"type": "Feature", "geometry": {"type": "Polygon", "coordinates": [[[81.625, 12.875], [81.875, 12.875], [81.875, 13.125], [81.625, 13.125], [81.625, 12.875]]]}, "properties": {"time": "2020-11-25T18:00:00", "variable": "ws", "tier": "moderate", "percentile": 100.0, "z": 6.06, "wind_ms": 17.33, "value": 17.33, "lat": 13.0, "lon": 81.75}}, {"type": "Feature", "geometry": {"type": "Polygon", "coordinates": [[[81.875, 12.875], [82.125, 12.875], [82.125, 13.125], [81.875, 13.125], [81.875, 12.875]]]}, "properties": {"time": "2020-11-25T18:00:00", "variable": "ws", "tier": "low", "percentile": 100.0, "z": 5.21, "wind_ms": 15.78, "value": 15.78, "lat": 13.0, "lon": 82.0}}, {"type": "Feature", "geometry": {"type": "Polygon", "coordinates": [[[82.125, 12.875], [82.375, 12.875], [82.375, 13.125], [82.125, 13.125], [82.125, 12.875]]]}, "properties": {"time": "2020-11-25T18:00:00", "variable": "ws", "tier": "low", "percentile": 100.0, "z": 4.5, "wind_ms": 14.52, "value": 14.52, "lat": 13.0, "lon": 82.25}}, {"type": "Feature", "geometry": {"type": "Polygon", "coordinates": [[[82.375, 12.875], [82.625, 12.875], [82.625, 13.125], [82.375, 13.125], [82.375, 12.875]]]}, "properties": {"time": "2020-11-25T18:00:00", "variable": "ws", "tier": "low", "percentile": 100.0, "z": 4.07, "wind_ms": 13.92, "value": 13.92, "lat": 13.0, "lon": 82.5}}, {"type": "Feature", "geometry": {"type": "Polygon", "coordinates": [[[82.625, 12.875], [82.875, 12.875], [82.875, 13.125], [82.625, 13.125], [82.625, 12.875]]]}, "properties": {"time": "2020-11-25T18:00:00", "variable": "ws", "tier": "low", "percentile": 100.0, "z": 3.76, "wind_ms": 13.42, "value": 13.42, "lat": 13.0, "lon": 82.75}}, {"type": "Feature", "geometry": {"type": "Polygon", "coordinates": [[[82.875, 12.875], [83.125, 12.875], [83.125, 13.125], [82.875, 13.125], [82.875, 12.875]]]}, "properties": {"time": "2020-11-25T18:00:00", "variable": "ws", "tier": "low", "percentile": 100.0, "z": 3.45, "wind_ms": 13.01, "value": 13.01, "lat": 13.0, "lon": 83.0}}, {"type": "Feature", "geometry": {"type": "Polygon", "coordinates": [[[79.875, 13.125], [80.125, 13.125], [80.125, 13.375], [79.875, 13.375], [79.875, 13.125]]]}, "properties": {"time": "2020-11-25T18:00:00", "variable": "ws", "tier": "low", "percentile": 100.0, "z": 7.56, "wind_ms": 9.72, "value": 9.72, "lat": 13.25, "lon": 80.0}}, {"type": "Feature", "geometry": {"type": "Polygon", "coordinates": [[[80.125, 13.125], [80.375, 13.125], [80.375, 13.375], [80.125, 13.375], [80.125, 13.125]]]}, "properties": {"time": "2020-11-25T18:00:00", "variable": "ws", "tier": "low", "percentile": 100.0, "z": 7.55, "wind_ms": 13.23, "value": 13.23, "lat": 13.25, "lon": 80.25}}, {"type": "Feature", "geometry": {"type": "Polygon", "coordinates": [[[80.375, 13.125], [80.625, 13.125], [80.625, 13.375], [80.375, 13.375], [80.375, 13.125]]]}, "properties": {"time": "2020-11-25T18:00:00", "variable": "ws", "tier": "moderate", "percentile": 100.0, "z": 7.13, "wind_ms": 17.85, "value": 17.85, "lat": 13.25, "lon": 80.5}}, {"type": "Feature", "geometry": {"type": "Polygon", "coordinates": [[[80.625, 13.125], [80.875, 13.125], [80.875, 13.375], [80.625, 13.375], [80.625, 13.125]]]}, "properties": {"time": "2020-11-25T18:00:00", "variable": "ws", "tier": "moderate", "percentile": 100.0, "z": 7.28, "wind_ms": 18.93, "value": 18.93, "lat": 13.25, "lon": 80.75}}, {"type": "Feature", "geometry": {"type": "Polygon", "coordinates": [[[80.875, 13.125], [81.125, 13.125], [81.125, 13.375], [80.875, 13.375], [80.875, 13.125]]]}, "properties": {"time": "2020-11-25T18:00:00", "variable": "ws", "tier": "moderate", "percentile": 100.0, "z": 7.23, "wind_ms": 18.6, "value": 18.6, "lat": 13.25, "lon": 81.0}}, {"type": "Feature", "geometry": {"type": "Polygon", "coordinates": [[[81.125, 13.125], [81.375, 13.125], [81.375, 13.375], [81.125, 13.375], [81.125, 13.125]]]}, "properties": {"time": "2020-11-25T18:00:00", "variable": "ws", "tier": "moderate", "percentile": 100.0, "z": 6.72, "wind_ms": 18.21, "value": 18.21, "lat": 13.25, "lon": 81.25}}, {"type": "Feature", "geometry": {"type": "Polygon", "coordinates": [[[81.375, 13.125], [81.625, 13.125], [81.625, 13.375], [81.375, 13.375], [81.375, 13.125]]]}, "properties": {"time": "2020-11-25T18:00:00", "variable": "ws", "tier": "moderate", "percentile": 100.0, "z": 6.36, "wind_ms": 17.49, "value": 17.49, "lat": 13.25, "lon": 81.5}}, {"type": "Feature", "geometry": {"type": "Polygon", "coordinates": [[[81.625, 13.125], [81.875, 13.125], [81.875, 13.375], [81.625, 13.375], [81.625, 13.125]]]}, "properties": {"time": "2020-11-25T18:00:00", "variable": "ws", "tier": "low", "percentile": 100.0, "z": 5.77, "wind_ms": 16.58, "value": 16.58, "lat": 13.25, "lon": 81.75}}, {"type": "Feature", "geometry": {"type": "Polygon", "coordinates": [[[81.875, 13.125], [82.125, 13.125], [82.125, 13.375], [81.875, 13.375], [81.875, 13.125]]]}, "properties": {"time": "2020-11-25T18:00:00", "variable": "ws", "tier": "low", "percentile": 100.0, "z": 4.91, "wind_ms": 15.11, "value": 15.11, "lat": 13.25, "lon": 82.0}}, {"type": "Feature", "geometry": {"type": "Polygon", "coordinates": [[[82.125, 13.125], [82.375, 13.125], [82.375, 13.375], [82.125, 13.375], [82.125, 13.125]]]}, "properties": {"time": "2020-11-25T18:00:00", "variable": "ws", "tier": "low", "percentile": 100.0, "z": 4.38, "wind_ms": 14.33, "value": 14.33, "lat": 13.25, "lon": 82.25}}, {"type": "Feature", "geometry": {"type": "Polygon", "coordinates": [[[82.375, 13.125], [82.625, 13.125], [82.625, 13.375], [82.375, 13.375], [82.375, 13.125]]]}, "properties": {"time": "2020-11-25T18:00:00", "variable": "ws", "tier": "low", "percentile": 100.0, "z": 3.96, "wind_ms": 13.72, "value": 13.72, "lat": 13.25, "lon": 82.5}}, {"type": "Feature", "geometry": {"type": "Polygon", "coordinates": [[[82.625, 13.125], [82.875, 13.125], [82.875, 13.375], [82.625, 13.375], [82.625, 13.125]]]}, "properties": {"time": "2020-11-25T18:00:00", "variable": "ws", "tier": "low", "percentile": 100.0, "z": 3.69, "wind_ms": 13.35, "value": 13.35, "lat": 13.25, "lon": 82.75}}, {"type": "Feature", "geometry": {"type": "Polygon", "coordinates": [[[82.875, 13.125], [83.125, 13.125], [83.125, 13.375], [82.875, 13.375], [82.875, 13.125]]]}, "properties": {"time": "2020-11-25T18:00:00", "variable": "ws", "tier": "low", "percentile": 100.0, "z": 3.36, "wind_ms": 12.89, "value": 12.89, "lat": 13.25, "lon": 83.0}}, {"type": "Feature", "geometry": {"type": "Polygon", "coordinates": [[[79.875, 13.375], [80.125, 13.375], [80.125, 13.625], [79.875, 13.625], [79.875, 13.375]]]}, "properties": {"time": "2020-11-25T18:00:00", "variable": "ws", "tier": "low", "percentile": 100.0, "z": 7.66, "wind_ms": 9.64, "value": 9.64, "lat": 13.5, "lon": 80.0}}, {"type": "Feature", "geometry": {"type": "Polygon", "coordinates": [[[80.125, 13.375], [80.375, 13.375], [80.375, 13.625], [80.125, 13.625], [80.125, 13.375]]]}, "properties": {"time": "2020-11-25T18:00:00", "variable": "ws", "tier": "low", "percentile": 100.0, "z": 6.8, "wind_ms": 13.05, "value": 13.05, "lat": 13.5, "lon": 80.25}}, {"type": "Feature", "geometry": {"type": "Polygon", "coordinates": [[[80.375, 13.375], [80.625, 13.375], [80.625, 13.625], [80.375, 13.625], [80.375, 13.375]]]}, "properties": {"time": "2020-11-25T18:00:00", "variable": "ws", "tier": "low", "percentile": 100.0, "z": 6.31, "wind_ms": 16.71, "value": 16.71, "lat": 13.5, "lon": 80.5}}, {"type": "Feature", "geometry": {"type": "Polygon", "coordinates": [[[80.625, 13.375], [80.875, 13.375], [80.875, 13.625], [80.625, 13.625], [80.625, 13.375]]]}, "properties": {"time": "2020-11-25T18:00:00", "variable": "ws", "tier": "moderate", "percentile": 100.0, "z": 6.52, "wind_ms": 17.47, "value": 17.47, "lat": 13.5, "lon": 80.75}}, {"type": "Feature", "geometry": {"type": "Polygon", "coordinates": [[[80.875, 13.375], [81.125, 13.375], [81.125, 13.625], [80.875, 13.625], [80.875, 13.375]]]}, "properties": {"time": "2020-11-25T18:00:00", "variable": "ws", "tier": "moderate", "percentile": 100.0, "z": 6.46, "wind_ms": 17.4, "value": 17.4, "lat": 13.5, "lon": 81.0}}, {"type": "Feature", "geometry": {"type": "Polygon", "coordinates": [[[81.125, 13.375], [81.375, 13.375], [81.375, 13.625], [81.125, 13.625], [81.125, 13.375]]]}, "properties": {"time": "2020-11-25T18:00:00", "variable": "ws", "tier": "low", "percentile": 100.0, "z": 6.1, "wind_ms": 17.0, "value": 17.0, "lat": 13.5, "lon": 81.25}}, {"type": "Feature", "geometry": {"type": "Polygon", "coordinates": [[[81.375, 13.375], [81.625, 13.375], [81.625, 13.625], [81.375, 13.625], [81.375, 13.375]]]}, "properties": {"time": "2020-11-25T18:00:00", "variable": "ws", "tier": "low", "percentile": 100.0, "z": 5.72, "wind_ms": 16.42, "value": 16.42, "lat": 13.5, "lon": 81.5}}, {"type": "Feature", "geometry": {"type": "Polygon", "coordinates": [[[81.625, 13.375], [81.875, 13.375], [81.875, 13.625], [81.625, 13.625], [81.625, 13.375]]]}, "properties": {"time": "2020-11-25T18:00:00", "variable": "ws", "tier": "low", "percentile": 100.0, "z": 5.16, "wind_ms": 15.48, "value": 15.48, "lat": 13.5, "lon": 81.75}}, {"type": "Feature", "geometry": {"type": "Polygon", "coordinates": [[[81.875, 13.375], [82.125, 13.375], [82.125, 13.625], [81.875, 13.625], [81.875, 13.375]]]}, "properties": {"time": "2020-11-25T18:00:00", "variable": "ws", "tier": "low", "percentile": 100.0, "z": 4.75, "wind_ms": 14.95, "value": 14.95, "lat": 13.5, "lon": 82.0}}, {"type": "Feature", "geometry": {"type": "Polygon", "coordinates": [[[82.125, 13.375], [82.375, 13.375], [82.375, 13.625], [82.125, 13.625], [82.125, 13.375]]]}, "properties": {"time": "2020-11-25T18:00:00", "variable": "ws", "tier": "low", "percentile": 100.0, "z": 4.16, "wind_ms": 14.1, "value": 14.1, "lat": 13.5, "lon": 82.25}}, {"type": "Feature", "geometry": {"type": "Polygon", "coordinates": [[[82.375, 13.375], [82.625, 13.375], [82.625, 13.625], [82.375, 13.625], [82.375, 13.375]]]}, "properties": {"time": "2020-11-25T18:00:00", "variable": "ws", "tier": "low", "percentile": 100.0, "z": 3.84, "wind_ms": 13.67, "value": 13.67, "lat": 13.5, "lon": 82.5}}, {"type": "Feature", "geometry": {"type": "Polygon", "coordinates": [[[82.625, 13.375], [82.875, 13.375], [82.875, 13.625], [82.625, 13.625], [82.625, 13.375]]]}, "properties": {"time": "2020-11-25T18:00:00", "variable": "ws", "tier": "low", "percentile": 100.0, "z": 3.6, "wind_ms": 13.29, "value": 13.29, "lat": 13.5, "lon": 82.75}}, {"type": "Feature", "geometry": {"type": "Polygon", "coordinates": [[[82.875, 13.375], [83.125, 13.375], [83.125, 13.625], [82.875, 13.625], [82.875, 13.375]]]}, "properties": {"time": "2020-11-25T18:00:00", "variable": "ws", "tier": "low", "percentile": 100.0, "z": 3.22, "wind_ms": 12.74, "value": 12.74, "lat": 13.5, "lon": 83.0}}, {"type": "Feature", "geometry": {"type": "Polygon", "coordinates": [[[79.875, 13.625], [80.125, 13.625], [80.125, 13.875], [79.875, 13.875], [79.875, 13.625]]]}, "properties": {"time": "2020-11-25T18:00:00", "variable": "ws", "tier": "low", "percentile": 100.0, "z": 7.55, "wind_ms": 9.59, "value": 9.59, "lat": 13.75, "lon": 80.0}}, {"type": "Feature", "geometry": {"type": "Polygon", "coordinates": [[[80.125, 13.625], [80.375, 13.625], [80.375, 13.875], [80.125, 13.875], [80.125, 13.625]]]}, "properties": {"time": "2020-11-25T18:00:00", "variable": "ws", "tier": "low", "percentile": 100.0, "z": 6.67, "wind_ms": 13.13, "value": 13.13, "lat": 13.75, "lon": 80.25}}, {"type": "Feature", "geometry": {"type": "Polygon", "coordinates": [[[80.375, 13.625], [80.625, 13.625], [80.625, 13.875], [80.375, 13.875], [80.375, 13.625]]]}, "properties": {"time": "2020-11-25T18:00:00", "variable": "ws", "tier": "low", "percentile": 100.0, "z": 5.3, "wind_ms": 14.87, "value": 14.87, "lat": 13.75, "lon": 80.5}}, {"type": "Feature", "geometry": {"type": "Polygon", "coordinates": [[[80.625, 13.625], [80.875, 13.625], [80.875, 13.875], [80.625, 13.875], [80.625, 13.625]]]}, "properties": {"time": "2020-11-25T18:00:00", "variable": "ws", "tier": "low", "percentile": 100.0, "z": 5.35, "wind_ms": 15.24, "value": 15.24, "lat": 13.75, "lon": 80.75}}, {"type": "Feature", "geometry": {"type": "Polygon", "coordinates": [[[80.875, 13.625], [81.125, 13.625], [81.125, 13.875], [80.875, 13.875], [80.875, 13.625]]]}, "properties": {"time": "2020-11-25T18:00:00", "variable": "ws", "tier": "low", "percentile": 100.0, "z": 5.4, "wind_ms": 15.67, "value": 15.67, "lat": 13.75, "lon": 81.0}}, {"type": "Feature", "geometry": {"type": "Polygon", "coordinates": [[[81.125, 13.625], [81.375, 13.625], [81.375, 13.875], [81.125, 13.875], [81.125, 13.625]]]}, "properties": {"time": "2020-11-25T18:00:00", "variable": "ws", "tier": "low", "percentile": 100.0, "z": 5.19, "wind_ms": 15.39, "value": 15.39, "lat": 13.75, "lon": 81.25}}, {"type": "Feature", "geometry": {"type": "Polygon", "coordinates": [[[81.375, 13.625], [81.625, 13.625], [81.625, 13.875], [81.375, 13.875], [81.375, 13.625]]]}, "properties": {"time": "2020-11-25T18:00:00", "variable": "ws", "tier": "low", "percentile": 100.0, "z": 4.92, "wind_ms": 15.0, "value": 15.0, "lat": 13.75, "lon": 81.5}}, {"type": "Feature", "geometry": {"type": "Polygon", "coordinates": [[[81.625, 13.625], [81.875, 13.625], [81.875, 13.875], [81.625, 13.875], [81.625, 13.625]]]}, "properties": {"time": "2020-11-25T18:00:00", "variable": "ws", "tier": "low", "percentile": 100.0, "z": 4.75, "wind_ms": 14.77, "value": 14.77, "lat": 13.75, "lon": 81.75}}, {"type": "Feature", "geometry": {"type": "Polygon", "coordinates": [[[81.875, 13.625], [82.125, 13.625], [82.125, 13.875], [81.875, 13.875], [81.875, 13.625]]]}, "properties": {"time": "2020-11-25T18:00:00", "variable": "ws", "tier": "low", "percentile": 100.0, "z": 4.32, "wind_ms": 14.18, "value": 14.18, "lat": 13.75, "lon": 82.0}}, {"type": "Feature", "geometry": {"type": "Polygon", "coordinates": [[[82.125, 13.625], [82.375, 13.625], [82.375, 13.875], [82.125, 13.875], [82.125, 13.625]]]}, "properties": {"time": "2020-11-25T18:00:00", "variable": "ws", "tier": "low", "percentile": 100.0, "z": 4.21, "wind_ms": 14.19, "value": 14.19, "lat": 13.75, "lon": 82.25}}, {"type": "Feature", "geometry": {"type": "Polygon", "coordinates": [[[82.375, 13.625], [82.625, 13.625], [82.625, 13.875], [82.375, 13.875], [82.375, 13.625]]]}, "properties": {"time": "2020-11-25T18:00:00", "variable": "ws", "tier": "low", "percentile": 100.0, "z": 3.89, "wind_ms": 13.75, "value": 13.75, "lat": 13.75, "lon": 82.5}}, {"type": "Feature", "geometry": {"type": "Polygon", "coordinates": [[[82.625, 13.625], [82.875, 13.625], [82.875, 13.875], [82.625, 13.875], [82.625, 13.625]]]}, "properties": {"time": "2020-11-25T18:00:00", "variable": "ws", "tier": "low", "percentile": 100.0, "z": 3.69, "wind_ms": 13.44, "value": 13.44, "lat": 13.75, "lon": 82.75}}, {"type": "Feature", "geometry": {"type": "Polygon", "coordinates": [[[82.875, 13.625], [83.125, 13.625], [83.125, 13.875], [82.875, 13.875], [82.875, 13.625]]]}, "properties": {"time": "2020-11-25T18:00:00", "variable": "ws", "tier": "low", "percentile": 100.0, "z": 3.37, "wind_ms": 12.97, "value": 12.97, "lat": 13.75, "lon": 83.0}}, {"type": "Feature", "geometry": {"type": "Polygon", "coordinates": [[[79.875, 13.875], [80.125, 13.875], [80.125, 14.125], [79.875, 14.125], [79.875, 13.875]]]}, "properties": {"time": "2020-11-25T18:00:00", "variable": "ws", "tier": "low", "percentile": 100.0, "z": 7.59, "wind_ms": 9.59, "value": 9.59, "lat": 14.0, "lon": 80.0}}, {"type": "Feature", "geometry": {"type": "Polygon", "coordinates": [[[80.125, 13.875], [80.375, 13.875], [80.375, 14.125], [80.125, 14.125], [80.125, 13.875]]]}, "properties": {"time": "2020-11-25T18:00:00", "variable": "ws", "tier": "low", "percentile": 100.0, "z": 6.2, "wind_ms": 11.86, "value": 11.86, "lat": 14.0, "lon": 80.25}}, {"type": "Feature", "geometry": {"type": "Polygon", "coordinates": [[[80.375, 13.875], [80.625, 13.875], [80.625, 14.125], [80.375, 14.125], [80.375, 13.875]]]}, "properties": {"time": "2020-11-25T18:00:00", "variable": "ws", "tier": "low", "percentile": 100.0, "z": 4.84, "wind_ms": 13.39, "value": 13.39, "lat": 14.0, "lon": 80.5}}, {"type": "Feature", "geometry": {"type": "Polygon", "coordinates": [[[80.625, 13.875], [80.875, 13.875], [80.875, 14.125], [80.625, 14.125], [80.625, 13.875]]]}, "properties": {"time": "2020-11-25T18:00:00", "variable": "ws", "tier": "low", "percentile": 100.0, "z": 4.41, "wind_ms": 13.33, "value": 13.33, "lat": 14.0, "lon": 80.75}}, {"type": "Feature", "geometry": {"type": "Polygon", "coordinates": [[[80.875, 13.875], [81.125, 13.875], [81.125, 14.125], [80.875, 14.125], [80.875, 13.875]]]}, "properties": {"time": "2020-11-25T18:00:00", "variable": "ws", "tier": "low", "percentile": 100.0, "z": 4.4, "wind_ms": 13.74, "value": 13.74, "lat": 14.0, "lon": 81.0}}, {"type": "Feature", "geometry": {"type": "Polygon", "coordinates": [[[81.125, 13.875], [81.375, 13.875], [81.375, 14.125], [81.125, 14.125], [81.125, 13.875]]]}, "properties": {"time": "2020-11-25T18:00:00", "variable": "ws", "tier": "low", "percentile": 100.0, "z": 4.11, "wind_ms": 13.55, "value": 13.55, "lat": 14.0, "lon": 81.25}}, {"type": "Feature", "geometry": {"type": "Polygon", "coordinates": [[[81.375, 13.875], [81.625, 13.875], [81.625, 14.125], [81.375, 14.125], [81.375, 13.875]]]}, "properties": {"time": "2020-11-25T18:00:00", "variable": "ws", "tier": "low", "percentile": 100.0, "z": 4.15, "wind_ms": 13.81, "value": 13.81, "lat": 14.0, "lon": 81.5}}, {"type": "Feature", "geometry": {"type": "Polygon", "coordinates": [[[81.625, 13.875], [81.875, 13.875], [81.875, 14.125], [81.625, 14.125], [81.625, 13.875]]]}, "properties": {"time": "2020-11-25T18:00:00", "variable": "ws", "tier": "low", "percentile": 100.0, "z": 4.07, "wind_ms": 13.71, "value": 13.71, "lat": 14.0, "lon": 81.75}}, {"type": "Feature", "geometry": {"type": "Polygon", "coordinates": [[[81.875, 13.875], [82.125, 13.875], [82.125, 14.125], [81.875, 14.125], [81.875, 13.875]]]}, "properties": {"time": "2020-11-25T18:00:00", "variable": "ws", "tier": "low", "percentile": 100.0, "z": 4.15, "wind_ms": 13.94, "value": 13.94, "lat": 14.0, "lon": 82.0}}, {"type": "Feature", "geometry": {"type": "Polygon", "coordinates": [[[82.125, 13.875], [82.375, 13.875], [82.375, 14.125], [82.125, 14.125], [82.125, 13.875]]]}, "properties": {"time": "2020-11-25T18:00:00", "variable": "ws", "tier": "low", "percentile": 100.0, "z": 4.04, "wind_ms": 13.92, "value": 13.92, "lat": 14.0, "lon": 82.25}}, {"type": "Feature", "geometry": {"type": "Polygon", "coordinates": [[[82.375, 13.875], [82.625, 13.875], [82.625, 14.125], [82.375, 14.125], [82.375, 13.875]]]}, "properties": {"time": "2020-11-25T18:00:00", "variable": "ws", "tier": "low", "percentile": 100.0, "z": 3.98, "wind_ms": 13.89, "value": 13.89, "lat": 14.0, "lon": 82.5}}, {"type": "Feature", "geometry": {"type": "Polygon", "coordinates": [[[82.625, 13.875], [82.875, 13.875], [82.875, 14.125], [82.625, 14.125], [82.625, 13.875]]]}, "properties": {"time": "2020-11-25T18:00:00", "variable": "ws", "tier": "low", "percentile": 100.0, "z": 3.79, "wind_ms": 13.59, "value": 13.59, "lat": 14.0, "lon": 82.75}}, {"type": "Feature", "geometry": {"type": "Polygon", "coordinates": [[[82.875, 13.875], [83.125, 13.875], [83.125, 14.125], [82.875, 14.125], [82.875, 13.875]]]}, "properties": {"time": "2020-11-25T18:00:00", "variable": "ws", "tier": "low", "percentile": 100.0, "z": 3.67, "wind_ms": 13.4, "value": 13.4, "lat": 14.0, "lon": 83.0}}, {"type": "Feature", "geometry": {"type": "Polygon", "coordinates": [[[79.875, 14.125], [80.125, 14.125], [80.125, 14.375], [79.875, 14.375], [79.875, 14.125]]]}, "properties": {"time": "2020-11-25T18:00:00", "variable": "ws", "tier": "low", "percentile": 100.0, "z": 7.1, "wind_ms": 9.35, "value": 9.35, "lat": 14.25, "lon": 80.0}}, {"type": "Feature", "geometry": {"type": "Polygon", "coordinates": [[[80.125, 14.125], [80.375, 14.125], [80.375, 14.375], [80.125, 14.375], [80.125, 14.125]]]}, "properties": {"time": "2020-11-25T18:00:00", "variable": "ws", "tier": "low", "percentile": 100.0, "z": 6.03, "wind_ms": 11.64, "value": 11.64, "lat": 14.25, "lon": 80.25}}, {"type": "Feature", "geometry": {"type": "Polygon", "coordinates": [[[80.375, 14.125], [80.625, 14.125], [80.625, 14.375], [80.375, 14.375], [80.375, 14.125]]]}, "properties": {"time": "2020-11-25T18:00:00", "variable": "ws", "tier": "low", "percentile": 100.0, "z": 4.8, "wind_ms": 13.39, "value": 13.39, "lat": 14.25, "lon": 80.5}}, {"type": "Feature", "geometry": {"type": "Polygon", "coordinates": [[[80.625, 14.125], [80.875, 14.125], [80.875, 14.375], [80.625, 14.375], [80.625, 14.125]]]}, "properties": {"time": "2020-11-25T18:00:00", "variable": "ws", "tier": "low", "percentile": 100.0, "z": 4.07, "wind_ms": 12.76, "value": 12.76, "lat": 14.25, "lon": 80.75}}, {"type": "Feature", "geometry": {"type": "Polygon", "coordinates": [[[80.875, 14.125], [81.125, 14.125], [81.125, 14.375], [80.875, 14.375], [80.875, 14.125]]]}, "properties": {"time": "2020-11-25T18:00:00", "variable": "ws", "tier": "low", "percentile": 100.0, "z": 3.73, "wind_ms": 12.44, "value": 12.44, "lat": 14.25, "lon": 81.0}}, {"type": "Feature", "geometry": {"type": "Polygon", "coordinates": [[[81.125, 14.125], [81.375, 14.125], [81.375, 14.375], [81.125, 14.375], [81.125, 14.125]]]}, "properties": {"time": "2020-11-25T18:00:00", "variable": "ws", "tier": "low", "percentile": 100.0, "z": 3.41, "wind_ms": 12.43, "value": 12.43, "lat": 14.25, "lon": 81.25}}, {"type": "Feature", "geometry": {"type": "Polygon", "coordinates": [[[81.375, 14.125], [81.625, 14.125], [81.625, 14.375], [81.375, 14.375], [81.375, 14.125]]]}, "properties": {"time": "2020-11-25T18:00:00", "variable": "ws", "tier": "low", "percentile": 100.0, "z": 3.59, "wind_ms": 12.89, "value": 12.89, "lat": 14.25, "lon": 81.5}}, {"type": "Feature", "geometry": {"type": "Polygon", "coordinates": [[[81.625, 14.125], [81.875, 14.125], [81.875, 14.375], [81.625, 14.375], [81.625, 14.125]]]}, "properties": {"time": "2020-11-25T18:00:00", "variable": "ws", "tier": "low", "percentile": 100.0, "z": 3.6, "wind_ms": 13.1, "value": 13.1, "lat": 14.25, "lon": 81.75}}, {"type": "Feature", "geometry": {"type": "Polygon", "coordinates": [[[81.875, 14.125], [82.125, 14.125], [82.125, 14.375], [81.875, 14.375], [81.875, 14.125]]]}, "properties": {"time": "2020-11-25T18:00:00", "variable": "ws", "tier": "low", "percentile": 100.0, "z": 3.65, "wind_ms": 13.24, "value": 13.24, "lat": 14.25, "lon": 82.0}}, {"type": "Feature", "geometry": {"type": "Polygon", "coordinates": [[[82.125, 14.125], [82.375, 14.125], [82.375, 14.375], [82.125, 14.375], [82.125, 14.125]]]}, "properties": {"time": "2020-11-25T18:00:00", "variable": "ws", "tier": "low", "percentile": 100.0, "z": 3.79, "wind_ms": 13.51, "value": 13.51, "lat": 14.25, "lon": 82.25}}, {"type": "Feature", "geometry": {"type": "Polygon", "coordinates": [[[82.375, 14.125], [82.625, 14.125], [82.625, 14.375], [82.375, 14.375], [82.375, 14.125]]]}, "properties": {"time": "2020-11-25T18:00:00", "variable": "ws", "tier": "low", "percentile": 100.0, "z": 3.8, "wind_ms": 13.54, "value": 13.54, "lat": 14.25, "lon": 82.5}}, {"type": "Feature", "geometry": {"type": "Polygon", "coordinates": [[[82.625, 14.125], [82.875, 14.125], [82.875, 14.375], [82.625, 14.375], [82.625, 14.125]]]}, "properties": {"time": "2020-11-25T18:00:00", "variable": "ws", "tier": "low", "percentile": 100.0, "z": 3.81, "wind_ms": 13.53, "value": 13.53, "lat": 14.25, "lon": 82.75}}, {"type": "Feature", "geometry": {"type": "Polygon", "coordinates": [[[82.875, 14.125], [83.125, 14.125], [83.125, 14.375], [82.875, 14.375], [82.875, 14.125]]]}, "properties": {"time": "2020-11-25T18:00:00", "variable": "ws", "tier": "low", "percentile": 100.0, "z": 3.75, "wind_ms": 13.41, "value": 13.41, "lat": 14.25, "lon": 83.0}}, {"type": "Feature", "geometry": {"type": "Polygon", "coordinates": [[[80.125, 14.375], [80.375, 14.375], [80.375, 14.625], [80.125, 14.625], [80.125, 14.375]]]}, "properties": {"time": "2020-11-25T18:00:00", "variable": "ws", "tier": "low", "percentile": 100.0, "z": 6.14, "wind_ms": 10.58, "value": 10.58, "lat": 14.5, "lon": 80.25}}, {"type": "Feature", "geometry": {"type": "Polygon", "coordinates": [[[80.375, 14.375], [80.625, 14.375], [80.625, 14.625], [80.375, 14.625], [80.375, 14.375]]]}, "properties": {"time": "2020-11-25T18:00:00", "variable": "ws", "tier": "low", "percentile": 100.0, "z": 5.22, "wind_ms": 13.0, "value": 13.0, "lat": 14.5, "lon": 80.5}}, {"type": "Feature", "geometry": {"type": "Polygon", "coordinates": [[[80.625, 14.375], [80.875, 14.375], [80.875, 14.625], [80.625, 14.625], [80.625, 14.375]]]}, "properties": {"time": "2020-11-25T18:00:00", "variable": "ws", "tier": "low", "percentile": 100.0, "z": 4.43, "wind_ms": 12.96, "value": 12.96, "lat": 14.5, "lon": 80.75}}, {"type": "Feature", "geometry": {"type": "Polygon", "coordinates": [[[80.875, 14.375], [81.125, 14.375], [81.125, 14.625], [80.875, 14.625], [80.875, 14.375]]]}, "properties": {"time": "2020-11-25T18:00:00", "variable": "ws", "tier": "low", "percentile": 100.0, "z": 3.76, "wind_ms": 12.32, "value": 12.32, "lat": 14.5, "lon": 81.0}}, {"type": "Feature", "geometry": {"type": "Polygon", "coordinates": [[[81.125, 14.375], [81.375, 14.375], [81.375, 14.625], [81.125, 14.625], [81.125, 14.375]]]}, "properties": {"time": "2020-11-25T18:00:00", "variable": "ws", "tier": "low", "percentile": 100.0, "z": 3.28, "wind_ms": 12.12, "value": 12.12, "lat": 14.5, "lon": 81.25}}, {"type": "Feature", "geometry": {"type": "Polygon", "coordinates": [[[81.375, 14.375], [81.625, 14.375], [81.625, 14.625], [81.375, 14.625], [81.375, 14.375]]]}, "properties": {"time": "2020-11-25T18:00:00", "variable": "ws", "tier": "low", "percentile": 100.0, "z": 3.15, "wind_ms": 12.16, "value": 12.16, "lat": 14.5, "lon": 81.5}}, {"type": "Feature", "geometry": {"type": "Polygon", "coordinates": [[[81.625, 14.375], [81.875, 14.375], [81.875, 14.625], [81.625, 14.625], [81.625, 14.375]]]}, "properties": {"time": "2020-11-25T18:00:00", "variable": "ws", "tier": "low", "percentile": 100.0, "z": 3.13, "wind_ms": 12.27, "value": 12.27, "lat": 14.5, "lon": 81.75}}, {"type": "Feature", "geometry": {"type": "Polygon", "coordinates": [[[81.875, 14.375], [82.125, 14.375], [82.125, 14.625], [81.875, 14.625], [81.875, 14.375]]]}, "properties": {"time": "2020-11-25T18:00:00", "variable": "ws", "tier": "low", "percentile": 100.0, "z": 3.23, "wind_ms": 12.62, "value": 12.62, "lat": 14.5, "lon": 82.0}}, {"type": "Feature", "geometry": {"type": "Polygon", "coordinates": [[[82.125, 14.375], [82.375, 14.375], [82.375, 14.625], [82.125, 14.625], [82.125, 14.375]]]}, "properties": {"time": "2020-11-25T18:00:00", "variable": "ws", "tier": "low", "percentile": 100.0, "z": 3.44, "wind_ms": 13.06, "value": 13.06, "lat": 14.5, "lon": 82.25}}, {"type": "Feature", "geometry": {"type": "Polygon", "coordinates": [[[82.375, 14.375], [82.625, 14.375], [82.625, 14.625], [82.375, 14.625], [82.375, 14.375]]]}, "properties": {"time": "2020-11-25T18:00:00", "variable": "ws", "tier": "low", "percentile": 100.0, "z": 3.62, "wind_ms": 13.31, "value": 13.31, "lat": 14.5, "lon": 82.5}}, {"type": "Feature", "geometry": {"type": "Polygon", "coordinates": [[[82.625, 14.375], [82.875, 14.375], [82.875, 14.625], [82.625, 14.625], [82.625, 14.375]]]}, "properties": {"time": "2020-11-25T18:00:00", "variable": "ws", "tier": "low", "percentile": 100.0, "z": 3.67, "wind_ms": 13.29, "value": 13.29, "lat": 14.5, "lon": 82.75}}, {"type": "Feature", "geometry": {"type": "Polygon", "coordinates": [[[82.875, 14.375], [83.125, 14.375], [83.125, 14.625], [82.875, 14.625], [82.875, 14.375]]]}, "properties": {"time": "2020-11-25T18:00:00", "variable": "ws", "tier": "low", "percentile": 100.0, "z": 3.64, "wind_ms": 13.07, "value": 13.07, "lat": 14.5, "lon": 83.0}}], "properties": {"thresholds": {"low_z": 1.5, "low_ws": 8.7, "moderate_z": 2.0, "moderate_ws": 17.0, "severe_z": 3.0, "severe_ws": 25.0}, "note": "Tiers: z-score AND wind >= 8.7/17/25 m/s (IMD D/CS/SCS), only inside tracked-object boxes + 1 deg. Adjusted after observing results; not validated against impacts. Per-hour ERA5 reanalysis climatology; single member, not an ensemble EFI."}}