{"type": "FeatureCollection", "features": [{"type": "Feature", "geometry": {"type": "Polygon", "coordinates": [[[84.125, 15.875], [84.375, 15.875], [84.375, 16.125], [84.125, 16.125], [84.125, 15.875]]]}, "properties": {"time": "2018-10-10T18:00:00", "variable": "ws", "tier": "low", "percentile": 95.0, "z": 1.99, "wind_ms": 8.91, "value": 8.91, "lat": 16.0, "lon": 84.25}}, {"type": "Feature", "geometry": {"type": "Polygon", "coordinates": [[[84.375, 15.875], [84.625, 15.875], [84.625, 16.125], [84.375, 16.125], [84.375, 15.875]]]}, "properties": {"time": "2018-10-10T18:00:00", "variable": "ws", "tier": "low", "percentile": 98.6, "z": 2.61, "wind_ms": 10.65, "value": 10.65, "lat": 16.0, "lon": 84.5}}, {"type": "Feature", "geometry": {"type": "Polygon", "coordinates": [[[84.625, 15.875], [84.875, 15.875], [84.875, 16.125], [84.625, 16.125], [84.625, 15.875]]]}, "properties": {"time": "2018-10-10T18:00:00", "variable": "ws", "tier": "low", "percentile": 98.6, "z": 2.74, "wind_ms": 11.16, "value": 11.16, "lat": 16.0, "lon": 84.75}}, {"type": "Feature", "geometry": {"type": "Polygon", "coordinates": [[[84.875, 15.875], [85.125, 15.875], [85.125, 16.125], [84.875, 16.125], [84.875, 15.875]]]}, "properties": {"time": "2018-10-10T18:00:00", "variable": "ws", "tier": "low", "percentile": 98.6, "z": 2.96, "wind_ms": 11.82, "value": 11.82, "lat": 16.0, "lon": 85.0}}, {"type": "Feature", "geometry": {"type": "Polygon", "coordinates": [[[85.125, 15.875], [85.375, 15.875], [85.375, 16.125], [85.125, 16.125], [85.125, 15.875]]]}, "properties": {"time": "2018-10-10T18:00:00", "variable": "ws", "tier": "low", "percentile": 98.6, "z": 3.1, "wind_ms": 12.3, "value": 12.3, "lat": 16.0, "lon": 85.25}}, {"type": "Feature", "geometry": {"type": "Polygon", "coordinates": [[[85.375, 15.875], [85.625, 15.875], [85.625, 16.125], [85.375, 16.125], [85.375, 15.875]]]}, "properties": {"time": "2018-10-10T18:00:00", "variable": "ws", "tier": "low", "percentile": 98.6, "z": 3.15, "wind_ms": 12.52, "value": 12.52, "lat": 16.0, "lon": 85.5}}, {"type": "Feature", "geometry": {"type": "Polygon", "coordinates": [[[85.625, 15.875], [85.875, 15.875], [85.875, 16.125], [85.625, 16.125], [85.625, 15.875]]]}, "properties": {"time": "2018-10-10T18:00:00", "variable": "ws", "tier": "low", "percentile": 99.5, "z": 3.15, "wind_ms": 12.33, "value": 12.33, "lat": 16.0, "lon": 85.75}}, {"type": "Feature", "geometry": {"type": "Polygon", "coordinates": [[[85.875, 15.875], [86.125, 15.875], [86.125, 16.125], [85.875, 16.125], [85.875, 15.875]]]}, "properties": {"time": "2018-10-10T18:00:00", "variable": "ws", "tier": "low", "percentile": 99.5, "z": 3.08, "wind_ms": 11.99, "value": 11.99, "lat": 16.0, "lon": 86.0}}, {"type": "Feature", "geometry": {"type": "Polygon", "coordinates": [[[86.125, 15.875], [86.375, 15.875], [86.375, 16.125], [86.125, 16.125], [86.125, 15.875]]]}, "properties": {"time": "2018-10-10T18:00:00", "variable": "ws", "tier": "low", "percentile": 99.5, "z": 2.97, "wind_ms": 11.7, "value": 11.7, "lat": 16.0, "lon": 86.25}}, {"type": "Feature", "geometry": {"type": "Polygon", "coordinates": [[[86.375, 15.875], [86.625, 15.875], [86.625, 16.125], [86.375, 16.125], [86.375, 15.875]]]}, "properties": {"time": "2018-10-10T18:00:00", "variable": "ws", "tier": "low", "percentile": 98.6, "z": 2.93, "wind_ms": 11.6, "value": 11.6, "lat": 16.0, "lon": 86.5}}, {"type": "Feature", "geometry": {"type": "Polygon", "coordinates": [[[86.625, 15.875], [86.875, 15.875], [86.875, 16.125], [86.625, 16.125], [86.625, 15.875]]]}, "properties": {"time": "2018-10-10T18:00:00", "variable": "ws", "tier": "low", "percentile": 98.6, "z": 2.9, "wind_ms": 11.6, "value": 11.6, "lat": 16.0, "lon": 86.75}}, {"type": "Feature", "geometry": {"type": "Polygon", "coordinates": [[[86.875, 15.875], [87.125, 15.875], [87.125, 16.125], [86.875, 16.125], [86.875, 15.875]]]}, "properties": {"time": "2018-10-10T18:00:00", "variable": "ws", "tier": "low", "percentile": 98.6, "z": 2.91, "wind_ms": 11.77, "value": 11.77, "lat": 16.0, "lon": 87.0}}, {"type": "Feature", "geometry": {"type": "Polygon", "coordinates": [[[87.125, 15.875], [87.375, 15.875], [87.375, 16.125], [87.125, 16.125], [87.125, 15.875]]]}, "properties": {"time": "2018-10-10T18:00:00", "variable": "ws", "tier": "low", "percentile": 97.7, "z": 2.89, "wind_ms": 11.86, "value": 11.86, "lat": 16.0, "lon": 87.25}}, {"type": "Feature", "geometry": {"type": "Polygon", "coordinates": [[[87.375, 15.875], [87.625, 15.875], [87.625, 16.125], [87.375, 16.125], [87.375, 15.875]]]}, "properties": {"time": "2018-10-10T18:00:00", "variable": "ws", "tier": "low", "percentile": 97.7, "z": 2.81, "wind_ms": 11.78, "value": 11.78, "lat": 16.0, "lon": 87.5}}, {"type": "Feature", "geometry": {"type": "Polygon", "coordinates": [[[87.625, 15.875], [87.875, 15.875], [87.875, 16.125], [87.625, 16.125], [87.625, 15.875]]]}, "properties": {"time": "2018-10-10T18:00:00", "variable": "ws", "tier": "low", "percentile": 97.7, "z": 2.69, "wind_ms": 11.57, "value": 11.57, "lat": 16.0, "lon": 87.75}}, {"type": "Feature", "geometry": {"type": "Polygon", "coordinates": [[[84.125, 16.125], [84.375, 16.125], [84.375, 16.375], [84.125, 16.375], [84.125, 16.125]]]}, "properties": {"time": "2018-10-10T18:00:00", "variable": "ws", "tier": "low", "percentile": 94.1, "z": 1.94, "wind_ms": 8.88, "value": 8.88, "lat": 16.25, "lon": 84.25}}, {"type": "Feature", "geometry": {"type": "Polygon", "coordinates": [[[84.375, 16.125], [84.625, 16.125], [84.625, 16.375], [84.375, 16.375], [84.375, 16.125]]]}, "properties": {"time": "2018-10-10T18:00:00", "variable": "ws", "tier": "low", "percentile": 97.7, "z": 2.51, "wind_ms": 10.54, "value": 10.54, "lat": 16.25, "lon": 84.5}}, {"type": "Feature", "geometry": {"type": "Polygon", "coordinates": [[[84.625, 16.125], [84.875, 16.125], [84.875, 16.375], [84.625, 16.375], [84.625, 16.125]]]}, "properties": {"time": "2018-10-10T18:00:00", "variable": "ws", "tier": "low", "percentile": 98.6, "z": 2.94, "wind_ms": 11.81, "value": 11.81, "lat": 16.25, "lon": 84.75}}, {"type": "Feature", "geometry": {"type": "Polygon", "coordinates": [[[84.875, 16.125], [85.125, 16.125], [85.125, 16.375], [84.875, 16.375], [84.875, 16.125]]]}, "properties": {"time": "2018-10-10T18:00:00", "variable": "ws", "tier": "low", "percentile": 98.6, "z": 3.12, "wind_ms": 12.29, "value": 12.29, "lat": 16.25, "lon": 85.0}}, {"type": "Feature", "geometry": {"type": "Polygon", "coordinates": [[[85.125, 16.125], [85.375, 16.125], [85.375, 16.375], [85.125, 16.375], [85.125, 16.125]]]}, "properties": {"time": "2018-10-10T18:00:00", "variable": "ws", "tier": "low", "percentile": 98.6, "z": 3.27, "wind_ms": 12.67, "value": 12.67, "lat": 16.25, "lon": 85.25}}, {"type": "Feature", "geometry": {"type": "Polygon", "coordinates": [[[85.375, 16.125], [85.625, 16.125], [85.625, 16.375], [85.375, 16.375], [85.375, 16.125]]]}, "properties": {"time": "2018-10-10T18:00:00", "variable": "ws", "tier": "low", "percentile": 98.6, "z": 3.28, "wind_ms": 12.8, "value": 12.8, "lat": 16.25, "lon": 85.5}}, {"type": "Feature", "geometry": {"type": "Polygon", "coordinates": [[[85.625, 16.125], [85.875, 16.125], [85.875, 16.375], [85.625, 16.375], [85.625, 16.125]]]}, "properties": {"time": "2018-10-10T18:00:00", "variable": "ws", "tier": "low", "percentile": 99.5, "z": 3.26, "wind_ms": 12.59, "value": 12.59, "lat": 16.25, "lon": 85.75}}, {"type": "Feature", "geometry": {"type": "Polygon", "coordinates": [[[85.875, 16.125], [86.125, 16.125], [86.125, 16.375], [85.875, 16.375], [85.875, 16.125]]]}, "properties": {"time": "2018-10-10T18:00:00", "variable": "ws", "tier": "low", "percentile": 99.5, "z": 3.21, "wind_ms": 12.42, "value": 12.42, "lat": 16.25, "lon": 86.0}}, {"type": "Feature", "geometry": {"type": "Polygon", "coordinates": [[[86.125, 16.125], [86.375, 16.125], [86.375, 16.375], [86.125, 16.375], [86.125, 16.125]]]}, "properties": {"time": "2018-10-10T18:00:00", "variable": "ws", "tier": "low", "percentile": 99.5, "z": 3.09, "wind_ms": 12.13, "value": 12.13, "lat": 16.25, "lon": 86.25}}, {"type": "Feature", "geometry": {"type": "Polygon", "coordinates": [[[86.375, 16.125], [86.625, 16.125], [86.625, 16.375], [86.375, 16.375], [86.375, 16.125]]]}, "properties": {"time": "2018-10-10T18:00:00", "variable": "ws", "tier": "low", "percentile": 99.5, "z": 2.99, "wind_ms": 12.0, "value": 12.0, "lat": 16.25, "lon": 86.5}}, {"type": "Feature", "geometry": {"type": "Polygon", "coordinates": [[[86.625, 16.125], [86.875, 16.125], [86.875, 16.375], [86.625, 16.375], [86.625, 16.125]]]}, "properties": {"time": "2018-10-10T18:00:00", "variable": "ws", "tier": "low", "percentile": 98.6, "z": 2.95, "wind_ms": 11.99, "value": 11.99, "lat": 16.25, "lon": 86.75}}, {"type": "Feature", "geometry": {"type": "Polygon", "coordinates": [[[86.875, 16.125], [87.125, 16.125], [87.125, 16.375], [86.875, 16.375], [86.875, 16.125]]]}, "properties": {"time": "2018-10-10T18:00:00", "variable": "ws", "tier": "low", "percentile": 97.7, "z": 2.92, "wind_ms": 12.03, "value": 12.03, "lat": 16.25, "lon": 87.0}}, {"type": "Feature", "geometry": {"type": "Polygon", "coordinates": [[[87.125, 16.125], [87.375, 16.125], [87.375, 16.375], [87.125, 16.375], [87.125, 16.125]]]}, "properties": {"time": "2018-10-10T18:00:00", "variable": "ws", "tier": "low", "percentile": 98.6, "z": 2.93, "wind_ms": 12.12, "value": 12.12, "lat": 16.25, "lon": 87.25}}, {"type": "Feature", "geometry": {"type": "Polygon", "coordinates": [[[87.375, 16.125], [87.625, 16.125], [87.625, 16.375], [87.375, 16.375], [87.375, 16.125]]]}, "properties": {"time": "2018-10-10T18:00:00", "variable": "ws", "tier": "low", "percentile": 98.6, "z": 2.9, "wind_ms": 12.12, "value": 12.12, "lat": 16.25, "lon": 87.5}}, {"type": "Feature", "geometry": {"type": "Polygon", "coordinates": [[[87.625, 16.125], [87.875, 16.125], [87.875, 16.375], [87.625, 16.375], [87.625, 16.125]]]}, "properties": {"time": "2018-10-10T18:00:00", "variable": "ws", "tier": "low", "percentile": 97.7, "z": 2.81, "wind_ms": 11.92, "value": 11.92, "lat": 16.25, "lon": 87.75}}, {"type": "Feature", "geometry": {"type": "Polygon", "coordinates": [[[84.125, 16.375], [84.375, 16.375], [84.375, 16.625], [84.125, 16.625], [84.125, 16.375]]]}, "properties": {"time": "2018-10-10T18:00:00", "variable": "ws", "tier": "low", "percentile": 97.7, "z": 2.31, "wind_ms": 9.86, "value": 9.86, "lat": 16.5, "lon": 84.25}}, {"type": "Feature", "geometry": {"type": "Polygon", "coordinates": [[[84.375, 16.375], [84.625, 16.375], [84.625, 16.625], [84.375, 16.625], [84.375, 16.375]]]}, "properties": {"time": "2018-10-10T18:00:00", "variable": "ws", "tier": "low", "percentile": 98.6, "z": 2.82, "wind_ms": 11.44, "value": 11.44, "lat": 16.5, "lon": 84.5}}, {"type": "Feature", "geometry": {"type": "Polygon", "coordinates": [[[84.625, 16.375], [84.875, 16.375], [84.875, 16.625], [84.625, 16.625], [84.625, 16.375]]]}, "properties": {"time": "2018-10-10T18:00:00", "variable": "ws", "tier": "low", "percentile": 98.6, "z": 3.25, "wind_ms": 12.74, "value": 12.74, "lat": 16.5, "lon": 84.75}}, {"type": "Feature", "geometry": {"type": "Polygon", "coordinates": [[[84.875, 16.375], [85.125, 16.375], [85.125, 16.625], [84.875, 16.625], [84.875, 16.375]]]}, "properties": {"time": "2018-10-10T18:00:00", "variable": "ws", "tier": "low", "percentile": 98.6, "z": 3.44, "wind_ms": 13.33, "value": 13.33, "lat": 16.5, "lon": 85.0}}, {"type": "Feature", "geometry": {"type": "Polygon", "coordinates": [[[85.125, 16.375], [85.375, 16.375], [85.375, 16.625], [85.125, 16.625], [85.125, 16.375]]]}, "properties": {"time": "2018-10-10T18:00:00", "variable": "ws", "tier": "low", "percentile": 99.5, "z": 3.56, "wind_ms": 13.59, "value": 13.59, "lat": 16.5, "lon": 85.25}}, {"type": "Feature", "geometry": {"type": "Polygon", "coordinates": [[[85.375, 16.375], [85.625, 16.375], [85.625, 16.625], [85.375, 16.625], [85.375, 16.375]]]}, "properties": {"time": "2018-10-10T18:00:00", "variable": "ws", "tier": "low", "percentile": 99.5, "z": 3.53, "wind_ms": 13.54, "value": 13.54, "lat": 16.5, "lon": 85.5}}, {"type": "Feature", "geometry": {"type": "Polygon", "coordinates": [[[85.625, 16.375], [85.875, 16.375], [85.875, 16.625], [85.625, 16.625], [85.625, 16.375]]]}, "properties": {"time": "2018-10-10T18:00:00", "variable": "ws", "tier": "low", "percentile": 99.5, "z": 3.41, "wind_ms": 13.16, "value": 13.16, "lat": 16.5, "lon": 85.75}}, {"type": "Feature", "geometry": {"type": "Polygon", "coordinates": [[[85.875, 16.375], [86.125, 16.375], [86.125, 16.625], [85.875, 16.625], [85.875, 16.375]]]}, "properties": {"time": "2018-10-10T18:00:00", "variable": "ws", "tier": "low", "percentile": 99.5, "z": 3.31, "wind_ms": 12.91, "value": 12.91, "lat": 16.5, "lon": 86.0}}, {"type": "Feature", "geometry": {"type": "Polygon", "coordinates": [[[86.125, 16.375], [86.375, 16.375], [86.375, 16.625], [86.125, 16.625], [86.125, 16.375]]]}, "properties": {"time": "2018-10-10T18:00:00", "variable": "ws", "tier": "low", "percentile": 99.5, "z": 3.2, "wind_ms": 12.7, "value": 12.7, "lat": 16.5, "lon": 86.25}}, {"type": "Feature", "geometry": {"type": "Polygon", "coordinates": [[[86.375, 16.375], [86.625, 16.375], [86.625, 16.625], [86.375, 16.625], [86.375, 16.375]]]}, "properties": {"time": "2018-10-10T18:00:00", "variable": "ws", "tier": "low", "percentile": 99.5, "z": 3.11, "wind_ms": 12.56, "value": 12.56, "lat": 16.5, "lon": 86.5}}, {"type": "Feature", "geometry": {"type": "Polygon", "coordinates": [[[86.625, 16.375], [86.875, 16.375], [86.875, 16.625], [86.625, 16.625], [86.625, 16.375]]]}, "properties": {"time": "2018-10-10T18:00:00", "variable": "ws", "tier": "low", "percentile": 98.6, "z": 3.04, "wind_ms": 12.48, "value": 12.48, "lat": 16.5, "lon": 86.75}}, {"type": "Feature", "geometry": {"type": "Polygon", "coordinates": [[[86.875, 16.375], [87.125, 16.375], [87.125, 16.625], [86.875, 16.625], [86.875, 16.375]]]}, "properties": {"time": "2018-10-10T18:00:00", "variable": "ws", "tier": "low", "percentile": 98.6, "z": 3.04, "wind_ms": 12.5, "value": 12.5, "lat": 16.5, "lon": 87.0}}, {"type": "Feature", "geometry": {"type": "Polygon", "coordinates": [[[87.125, 16.375], [87.375, 16.375], [87.375, 16.625], [87.125, 16.625], [87.125, 16.375]]]}, "properties": {"time": "2018-10-10T18:00:00", "variable": "ws", "tier": "low", "percentile": 98.6, "z": 3.06, "wind_ms": 12.5, "value": 12.5, "lat": 16.5, "lon": 87.25}}, {"type": "Feature", "geometry": {"type": "Polygon", "coordinates": [[[87.375, 16.375], [87.625, 16.375], [87.625, 16.625], [87.375, 16.625], [87.375, 16.375]]]}, "properties": {"time": "2018-10-10T18:00:00", "variable": "ws", "tier": "low", "percentile": 98.6, "z": 3.05, "wind_ms": 12.51, "value": 12.51, "lat": 16.5, "lon": 87.5}}, {"type": "Feature", "geometry": {"type": "Polygon", "coordinates": [[[87.625, 16.375], [87.875, 16.375], [87.875, 16.625], [87.625, 16.625], [87.625, 16.375]]]}, "properties": {"time": "2018-10-10T18:00:00", "variable": "ws", "tier": "low", "percentile": 98.6, "z": 2.95, "wind_ms": 12.25, "value": 12.25, "lat": 16.5, "lon": 87.75}}, {"type": "Feature", "geometry": {"type": "Polygon", "coordinates": [[[83.625, 16.625], [83.875, 16.625], [83.875, 16.875], [83.625, 16.875], [83.625, 16.625]]]}, "properties": {"time": "2018-10-10T18:00:00", "variable": "ws", "tier": "low", "percentile": 95.0, "z": 2.1, "wind_ms": 8.91, "value": 8.91, "lat": 16.75, "lon": 83.75}}, {"type": "Feature", "geometry": {"type": "Polygon", "coordinates": [[[83.875, 16.625], [84.125, 16.625], [84.125, 16.875], [83.875, 16.875], [83.875, 16.625]]]}, "properties": {"time": "2018-10-10T18:00:00", "variable": "ws", "tier": "low", "percentile": 98.6, "z": 2.72, "wind_ms": 10.74, "value": 10.74, "lat": 16.75, "lon": 84.0}}, {"type": "Feature", "geometry": {"type": "Polygon", "coordinates": [[[84.125, 16.625], [84.375, 16.625], [84.375, 16.875], [84.125, 16.875], [84.125, 16.625]]]}, "properties": {"time": "2018-10-10T18:00:00", "variable": "ws", "tier": "low", "percentile": 98.6, "z": 3.21, "wind_ms": 12.42, "value": 12.42, "lat": 16.75, "lon": 84.25}}, {"type": "Feature", "geometry": {"type": "Polygon", "coordinates": [[[84.375, 16.625], [84.625, 16.625], [84.625, 16.875], [84.375, 16.875], [84.375, 16.625]]]}, "properties": {"time": "2018-10-10T18:00:00", "variable": "ws", "tier": "low", "percentile": 98.6, "z": 3.54, "wind_ms": 13.63, "value": 13.63, "lat": 16.75, "lon": 84.5}}, {"type": "Feature", "geometry": {"type": "Polygon", "coordinates": [[[84.625, 16.625], [84.875, 16.625], [84.875, 16.875], [84.625, 16.875], [84.625, 16.625]]]}, "properties": {"time": "2018-10-10T18:00:00", "variable": "ws", "tier": "low", "percentile": 99.5, "z": 3.78, "wind_ms": 14.4, "value": 14.4, "lat": 16.75, "lon": 84.75}}, {"type": "Feature", "geometry": {"type": "Polygon", "coordinates": [[[84.875, 16.625], [85.125, 16.625], [85.125, 16.875], [84.875, 16.875], [84.875, 16.625]]]}, "properties": {"time": "2018-10-10T18:00:00", "variable": "ws", "tier": "low", "percentile": 99.5, "z": 3.96, "wind_ms": 14.93, "value": 14.93, "lat": 16.75, "lon": 85.0}}, {"type": "Feature", "geometry": {"type": "Polygon", "coordinates": [[[85.125, 16.625], [85.375, 16.625], [85.375, 16.875], [85.125, 16.875], [85.125, 16.625]]]}, "properties": {"time": "2018-10-10T18:00:00", "variable": "ws", "tier": "low", "percentile": 99.5, "z": 4.01, "wind_ms": 15.06, "value": 15.06, "lat": 16.75, "lon": 85.25}}, {"type": "Feature", "geometry": {"type": "Polygon", "coordinates": [[[85.375, 16.625], [85.625, 16.625], [85.625, 16.875], [85.375, 16.875], [85.375, 16.625]]]}, "properties": {"time": "2018-10-10T18:00:00", "variable": "ws", "tier": "low", "percentile": 99.5, "z": 3.97, "wind_ms": 14.92, "value": 14.92, "lat": 16.75, "lon": 85.5}}, {"type": "Feature", "geometry": {"type": "Polygon", "coordinates": [[[85.625, 16.625], [85.875, 16.625], [85.875, 16.875], [85.625, 16.875], [85.625, 16.625]]]}, "properties": {"time": "2018-10-10T18:00:00", "variable": "ws", "tier": "low", "percentile": 99.5, "z": 3.78, "wind_ms": 14.37, "value": 14.37, "lat": 16.75, "lon": 85.75}}, {"type": "Feature", "geometry": {"type": "Polygon", "coordinates": [[[85.875, 16.625], [86.125, 16.625], [86.125, 16.875], [85.875, 16.875], [85.875, 16.625]]]}, "properties": {"time": "2018-10-10T18:00:00", "variable": "ws", "tier": "low", "percentile": 99.5, "z": 3.51, "wind_ms": 13.7, "value": 13.7, "lat": 16.75, "lon": 86.0}}, {"type": "Feature", "geometry": {"type": "Polygon", "coordinates": [[[86.125, 16.625], [86.375, 16.625], [86.375, 16.875], [86.125, 16.875], [86.125, 16.625]]]}, "properties": {"time": "2018-10-10T18:00:00", "variable": "ws", "tier": "low", "percentile": 98.6, "z": 3.35, "wind_ms": 13.42, "value": 13.42, "lat": 16.75, "lon": 86.25}}, {"type": "Feature", "geometry": {"type": "Polygon", "coordinates": [[[86.375, 16.625], [86.625, 16.625], [86.625, 16.875], [86.375, 16.875], [86.375, 16.625]]]}, "properties": {"time": "2018-10-10T18:00:00", "variable": "ws", "tier": "low", "percentile": 98.6, "z": 3.25, "wind_ms": 13.22, "value": 13.22, "lat": 16.75, "lon": 86.5}}, {"type": "Feature", "geometry": {"type": "Polygon", "coordinates": [[[86.625, 16.625], [86.875, 16.625], [86.875, 16.875], [86.625, 16.875], [86.625, 16.625]]]}, "properties": {"time": "2018-10-10T18:00:00", "variable": "ws", "tier": "low", "percentile": 98.6, "z": 3.22, "wind_ms": 13.14, "value": 13.14, "lat": 16.75, "lon": 86.75}}, {"type": "Feature", "geometry": {"type": "Polygon", "coordinates": [[[86.875, 16.625], [87.125, 16.625], [87.125, 16.875], [86.875, 16.875], [86.875, 16.625]]]}, "properties": {"time": "2018-10-10T18:00:00", "variable": "ws", "tier": "low", "percentile": 98.6, "z": 3.22, "wind_ms": 13.06, "value": 13.06, "lat": 16.75, "lon": 87.0}}, {"type": "Feature", "geometry": {"type": "Polygon", "coordinates": [[[87.125, 16.625], [87.375, 16.625], [87.375, 16.875], [87.125, 16.875], [87.125, 16.625]]]}, "properties": {"time": "2018-10-10T18:00:00", "variable": "ws", "tier": "low", "percentile": 98.6, "z": 3.24, "wind_ms": 13.01, "value": 13.01, "lat": 16.75, "lon": 87.25}}, {"type": "Feature", "geometry": {"type": "Polygon", "coordinates": [[[87.375, 16.625], [87.625, 16.625], [87.625, 16.875], [87.375, 16.875], [87.375, 16.625]]]}, "properties": {"time": "2018-10-10T18:00:00", "variable": "ws", "tier": "low", "percentile": 98.6, "z": 3.26, "wind_ms": 12.96, "value": 12.96, "lat": 16.75, "lon": 87.5}}, {"type": "Feature", "geometry": {"type": "Polygon", "coordinates": [[[87.625, 16.625], [87.875, 16.625], [87.875, 16.875], [87.625, 16.875], [87.625, 16.625]]]}, "properties": {"time": "2018-10-10T18:00:00", "variable": "ws", "tier": "low", "percentile": 98.6, "z": 3.15, "wind_ms": 12.64, "value": 12.64, "lat": 16.75, "lon": 87.75}}, {"type": "Feature", "geometry": {"type": "Polygon", "coordinates": [[[83.375, 16.875], [83.625, 16.875], [83.625, 17.125], [83.375, 17.125], [83.375, 16.875]]]}, "properties": {"time": "2018-10-10T18:00:00", "variable": "ws", "tier": "low", "percentile": 96.8, "z": 2.45, "wind_ms": 9.64, "value": 9.64, "lat": 17.0, "lon": 83.5}}, {"type": "Feature", "geometry": {"type": "Polygon", "coordinates": [[[83.625, 16.875], [83.875, 16.875], [83.875, 17.125], [83.625, 17.125], [83.625, 16.875]]]}, "properties": {"time": "2018-10-10T18:00:00", "variable": "ws", "tier": "low", "percentile": 98.6, "z": 2.96, "wind_ms": 11.35, "value": 11.35, "lat": 17.0, "lon": 83.75}}, {"type": "Feature", "geometry": {"type": "Polygon", "coordinates": [[[83.875, 16.875], [84.125, 16.875], [84.125, 17.125], [83.875, 17.125], [83.875, 16.875]]]}, "properties": {"time": "2018-10-10T18:00:00", "variable": "ws", "tier": "low", "percentile": 99.5, "z": 3.45, "wind_ms": 12.97, "value": 12.97, "lat": 17.0, "lon": 84.0}}, {"type": "Feature", "geometry": {"type": "Polygon", "coordinates": [[[84.125, 16.875], [84.375, 16.875], [84.375, 17.125], [84.125, 17.125], [84.125, 16.875]]]}, "properties": {"time": "2018-10-10T18:00:00", "variable": "ws", "tier": "low", "percentile": 99.5, "z": 3.87, "wind_ms": 14.48, "value": 14.48, "lat": 17.0, "lon": 84.25}}, {"type": "Feature", "geometry": {"type": "Polygon", "coordinates": [[[84.375, 16.875], [84.625, 16.875], [84.625, 17.125], [84.375, 17.125], [84.375, 16.875]]]}, "properties": {"time": "2018-10-10T18:00:00", "variable": "ws", "tier": "low", "percentile": 99.5, "z": 4.18, "wind_ms": 15.78, "value": 15.78, "lat": 17.0, "lon": 84.5}}, {"type": "Feature", "geometry": {"type": "Polygon", "coordinates": [[[84.625, 16.875], [84.875, 16.875], [84.875, 17.125], [84.625, 17.125], [84.625, 16.875]]]}, "properties": {"time": "2018-10-10T18:00:00", "variable": "ws", "tier": "low", "percentile": 99.5, "z": 4.41, "wind_ms": 16.73, "value": 16.73, "lat": 17.0, "lon": 84.75}}, {"type": "Feature", "geometry": {"type": "Polygon", "coordinates": [[[84.875, 16.875], [85.125, 16.875], [85.125, 17.125], [84.875, 17.125], [84.875, 16.875]]]}, "properties": {"time": "2018-10-10T18:00:00", "variable": "ws", "tier": "moderate", "percentile": 99.5, "z": 4.62, "wind_ms": 17.34, "value": 17.34, "lat": 17.0, "lon": 85.0}}, {"type": "Feature", "geometry": {"type": "Polygon", "coordinates": [[[85.125, 16.875], [85.375, 16.875], [85.375, 17.125], [85.125, 17.125], [85.125, 16.875]]]}, "properties": {"time": "2018-10-10T18:00:00", "variable": "ws", "tier": "moderate", "percentile": 99.5, "z": 4.7, "wind_ms": 17.43, "value": 17.43, "lat": 17.0, "lon": 85.25}}, {"type": "Feature", "geometry": {"type": "Polygon", "coordinates": [[[85.375, 16.875], [85.625, 16.875], [85.625, 17.125], [85.375, 17.125], [85.375, 16.875]]]}, "properties": {"time": "2018-10-10T18:00:00", "variable": "ws", "tier": "low", "percentile": 99.5, "z": 4.49, "wind_ms": 16.72, "value": 16.72, "lat": 17.0, "lon": 85.5}}, {"type": "Feature", "geometry": {"type": "Polygon", "coordinates": [[[85.625, 16.875], [85.875, 16.875], [85.875, 17.125], [85.625, 17.125], [85.625, 16.875]]]}, "properties": {"time": "2018-10-10T18:00:00", "variable": "ws", "tier": "low", "percentile": 99.5, "z": 4.18, "wind_ms": 15.86, "value": 15.86, "lat": 17.0, "lon": 85.75}}, {"type": "Feature", "geometry": {"type": "Polygon", "coordinates": [[[85.875, 16.875], [86.125, 16.875], [86.125, 17.125], [85.875, 17.125], [85.875, 16.875]]]}, "properties": {"time": "2018-10-10T18:00:00", "variable": "ws", "tier": "low", "percentile": 99.5, "z": 3.87, "wind_ms": 15.06, "value": 15.06, "lat": 17.0, "lon": 86.0}}, {"type": "Feature", "geometry": {"type": "Polygon", "coordinates": [[[86.125, 16.875], [86.375, 16.875], [86.375, 17.125], [86.125, 17.125], [86.125, 16.875]]]}, "properties": {"time": "2018-10-10T18:00:00", "variable": "ws", "tier": "low", "percentile": 99.5, "z": 3.65, "wind_ms": 14.55, "value": 14.55, "lat": 17.0, "lon": 86.25}}, {"type": "Feature", "geometry": {"type": "Polygon", "coordinates": [[[86.375, 16.875], [86.625, 16.875], [86.625, 17.125], [86.375, 17.125], [86.375, 16.875]]]}, "properties": {"time": "2018-10-10T18:00:00", "variable": "ws", "tier": "low", "percentile": 99.5, "z": 3.5, "wind_ms": 14.16, "value": 14.16, "lat": 17.0, "lon": 86.5}}, {"type": "Feature", "geometry": {"type": "Polygon", "coordinates": [[[86.625, 16.875], [86.875, 16.875], [86.875, 17.125], [86.625, 17.125], [86.625, 16.875]]]}, "properties": {"time": "2018-10-10T18:00:00", "variable": "ws", "tier": "low", "percentile": 98.6, "z": 3.44, "wind_ms": 13.89, "value": 13.89, "lat": 17.0, "lon": 86.75}}, {"type": "Feature", "geometry": {"type": "Polygon", "coordinates": [[[86.875, 16.875], [87.125, 16.875], [87.125, 17.125], [86.875, 17.125], [86.875, 16.875]]]}, "properties": {"time": "2018-10-10T18:00:00", "variable": "ws", "tier": "low", "percentile": 98.6, "z": 3.42, "wind_ms": 13.72, "value": 13.72, "lat": 17.0, "lon": 87.0}}, {"type": "Feature", "geometry": {"type": "Polygon", "coordinates": [[[87.125, 16.875], [87.375, 16.875], [87.375, 17.125], [87.125, 17.125], [87.125, 16.875]]]}, "properties": {"time": "2018-10-10T18:00:00", "variable": "ws", "tier": "low", "percentile": 98.6, "z": 3.41, "wind_ms": 13.55, "value": 13.55, "lat": 17.0, "lon": 87.25}}, {"type": "Feature", "geometry": {"type": "Polygon", "coordinates": [[[87.375, 16.875], [87.625, 16.875], [87.625, 17.125], [87.375, 17.125], [87.375, 16.875]]]}, "properties": {"time": "2018-10-10T18:00:00", "variable": "ws", "tier": "low", "percentile": 98.6, "z": 3.4, "wind_ms": 13.4, "value": 13.4, "lat": 17.0, "lon": 87.5}}, {"type": "Feature", "geometry": {"type": "Polygon", "coordinates": [[[87.625, 16.875], [87.875, 16.875], [87.875, 17.125], [87.625, 17.125], [87.625, 16.875]]]}, "properties": {"time": "2018-10-10T18:00:00", "variable": "ws", "tier": "low", "percentile": 98.6, "z": 3.32, "wind_ms": 13.07, "value": 13.07, "lat": 17.0, "lon": 87.75}}, {"type": "Feature", "geometry": {"type": "Polygon", "coordinates": [[[83.375, 17.125], [83.625, 17.125], [83.625, 17.375], [83.375, 17.375], [83.375, 17.125]]]}, "properties": {"time": "2018-10-10T18:00:00", "variable": "ws", "tier": "low", "percentile": 97.7, "z": 2.63, "wind_ms": 10.24, "value": 10.24, "lat": 17.25, "lon": 83.5}}, {"type": "Feature", "geometry": {"type": "Polygon", "coordinates": [[[83.625, 17.125], [83.875, 17.125], [83.875, 17.375], [83.625, 17.375], [83.625, 17.125]]]}, "properties": {"time": "2018-10-10T18:00:00", "variable": "ws", "tier": "low", "percentile": 99.5, "z": 3.28, "wind_ms": 12.27, "value": 12.27, "lat": 17.25, "lon": 83.75}}, {"type": "Feature", "geometry": {"type": "Polygon", "coordinates": [[[83.875, 17.125], [84.125, 17.125], [84.125, 17.375], [83.875, 17.375], [83.875, 17.125]]]}, "properties": {"time": "2018-10-10T18:00:00", "variable": "ws", "tier": "low", "percentile": 99.5, "z": 3.88, "wind_ms": 14.56, "value": 14.56, "lat": 17.25, "lon": 84.0}}, {"type": "Feature", "geometry": {"type": "Polygon", "coordinates": [[[84.125, 17.125], [84.375, 17.125], [84.375, 17.375], [84.125, 17.375], [84.125, 17.125]]]}, "properties": {"time": "2018-10-10T18:00:00", "variable": "ws", "tier": "low", "percentile": 99.5, "z": 4.35, "wind_ms": 16.44, "value": 16.44, "lat": 17.25, "lon": 84.25}}, {"type": "Feature", "geometry": {"type": "Polygon", "coordinates": [[[84.375, 17.125], [84.625, 17.125], [84.625, 17.375], [84.375, 17.375], [84.375, 17.125]]]}, "properties": {"time": "2018-10-10T18:00:00", "variable": "ws", "tier": "moderate", "percentile": 99.5, "z": 4.73, "wind_ms": 17.96, "value": 17.96, "lat": 17.25, "lon": 84.5}}, {"type": "Feature", "geometry": {"type": "Polygon", "coordinates": [[[84.625, 17.125], [84.875, 17.125], [84.875, 17.375], [84.625, 17.375], [84.625, 17.125]]]}, "properties": {"time": "2018-10-10T18:00:00", "variable": "ws", "tier": "moderate", "percentile": 99.5, "z": 4.97, "wind_ms": 18.94, "value": 18.94, "lat": 17.25, "lon": 84.75}}, {"type": "Feature", "geometry": {"type": "Polygon", "coordinates": [[[84.875, 17.125], [85.125, 17.125], [85.125, 17.375], [84.875, 17.375], [84.875, 17.125]]]}, "properties": {"time": "2018-10-10T18:00:00", "variable": "ws", "tier": "moderate", "percentile": 99.5, "z": 5.11, "wind_ms": 19.51, "value": 19.51, "lat": 17.25, "lon": 85.0}}, {"type": "Feature", "geometry": {"type": "Polygon", "coordinates": [[[85.125, 17.125], [85.375, 17.125], [85.375, 17.375], [85.125, 17.375], [85.125, 17.125]]]}, "properties": {"time": "2018-10-10T18:00:00", "variable": "ws", "tier": "moderate", "percentile": 99.5, "z": 5.18, "wind_ms": 19.61, "value": 19.61, "lat": 17.25, "lon": 85.25}}, {"type": "Feature", "geometry": {"type": "Polygon", "coordinates": [[[85.375, 17.125], [85.625, 17.125], [85.625, 17.375], [85.375, 17.375], [85.375, 17.125]]]}, "properties": {"time": "2018-10-10T18:00:00", "variable": "ws", "tier": "moderate", "percentile": 99.5, "z": 4.97, "wind_ms": 18.58, "value": 18.58, "lat": 17.25, "lon": 85.5}}, {"type": "Feature", "geometry": {"type": "Polygon", "coordinates": [[[85.625, 17.125], [85.875, 17.125], [85.875, 17.375], [85.625, 17.375], [85.625, 17.125]]]}, "properties": {"time": "2018-10-10T18:00:00", "variable": "ws", "tier": "moderate", "percentile": 99.5, "z": 4.65, "wind_ms": 17.53, "value": 17.53, "lat": 17.25, "lon": 85.75}}, {"type": "Feature", "geometry": {"type": "Polygon", "coordinates": [[[85.875, 17.125], [86.125, 17.125], [86.125, 17.375], [85.875, 17.375], [85.875, 17.125]]]}, "properties": {"time": "2018-10-10T18:00:00", "variable": "ws", "tier": "low", "percentile": 99.5, "z": 4.32, "wind_ms": 16.61, "value": 16.61, "lat": 17.25, "lon": 86.0}}, {"type": "Feature", "geometry": {"type": "Polygon", "coordinates": [[[86.125, 17.125], [86.375, 17.125], [86.375, 17.375], [86.125, 17.375], [86.125, 17.125]]]}, "properties": {"time": "2018-10-10T18:00:00", "variable": "ws", "tier": "low", "percentile": 99.5, "z": 4.06, "wind_ms": 15.84, "value": 15.84, "lat": 17.25, "lon": 86.25}}, {"type": "Feature", "geometry": {"type": "Polygon", "coordinates": [[[86.375, 17.125], [86.625, 17.125], [86.625, 17.375], [86.375, 17.375], [86.375, 17.125]]]}, "properties": {"time": "2018-10-10T18:00:00", "variable": "ws", "tier": "low", "percentile": 99.5, "z": 3.86, "wind_ms": 15.29, "value": 15.29, "lat": 17.25, "lon": 86.5}}, {"type": "Feature", "geometry": {"type": "Polygon", "coordinates": [[[86.625, 17.125], [86.875, 17.125], [86.875, 17.375], [86.625, 17.375], [86.625, 17.125]]]}, "properties": {"time": "2018-10-10T18:00:00", "variable": "ws", "tier": "low", "percentile": 99.5, "z": 3.65, "wind_ms": 14.6, "value": 14.6, "lat": 17.25, "lon": 86.75}}, {"type": "Feature", "geometry": {"type": "Polygon", "coordinates": [[[86.875, 17.125], [87.125, 17.125], [87.125, 17.375], [86.875, 17.375], [86.875, 17.125]]]}, "properties": {"time": "2018-10-10T18:00:00", "variable": "ws", "tier": "low", "percentile": 98.6, "z": 3.55, "wind_ms": 14.15, "value": 14.15, "lat": 17.25, "lon": 87.0}}, {"type": "Feature", "geometry": {"type": "Polygon", "coordinates": [[[87.125, 17.125], [87.375, 17.125], [87.375, 17.375], [87.125, 17.375], [87.125, 17.125]]]}, "properties": {"time": "2018-10-10T18:00:00", "variable": "ws", "tier": "low", "percentile": 98.6, "z": 3.55, "wind_ms": 13.98, "value": 13.98, "lat": 17.25, "lon": 87.25}}, {"type": "Feature", "geometry": {"type": "Polygon", "coordinates": [[[87.375, 17.125], [87.625, 17.125], [87.625, 17.375], [87.375, 17.375], [87.375, 17.125]]]}, "properties": {"time": "2018-10-10T18:00:00", "variable": "ws", "tier": "low", "percentile": 98.6, "z": 3.47, "wind_ms": 13.65, "value": 13.65, "lat": 17.25, "lon": 87.5}}, {"type": "Feature", "geometry": {"type": "Polygon", "coordinates": [[[87.625, 17.125], [87.875, 17.125], [87.875, 17.375], [87.625, 17.375], [87.625, 17.125]]]}, "properties": {"time": "2018-10-10T18:00:00", "variable": "ws", "tier": "low", "percentile": 98.6, "z": 3.4, "wind_ms": 13.3, "value": 13.3, "lat": 17.25, "lon": 87.75}}, {"type": "Feature", "geometry": {"type": "Polygon", "coordinates": [[[83.375, 17.375], [83.625, 17.375], [83.625, 17.625], [83.375, 17.625], [83.375, 17.375]]]}, "properties": {"time": "2018-10-10T18:00:00", "variable": "ws", "tier": "low", "percentile": 97.7, "z": 2.51, "wind_ms": 9.6, "value": 9.6, "lat": 17.5, "lon": 83.5}}, {"type": "Feature", "geometry": {"type": "Polygon", "coordinates": [[[83.625, 17.375], [83.875, 17.375], [83.875, 17.625], [83.625, 17.625], [83.625, 17.375]]]}, "properties": {"time": "2018-10-10T18:00:00", "variable": "ws", "tier": "low", "percentile": 99.5, "z": 3.31, "wind_ms": 12.43, "value": 12.43, "lat": 17.5, "lon": 83.75}}, {"type": "Feature", "geometry": {"type": "Polygon", "coordinates": [[[83.875, 17.375], [84.125, 17.375], [84.125, 17.625], [83.875, 17.625], [83.875, 17.375]]]}, "properties": {"time": "2018-10-10T18:00:00", "variable": "ws", "tier": "low", "percentile": 99.5, "z": 4.04, "wind_ms": 14.96, "value": 14.96, "lat": 17.5, "lon": 84.0}}, {"type": "Feature", "geometry": {"type": "Polygon", "coordinates": [[[84.125, 17.375], [84.375, 17.375], [84.375, 17.625], [84.125, 17.625], [84.125, 17.375]]]}, "properties": {"time": "2018-10-10T18:00:00", "variable": "ws", "tier": "moderate", "percentile": 99.5, "z": 4.71, "wind_ms": 17.73, "value": 17.73, "lat": 17.5, "lon": 84.25}}, {"type": "Feature", "geometry": {"type": "Polygon", "coordinates": [[[84.375, 17.375], [84.625, 17.375], [84.625, 17.625], [84.375, 17.625], [84.375, 17.375]]]}, "properties": {"time": "2018-10-10T18:00:00", "variable": "ws", "tier": "moderate", "percentile": 99.5, "z": 5.03, "wind_ms": 19.3, "value": 19.3, "lat": 17.5, "lon": 84.5}}, {"type": "Feature", "geometry": {"type": "Polygon", "coordinates": [[[84.625, 17.375], [84.875, 17.375], [84.875, 17.625], [84.625, 17.625], [84.625, 17.375]]]}, "properties": {"time": "2018-10-10T18:00:00", "variable": "ws", "tier": "moderate", "percentile": 99.5, "z": 5.26, "wind_ms": 20.42, "value": 20.42, "lat": 17.5, "lon": 84.75}}, {"type": "Feature", "geometry": {"type": "Polygon", "coordinates": [[[84.875, 17.375], [85.125, 17.375], [85.125, 17.625], [84.875, 17.625], [84.875, 17.375]]]}, "properties": {"time": "2018-10-10T18:00:00", "variable": "ws", "tier": "moderate", "percentile": 99.5, "z": 5.32, "wind_ms": 20.61, "value": 20.61, "lat": 17.5, "lon": 85.0}}, {"type": "Feature", "geometry": {"type": "Polygon", "coordinates": [[[85.125, 17.375], [85.375, 17.375], [85.375, 17.625], [85.125, 17.625], [85.125, 17.375]]]}, "properties": {"time": "2018-10-10T18:00:00", "variable": "ws", "tier": "moderate", "percentile": 99.5, "z": 5.37, "wind_ms": 20.59, "value": 20.59, "lat": 17.5, "lon": 85.25}}, {"type": "Feature", "geometry": {"type": "Polygon", "coordinates": [[[85.375, 17.375], [85.625, 17.375], [85.625, 17.625], [85.375, 17.625], [85.375, 17.375]]]}, "properties": {"time": "2018-10-10T18:00:00", "variable": "ws", "tier": "moderate", "percentile": 99.5, "z": 5.32, "wind_ms": 20.28, "value": 20.28, "lat": 17.5, "lon": 85.5}}, {"type": "Feature", "geometry": {"type": "Polygon", "coordinates": [[[85.625, 17.375], [85.875, 17.375], [85.875, 17.625], [85.625, 17.625], [85.625, 17.375]]]}, "properties": {"time": "2018-10-10T18:00:00", "variable": "ws", "tier": "moderate", "percentile": 99.5, "z": 5.08, "wind_ms": 19.27, "value": 19.27, "lat": 17.5, "lon": 85.75}}, {"type": "Feature", "geometry": {"type": "Polygon", "coordinates": [[[85.875, 17.375], [86.125, 17.375], [86.125, 17.625], [85.875, 17.625], [85.875, 17.375]]]}, "properties": {"time": "2018-10-10T18:00:00", "variable": "ws", "tier": "moderate", "percentile": 99.5, "z": 4.76, "wind_ms": 18.04, "value": 18.04, "lat": 17.5, "lon": 86.0}}, {"type": "Feature", "geometry": {"type": "Polygon", "coordinates": [[[86.125, 17.375], [86.375, 17.375], [86.375, 17.625], [86.125, 17.625], [86.125, 17.375]]]}, "properties": {"time": "2018-10-10T18:00:00", "variable": "ws", "tier": "moderate", "percentile": 99.5, "z": 4.48, "wind_ms": 17.13, "value": 17.13, "lat": 17.5, "lon": 86.25}}, {"type": "Feature", "geometry": {"type": "Polygon", "coordinates": [[[86.375, 17.375], [86.625, 17.375], [86.625, 17.625], [86.375, 17.625], [86.375, 17.375]]]}, "properties": {"time": "2018-10-10T18:00:00", "variable": "ws", "tier": "low", "percentile": 99.5, "z": 4.2, "wind_ms": 16.14, "value": 16.14, "lat": 17.5, "lon": 86.5}}, {"type": "Feature", "geometry": {"type": "Polygon", "coordinates": [[[86.625, 17.375], [86.875, 17.375], [86.875, 17.625], [86.625, 17.625], [86.625, 17.375]]]}, "properties": {"time": "2018-10-10T18:00:00", "variable": "ws", "tier": "low", "percentile": 99.5, "z": 3.92, "wind_ms": 15.21, "value": 15.21, "lat": 17.5, "lon": 86.75}}, {"type": "Feature", "geometry": {"type": "Polygon", "coordinates": [[[86.875, 17.375], [87.125, 17.375], [87.125, 17.625], [86.875, 17.625], [86.875, 17.375]]]}, "properties": {"time": "2018-10-10T18:00:00", "variable": "ws", "tier": "low", "percentile": 99.5, "z": 3.6, "wind_ms": 14.24, "value": 14.24, "lat": 17.5, "lon": 87.0}}, {"type": "Feature", "geometry": {"type": "Polygon", "coordinates": [[[87.125, 17.375], [87.375, 17.375], [87.375, 17.625], [87.125, 17.625], [87.125, 17.375]]]}, "properties": {"time": "2018-10-10T18:00:00", "variable": "ws", "tier": "low", "percentile": 99.5, "z": 3.61, "wind_ms": 14.14, "value": 14.14, "lat": 17.5, "lon": 87.25}}, {"type": "Feature", "geometry": {"type": "Polygon", "coordinates": [[[87.375, 17.375], [87.625, 17.375], [87.625, 17.625], [87.375, 17.625], [87.375, 17.375]]]}, "properties": {"time": "2018-10-10T18:00:00", "variable": "ws", "tier": "low", "percentile": 99.5, "z": 3.51, "wind_ms": 13.82, "value": 13.82, "lat": 17.5, "lon": 87.5}}, {"type": "Feature", "geometry": {"type": "Polygon", "coordinates": [[[87.625, 17.375], [87.875, 17.375], [87.875, 17.625], [87.625, 17.625], [87.625, 17.375]]]}, "properties": {"time": "2018-10-10T18:00:00", "variable": "ws", "tier": "low", "percentile": 99.5, "z": 3.4, "wind_ms": 13.42, "value": 13.42, "lat": 17.5, "lon": 87.75}}, {"type": "Feature", "geometry": {"type": "Polygon", "coordinates": [[[83.625, 17.625], [83.875, 17.625], [83.875, 17.875], [83.625, 17.875], [83.625, 17.625]]]}, "properties": {"time": "2018-10-10T18:00:00", "variable": "ws", "tier": "low", "percentile": 99.5, "z": 3.62, "wind_ms": 12.36, "value": 12.36, "lat": 17.75, "lon": 83.75}}, {"type": "Feature", "geometry": {"type": "Polygon", "coordinates": [[[83.875, 17.625], [84.125, 17.625], [84.125, 17.875], [83.875, 17.875], [83.875, 17.625]]]}, "properties": {"time": "2018-10-10T18:00:00", "variable": "ws", "tier": "low", "percentile": 99.5, "z": 4.38, "wind_ms": 15.96, "value": 15.96, "lat": 17.75, "lon": 84.0}}, {"type": "Feature", "geometry": {"type": "Polygon", "coordinates": [[[84.125, 17.625], [84.375, 17.625], [84.375, 17.875], [84.125, 17.875], [84.125, 17.625]]]}, "properties": {"time": "2018-10-10T18:00:00", "variable": "ws", "tier": "moderate", "percentile": 99.5, "z": 4.9, "wind_ms": 18.23, "value": 18.23, "lat": 17.75, "lon": 84.25}}, {"type": "Feature", "geometry": {"type": "Polygon", "coordinates": [[[84.375, 17.625], [84.625, 17.625], [84.625, 17.875], [84.375, 17.875], [84.375, 17.625]]]}, "properties": {"time": "2018-10-10T18:00:00", "variable": "ws", "tier": "moderate", "percentile": 99.5, "z": 4.84, "wind_ms": 18.43, "value": 18.43, "lat": 17.75, "lon": 84.5}}, {"type": "Feature", "geometry": {"type": "Polygon", "coordinates": [[[84.625, 17.625], [84.875, 17.625], [84.875, 17.875], [84.625, 17.875], [84.625, 17.625]]]}, "properties": {"time": "2018-10-10T18:00:00", "variable": "ws", "tier": "moderate", "percentile": 99.5, "z": 4.7, "wind_ms": 18.13, "value": 18.13, "lat": 17.75, "lon": 84.75}}, {"type": "Feature", "geometry": {"type": "Polygon", "coordinates": [[[84.875, 17.625], [85.125, 17.625], [85.125, 17.875], [84.875, 17.875], [84.875, 17.625]]]}, "properties": {"time": "2018-10-10T18:00:00", "variable": "ws", "tier": "moderate", "percentile": 99.5, "z": 4.97, "wind_ms": 19.3, "value": 19.3, "lat": 17.75, "lon": 85.0}}, {"type": "Feature", "geometry": {"type": "Polygon", "coordinates": [[[85.125, 17.625], [85.375, 17.625], [85.375, 17.875], [85.125, 17.875], [85.125, 17.625]]]}, "properties": {"time": "2018-10-10T18:00:00", "variable": "ws", "tier": "moderate", "percentile": 99.5, "z": 5.3, "wind_ms": 20.35, "value": 20.35, "lat": 17.75, "lon": 85.25}}, {"type": "Feature", "geometry": {"type": "Polygon", "coordinates": [[[85.375, 17.625], [85.625, 17.625], [85.625, 17.875], [85.375, 17.875], [85.375, 17.625]]]}, "properties": {"time": "2018-10-10T18:00:00", "variable": "ws", "tier": "moderate", "percentile": 99.5, "z": 5.64, "wind_ms": 21.54, "value": 21.54, "lat": 17.75, "lon": 85.5}}, {"type": "Feature", "geometry": {"type": "Polygon", "coordinates": [[[85.625, 17.625], [85.875, 17.625], [85.875, 17.875], [85.625, 17.875], [85.625, 17.625]]]}, "properties": {"time": "2018-10-10T18:00:00", "variable": "ws", "tier": "moderate", "percentile": 99.5, "z": 5.38, "wind_ms": 20.5, "value": 20.5, "lat": 17.75, "lon": 85.75}}, {"type": "Feature", "geometry": {"type": "Polygon", "coordinates": [[[85.875, 17.625], [86.125, 17.625], [86.125, 17.875], [85.875, 17.875], [85.875, 17.625]]]}, "properties": {"time": "2018-10-10T18:00:00", "variable": "ws", "tier": "moderate", "percentile": 99.5, "z": 5.16, "wind_ms": 19.51, "value": 19.51, "lat": 17.75, "lon": 86.0}}, {"type": "Feature", "geometry": {"type": "Polygon", "coordinates": [[[86.125, 17.625], [86.375, 17.625], [86.375, 17.875], [86.125, 17.875], [86.125, 17.625]]]}, "properties": {"time": "2018-10-10T18:00:00", "variable": "ws", "tier": "moderate", "percentile": 99.5, "z": 4.85, "wind_ms": 18.3, "value": 18.3, "lat": 17.75, "lon": 86.25}}, {"type": "Feature", "geometry": {"type": "Polygon", "coordinates": [[[86.375, 17.625], [86.625, 17.625], [86.625, 17.875], [86.375, 17.875], [86.375, 17.625]]]}, "properties": {"time": "2018-10-10T18:00:00", "variable": "ws", "tier": "moderate", "percentile": 99.5, "z": 4.56, "wind_ms": 17.19, "value": 17.19, "lat": 17.75, "lon": 86.5}}, {"type": "Feature", "geometry": {"type": "Polygon", "coordinates": [[[86.625, 17.625], [86.875, 17.625], [86.875, 17.875], [86.625, 17.875], [86.625, 17.625]]]}, "properties": {"time": "2018-10-10T18:00:00", "variable": "ws", "tier": "low", "percentile": 99.5, "z": 4.11, "wind_ms": 15.63, "value": 15.63, "lat": 17.75, "lon": 86.75}}, {"type": "Feature", "geometry": {"type": "Polygon", "coordinates": [[[86.875, 17.625], [87.125, 17.625], [87.125, 17.875], [86.875, 17.875], [86.875, 17.625]]]}, "properties": {"time": "2018-10-10T18:00:00", "variable": "ws", "tier": "low", "percentile": 99.5, "z": 3.85, "wind_ms": 14.78, "value": 14.78, "lat": 17.75, "lon": 87.0}}, {"type": "Feature", "geometry": {"type": "Polygon", "coordinates": [[[87.125, 17.625], [87.375, 17.625], [87.375, 17.875], [87.125, 17.875], [87.125, 17.625]]]}, "properties": {"time": "2018-10-10T18:00:00", "variable": "ws", "tier": "low", "percentile": 99.5, "z": 3.65, "wind_ms": 14.21, "value": 14.21, "lat": 17.75, "lon": 87.25}}, {"type": "Feature", "geometry": {"type": "Polygon", "coordinates": [[[87.375, 17.625], [87.625, 17.625], [87.625, 17.875], [87.375, 17.875], [87.375, 17.625]]]}, "properties": {"time": "2018-10-10T18:00:00", "variable": "ws", "tier": "low", "percentile": 99.5, "z": 3.58, "wind_ms": 13.98, "value": 13.98, "lat": 17.75, "lon": 87.5}}, {"type": "Feature", "geometry": {"type": "Polygon", "coordinates": [[[87.625, 17.625], [87.875, 17.625], [87.875, 17.875], [87.625, 17.875], [87.625, 17.625]]]}, "properties": {"time": "2018-10-10T18:00:00", "variable": "ws", "tier": "low", "percentile": 99.5, "z": 3.49, "wind_ms": 13.76, "value": 13.76, "lat": 17.75, "lon": 87.75}}, {"type": "Feature", "geometry": {"type": "Polygon", "coordinates": [[[83.625, 17.875], [83.875, 17.875], [83.875, 18.125], [83.625, 18.125], [83.625, 17.875]]]}, "properties": {"time": "2018-10-10T18:00:00", "variable": "ws", "tier": "low", "percentile": 99.5, "z": 4.63, "wind_ms": 12.48, "value": 12.48, "lat": 18.0, "lon": 83.75}}, {"type": "Feature", "geometry": {"type": "Polygon", "coordinates": [[[83.875, 17.875], [84.125, 17.875], [84.125, 18.125], [83.875, 18.125], [83.875, 17.875]]]}, "properties": {"time": "2018-10-10T18:00:00", "variable": "ws", "tier": "low", "percentile": 99.5, "z": 5.05, "wind_ms": 15.96, "value": 15.96, "lat": 18.0, "lon": 84.0}}, {"type": "Feature", "geometry": {"type": "Polygon", "coordinates": [[[84.125, 17.875], [84.375, 17.875], [84.375, 18.125], [84.125, 18.125], [84.125, 17.875]]]}, "properties": {"time": "2018-10-10T18:00:00", "variable": "ws", "tier": "moderate", "percentile": 99.5, "z": 4.78, "wind_ms": 17.43, "value": 17.43, "lat": 18.0, "lon": 84.25}}, {"type": "Feature", "geometry": {"type": "Polygon", "coordinates": [[[84.375, 17.875], [84.625, 17.875], [84.625, 18.125], [84.375, 18.125], [84.375, 17.875]]]}, "properties": {"time": "2018-10-10T18:00:00", "variable": "ws", "tier": "low", "percentile": 99.5, "z": 4.52, "wind_ms": 16.86, "value": 16.86, "lat": 18.0, "lon": 84.5}}, {"type": "Feature", "geometry": {"type": "Polygon", "coordinates": [[[84.875, 17.875], [85.125, 17.875], [85.125, 18.125], [84.875, 18.125], [84.875, 17.875]]]}, "properties": {"time": "2018-10-10T18:00:00", "variable": "ws", "tier": "low", "percentile": 97.7, "z": 2.97, "wind_ms": 12.23, "value": 12.23, "lat": 18.0, "lon": 85.0}}, {"type": "Feature", "geometry": {"type": "Polygon", "coordinates": [[[85.125, 17.875], [85.375, 17.875], [85.375, 18.125], [85.125, 18.125], [85.125, 17.875]]]}, "properties": {"time": "2018-10-10T18:00:00", "variable": "ws", "tier": "moderate", "percentile": 99.5, "z": 4.72, "wind_ms": 18.21, "value": 18.21, "lat": 18.0, "lon": 85.25}}, {"type": "Feature", "geometry": {"type": "Polygon", "coordinates": [[[85.375, 17.875], [85.625, 17.875], [85.625, 18.125], [85.375, 18.125], [85.375, 17.875]]]}, "properties": {"time": "2018-10-10T18:00:00", "variable": "ws", "tier": "moderate", "percentile": 99.5, "z": 5.56, "wind_ms": 21.24, "value": 21.24, "lat": 18.0, "lon": 85.5}}, {"type": "Feature", "geometry": {"type": "Polygon", "coordinates": [[[85.625, 17.875], [85.875, 17.875], [85.875, 18.125], [85.625, 18.125], [85.625, 17.875]]]}, "properties": {"time": "2018-10-10T18:00:00", "variable": "ws", "tier": "moderate", "percentile": 99.5, "z": 5.48, "wind_ms": 20.91, "value": 20.91, "lat": 18.0, "lon": 85.75}}, {"type": "Feature", "geometry": {"type": "Polygon", "coordinates": [[[85.875, 17.875], [86.125, 17.875], [86.125, 18.125], [85.875, 18.125], [85.875, 17.875]]]}, "properties": {"time": "2018-10-10T18:00:00", "variable": "ws", "tier": "moderate", "percentile": 99.5, "z": 5.43, "wind_ms": 20.52, "value": 20.52, "lat": 18.0, "lon": 86.0}}, {"type": "Feature", "geometry": {"type": "Polygon", "coordinates": [[[86.125, 17.875], [86.375, 17.875], [86.375, 18.125], [86.125, 18.125], [86.125, 17.875]]]}, "properties": {"time": "2018-10-10T18:00:00", "variable": "ws", "tier": "moderate", "percentile": 99.5, "z": 5.17, "wind_ms": 19.34, "value": 19.34, "lat": 18.0, "lon": 86.25}}, {"type": "Feature", "geometry": {"type": "Polygon", "coordinates": [[[86.375, 17.875], [86.625, 17.875], [86.625, 18.125], [86.375, 18.125], [86.375, 17.875]]]}, "properties": {"time": "2018-10-10T18:00:00", "variable": "ws", "tier": "moderate", "percentile": 99.5, "z": 4.75, "wind_ms": 17.66, "value": 17.66, "lat": 18.0, "lon": 86.5}}, {"type": "Feature", "geometry": {"type": "Polygon", "coordinates": [[[86.625, 17.875], [86.875, 17.875], [86.875, 18.125], [86.625, 18.125], [86.625, 17.875]]]}, "properties": {"time": "2018-10-10T18:00:00", "variable": "ws", "tier": "low", "percentile": 99.5, "z": 4.4, "wind_ms": 16.41, "value": 16.41, "lat": 18.0, "lon": 86.75}}, {"type": "Feature", "geometry": {"type": "Polygon", "coordinates": [[[86.875, 17.875], [87.125, 17.875], [87.125, 18.125], [86.875, 18.125], [86.875, 17.875]]]}, "properties": {"time": "2018-10-10T18:00:00", "variable": "ws", "tier": "low", "percentile": 99.5, "z": 4.0, "wind_ms": 15.13, "value": 15.13, "lat": 18.0, "lon": 87.0}}, {"type": "Feature", "geometry": {"type": "Polygon", "coordinates": [[[87.125, 17.875], [87.375, 17.875], [87.375, 18.125], [87.125, 18.125], [87.125, 17.875]]]}, "properties": {"time": "2018-10-10T18:00:00", "variable": "ws", "tier": "low", "percentile": 99.5, "z": 3.74, "wind_ms": 14.33, "value": 14.33, "lat": 18.0, "lon": 87.25}}, {"type": "Feature", "geometry": {"type": "Polygon", "coordinates": [[[87.375, 17.875], [87.625, 17.875], [87.625, 18.125], [87.375, 18.125], [87.375, 17.875]]]}, "properties": {"time": "2018-10-10T18:00:00", "variable": "ws", "tier": "low", "percentile": 99.5, "z": 3.63, "wind_ms": 14.12, "value": 14.12, "lat": 18.0, "lon": 87.5}}, {"type": "Feature", "geometry": {"type": "Polygon", "coordinates": [[[87.625, 17.875], [87.875, 17.875], [87.875, 18.125], [87.625, 18.125], [87.625, 17.875]]]}, "properties": {"time": "2018-10-10T18:00:00", "variable": "ws", "tier": "low", "percentile": 99.5, "z": 3.61, "wind_ms": 14.12, "value": 14.12, "lat": 18.0, "lon": 87.75}}, {"type": "Feature", "geometry": {"type": "Polygon", "coordinates": [[[83.625, 18.125], [83.875, 18.125], [83.875, 18.375], [83.625, 18.375], [83.625, 18.125]]]}, "properties": {"time": "2018-10-10T18:00:00", "variable": "ws", "tier": "low", "percentile": 99.5, "z": 6.69, "wind_ms": 11.48, "value": 11.48, "lat": 18.25, "lon": 83.75}}, {"type": "Feature", "geometry": {"type": "Polygon", "coordinates": [[[83.875, 18.125], [84.125, 18.125], [84.125, 18.375], [83.875, 18.375], [83.875, 18.125]]]}, "properties": {"time": "2018-10-10T18:00:00", "variable": "ws", "tier": "low", "percentile": 99.5, "z": 6.06, "wind_ms": 13.46, "value": 13.46, "lat": 18.25, "lon": 84.0}}, {"type": "Feature", "geometry": {"type": "Polygon", "coordinates": [[[84.125, 18.125], [84.375, 18.125], [84.375, 18.375], [84.125, 18.375], [84.125, 18.125]]]}, "properties": {"time": "2018-10-10T18:00:00", "variable": "ws", "tier": "low", "percentile": 99.5, "z": 5.87, "wind_ms": 16.24, "value": 16.24, "lat": 18.25, "lon": 84.25}}, {"type": "Feature", "geometry": {"type": "Polygon", "coordinates": [[[84.375, 18.125], [84.625, 18.125], [84.625, 18.375], [84.375, 18.375], [84.375, 18.125]]]}, "properties": {"time": "2018-10-10T18:00:00", "variable": "ws", "tier": "low", "percentile": 98.6, "z": 4.03, "wind_ms": 15.08, "value": 15.08, "lat": 18.25, "lon": 84.5}}, {"type": "Feature", "geometry": {"type": "Polygon", "coordinates": [[[84.875, 18.125], [85.125, 18.125], [85.125, 18.375], [84.875, 18.375], [84.875, 18.125]]]}, "properties": {"time": "2018-10-10T18:00:00", "variable": "ws", "tier": "low", "percentile": 97.7, "z": 2.48, "wind_ms": 10.64, "value": 10.64, "lat": 18.25, "lon": 85.0}}, {"type": "Feature", "geometry": {"type": "Polygon", "coordinates": [[[85.125, 18.125], [85.375, 18.125], [85.375, 18.375], [85.125, 18.375], [85.125, 18.125]]]}, "properties": {"time": "2018-10-10T18:00:00", "variable": "ws", "tier": "low", "percentile": 99.5, "z": 4.27, "wind_ms": 16.45, "value": 16.45, "lat": 18.25, "lon": 85.25}}, {"type": "Feature", "geometry": {"type": "Polygon", "coordinates": [[[85.375, 18.125], [85.625, 18.125], [85.625, 18.375], [85.375, 18.375], [85.375, 18.125]]]}, "properties": {"time": "2018-10-10T18:00:00", "variable": "ws", "tier": "moderate", "percentile": 99.5, "z": 5.19, "wind_ms": 19.7, "value": 19.7, "lat": 18.25, "lon": 85.5}}, {"type": "Feature", "geometry": {"type": "Polygon", "coordinates": [[[85.625, 18.125], [85.875, 18.125], [85.875, 18.375], [85.625, 18.375], [85.625, 18.125]]]}, "properties": {"time": "2018-10-10T18:00:00", "variable": "ws", "tier": "moderate", "percentile": 99.5, "z": 5.43, "wind_ms": 20.51, "value": 20.51, "lat": 18.25, "lon": 85.75}}, {"type": "Feature", "geometry": {"type": "Polygon", "coordinates": [[[85.875, 18.125], [86.125, 18.125], [86.125, 18.375], [85.875, 18.375], [85.875, 18.125]]]}, "properties": {"time": "2018-10-10T18:00:00", "variable": "ws", "tier": "moderate", "percentile": 99.5, "z": 5.38, "wind_ms": 20.18, "value": 20.18, "lat": 18.25, "lon": 86.0}}, {"type": "Feature", "geometry": {"type": "Polygon", "coordinates": [[[86.125, 18.125], [86.375, 18.125], [86.375, 18.375], [86.125, 18.375], [86.125, 18.125]]]}, "properties": {"time": "2018-10-10T18:00:00", "variable": "ws", "tier": "moderate", "percentile": 99.5, "z": 5.15, "wind_ms": 19.09, "value": 19.09, "lat": 18.25, "lon": 86.25}}, {"type": "Feature", "geometry": {"type": "Polygon", "coordinates": [[[86.375, 18.125], [86.625, 18.125], [86.625, 18.375], [86.375, 18.375], [86.375, 18.125]]]}, "properties": {"time": "2018-10-10T18:00:00", "variable": "ws", "tier": "moderate", "percentile": 99.5, "z": 4.89, "wind_ms": 17.96, "value": 17.96, "lat": 18.25, "lon": 86.5}}, {"type": "Feature", "geometry": {"type": "Polygon", "coordinates": [[[86.625, 18.125], [86.875, 18.125], [86.875, 18.375], [86.625, 18.375], [86.625, 18.125]]]}, "properties": {"time": "2018-10-10T18:00:00", "variable": "ws", "tier": "moderate", "percentile": 99.5, "z": 4.68, "wind_ms": 17.21, "value": 17.21, "lat": 18.25, "lon": 86.75}}, {"type": "Feature", "geometry": {"type": "Polygon", "coordinates": [[[86.875, 18.125], [87.125, 18.125], [87.125, 18.375], [86.875, 18.375], [86.875, 18.125]]]}, "properties": {"time": "2018-10-10T18:00:00", "variable": "ws", "tier": "low", "percentile": 99.5, "z": 4.32, "wind_ms": 15.97, "value": 15.97, "lat": 18.25, "lon": 87.0}}, {"type": "Feature", "geometry": {"type": "Polygon", "coordinates": [[[87.125, 18.125], [87.375, 18.125], [87.375, 18.375], [87.125, 18.375], [87.125, 18.125]]]}, "properties": {"time": "2018-10-10T18:00:00", "variable": "ws", "tier": "low", "percentile": 99.5, "z": 3.75, "wind_ms": 14.33, "value": 14.33, "lat": 18.25, "lon": 87.25}}, {"type": "Feature", "geometry": {"type": "Polygon", "coordinates": [[[87.375, 18.125], [87.625, 18.125], [87.625, 18.375], [87.375, 18.375], [87.375, 18.125]]]}, "properties": {"time": "2018-10-10T18:00:00", "variable": "ws", "tier": "low", "percentile": 98.6, "z": 3.61, "wind_ms": 14.05, "value": 14.05, "lat": 18.25, "lon": 87.5}}, {"type": "Feature", "geometry": {"type": "Polygon", "coordinates": [[[87.625, 18.125], [87.875, 18.125], [87.875, 18.375], [87.625, 18.375], [87.625, 18.125]]]}, "properties": {"time": "2018-10-10T18:00:00", "variable": "ws", "tier": "low", "percentile": 98.6, "z": 3.62, "wind_ms": 14.12, "value": 14.12, "lat": 18.25, "lon": 87.75}}, {"type": "Feature", "geometry": {"type": "Polygon", "coordinates": [[[83.625, 18.375], [83.875, 18.375], [83.875, 18.625], [83.625, 18.625], [83.625, 18.375]]]}, "properties": {"time": "2018-10-10T18:00:00", "variable": "ws", "tier": "low", "percentile": 99.5, "z": 7.78, "wind_ms": 8.82, "value": 8.82, "lat": 18.5, "lon": 83.75}}, {"type": "Feature", "geometry": {"type": "Polygon", "coordinates": [[[83.875, 18.375], [84.125, 18.375], [84.125, 18.625], [83.875, 18.625], [83.875, 18.375]]]}, "properties": {"time": "2018-10-10T18:00:00", "variable": "ws", "tier": "low", "percentile": 99.5, "z": 7.86, "wind_ms": 10.62, "value": 10.62, "lat": 18.5, "lon": 84.0}}, {"type": "Feature", "geometry": {"type": "Polygon", "coordinates": [[[84.125, 18.375], [84.375, 18.375], [84.375, 18.625], [84.125, 18.625], [84.125, 18.375]]]}, "properties": {"time": "2018-10-10T18:00:00", "variable": "ws", "tier": "low", "percentile": 99.5, "z": 7.08, "wind_ms": 13.45, "value": 13.45, "lat": 18.5, "lon": 84.25}}, {"type": "Feature", "geometry": {"type": "Polygon", "coordinates": [[[84.375, 18.375], [84.625, 18.375], [84.625, 18.625], [84.375, 18.625], [84.375, 18.375]]]}, "properties": {"time": "2018-10-10T18:00:00", "variable": "ws", "tier": "low", "percentile": 99.5, "z": 5.33, "wind_ms": 14.92, "value": 14.92, "lat": 18.5, "lon": 84.5}}, {"type": "Feature", "geometry": {"type": "Polygon", "coordinates": [[[84.625, 18.375], [84.875, 18.375], [84.875, 18.625], [84.625, 18.625], [84.625, 18.375]]]}, "properties": {"time": "2018-10-10T18:00:00", "variable": "ws", "tier": "low", "percentile": 98.6, "z": 3.83, "wind_ms": 14.57, "value": 14.57, "lat": 18.5, "lon": 84.75}}, {"type": "Feature", "geometry": {"type": "Polygon", "coordinates": [[[84.875, 18.375], [85.125, 18.375], [85.125, 18.625], [84.875, 18.625], [84.875, 18.375]]]}, "properties": {"time": "2018-10-10T18:00:00", "variable": "ws", "tier": "low", "percentile": 98.6, "z": 3.47, "wind_ms": 13.47, "value": 13.47, "lat": 18.5, "lon": 85.0}}, {"type": "Feature", "geometry": {"type": "Polygon", "coordinates": [[[85.125, 18.375], [85.375, 18.375], [85.375, 18.625], [85.125, 18.625], [85.125, 18.375]]]}, "properties": {"time": "2018-10-10T18:00:00", "variable": "ws", "tier": "low", "percentile": 99.5, "z": 4.28, "wind_ms": 16.21, "value": 16.21, "lat": 18.5, "lon": 85.25}}, {"type": "Feature", "geometry": {"type": "Polygon", "coordinates": [[[85.375, 18.375], [85.625, 18.375], [85.625, 18.625], [85.375, 18.625], [85.375, 18.375]]]}, "properties": {"time": "2018-10-10T18:00:00", "variable": "ws", "tier": "moderate", "percentile": 99.5, "z": 4.68, "wind_ms": 17.7, "value": 17.7, "lat": 18.5, "lon": 85.5}}, {"type": "Feature", "geometry": {"type": "Polygon", "coordinates": [[[85.625, 18.375], [85.875, 18.375], [85.875, 18.625], [85.625, 18.625], [85.625, 18.375]]]}, "properties": {"time": "2018-10-10T18:00:00", "variable": "ws", "tier": "moderate", "percentile": 99.5, "z": 4.94, "wind_ms": 18.39, "value": 18.39, "lat": 18.5, "lon": 85.75}}, {"type": "Feature", "geometry": {"type": "Polygon", "coordinates": [[[85.875, 18.375], [86.125, 18.375], [86.125, 18.625], [85.875, 18.625], [85.875, 18.375]]]}, "properties": {"time": "2018-10-10T18:00:00", "variable": "ws", "tier": "moderate", "percentile": 99.5, "z": 5.0, "wind_ms": 18.47, "value": 18.47, "lat": 18.5, "lon": 86.0}}, {"type": "Feature", "geometry": {"type": "Polygon", "coordinates": [[[86.125, 18.375], [86.375, 18.375], [86.375, 18.625], [86.125, 18.625], [86.125, 18.375]]]}, "properties": {"time": "2018-10-10T18:00:00", "variable": "ws", "tier": "moderate", "percentile": 99.5, "z": 4.91, "wind_ms": 17.98, "value": 17.98, "lat": 18.5, "lon": 86.25}}, {"type": "Feature", "geometry": {"type": "Polygon", "coordinates": [[[86.375, 18.375], [86.625, 18.375], [86.625, 18.625], [86.375, 18.625], [86.375, 18.375]]]}, "properties": {"time": "2018-10-10T18:00:00", "variable": "ws", "tier": "moderate", "percentile": 99.5, "z": 4.96, "wind_ms": 18.01, "value": 18.01, "lat": 18.5, "lon": 86.5}}, {"type": "Feature", "geometry": {"type": "Polygon", "coordinates": [[[86.625, 18.375], [86.875, 18.375], [86.875, 18.625], [86.625, 18.625], [86.625, 18.375]]]}, "properties": {"time": "2018-10-10T18:00:00", "variable": "ws", "tier": "moderate", "percentile": 99.5, "z": 4.81, "wind_ms": 17.42, "value": 17.42, "lat": 18.5, "lon": 86.75}}, {"type": "Feature", "geometry": {"type": "Polygon", "coordinates": [[[86.875, 18.375], [87.125, 18.375], [87.125, 18.625], [86.875, 18.625], [86.875, 18.375]]]}, "properties": {"time": "2018-10-10T18:00:00", "variable": "ws", "tier": "low", "percentile": 99.5, "z": 4.33, "wind_ms": 16.03, "value": 16.03, "lat": 18.5, "lon": 87.0}}, {"type": "Feature", "geometry": {"type": "Polygon", "coordinates": [[[87.125, 18.375], [87.375, 18.375], [87.375, 18.625], [87.125, 18.625], [87.125, 18.375]]]}, "properties": {"time": "2018-10-10T18:00:00", "variable": "ws", "tier": "low", "percentile": 99.5, "z": 3.77, "wind_ms": 14.36, "value": 14.36, "lat": 18.5, "lon": 87.25}}, {"type": "Feature", "geometry": {"type": "Polygon", "coordinates": [[[87.375, 18.375], [87.625, 18.375], [87.625, 18.625], [87.375, 18.625], [87.375, 18.375]]]}, "properties": {"time": "2018-10-10T18:00:00", "variable": "ws", "tier": "low", "percentile": 98.6, "z": 3.52, "wind_ms": 13.75, "value": 13.75, "lat": 18.5, "lon": 87.5}}, {"type": "Feature", "geometry": {"type": "Polygon", "coordinates": [[[87.625, 18.375], [87.875, 18.375], [87.875, 18.625], [87.625, 18.625], [87.625, 18.375]]]}, "properties": {"time": "2018-10-10T18:00:00", "variable": "ws", "tier": "low", "percentile": 98.6, "z": 3.47, "wind_ms": 13.7, "value": 13.7, "lat": 18.5, "lon": 87.75}}, {"type": "Feature", "geometry": {"type": "Polygon", "coordinates": [[[84.125, 18.625], [84.375, 18.625], [84.375, 18.875], [84.125, 18.875], [84.125, 18.625]]]}, "properties": {"time": "2018-10-10T18:00:00", "variable": "ws", "tier": "low", "percentile": 99.5, "z": 7.82, "wind_ms": 10.9, "value": 10.9, "lat": 18.75, "lon": 84.25}}, {"type": "Feature", "geometry": {"type": "Polygon", "coordinates": [[[84.375, 18.625], [84.625, 18.625], [84.625, 18.875], [84.375, 18.875], [84.375, 18.625]]]}, "properties": {"time": "2018-10-10T18:00:00", "variable": "ws", "tier": "low", "percentile": 99.5, "z": 7.21, "wind_ms": 14.59, "value": 14.59, "lat": 18.75, "lon": 84.5}}, {"type": "Feature", "geometry": {"type": "Polygon", "coordinates": [[[84.625, 18.625], [84.875, 18.625], [84.875, 18.875], [84.625, 18.875], [84.625, 18.625]]]}, "properties": {"time": "2018-10-10T18:00:00", "variable": "ws", "tier": "low", "percentile": 99.5, "z": 5.18, "wind_ms": 15.38, "value": 15.38, "lat": 18.75, "lon": 84.75}}, {"type": "Feature", "geometry": {"type": "Polygon", "coordinates": [[[84.875, 18.625], [85.125, 18.625], [85.125, 18.875], [84.875, 18.875], [84.875, 18.625]]]}, "properties": {"time": "2018-10-10T18:00:00", "variable": "ws", "tier": "low", "percentile": 99.5, "z": 4.41, "wind_ms": 16.48, "value": 16.48, "lat": 18.75, "lon": 85.0}}, {"type": "Feature", "geometry": {"type": "Polygon", "coordinates": [[[85.125, 18.625], [85.375, 18.625], [85.375, 18.875], [85.125, 18.875], [85.125, 18.625]]]}, "properties": {"time": "2018-10-10T18:00:00", "variable": "ws", "tier": "low", "percentile": 99.5, "z": 4.47, "wind_ms": 16.6, "value": 16.6, "lat": 18.75, "lon": 85.25}}, {"type": "Feature", "geometry": {"type": "Polygon", "coordinates": [[[85.375, 18.625], [85.625, 18.625], [85.625, 18.875], [85.375, 18.875], [85.375, 18.625]]]}, "properties": {"time": "2018-10-10T18:00:00", "variable": "ws", "tier": "low", "percentile": 99.5, "z": 4.45, "wind_ms": 16.65, "value": 16.65, "lat": 18.75, "lon": 85.5}}, {"type": "Feature", "geometry": {"type": "Polygon", "coordinates": [[[85.625, 18.625], [85.875, 18.625], [85.875, 18.875], [85.625, 18.875], [85.625, 18.625]]]}, "properties": {"time": "2018-10-10T18:00:00", "variable": "ws", "tier": "low", "percentile": 99.5, "z": 4.45, "wind_ms": 16.65, "value": 16.65, "lat": 18.75, "lon": 85.75}}, {"type": "Feature", "geometry": {"type": "Polygon", "coordinates": [[[85.875, 18.625], [86.125, 18.625], [86.125, 18.875], [85.875, 18.875], [85.875, 18.625]]]}, "properties": {"time": "2018-10-10T18:00:00", "variable": "ws", "tier": "moderate", "percentile": 99.5, "z": 4.64, "wind_ms": 17.0, "value": 17.0, "lat": 18.75, "lon": 86.0}}, {"type": "Feature", "geometry": {"type": "Polygon", "coordinates": [[[86.125, 18.625], [86.375, 18.625], [86.375, 18.875], [86.125, 18.875], [86.125, 18.625]]]}, "properties": {"time": "2018-10-10T18:00:00", "variable": "ws", "tier": "moderate", "percentile": 99.5, "z": 4.84, "wind_ms": 17.63, "value": 17.63, "lat": 18.75, "lon": 86.25}}, {"type": "Feature", "geometry": {"type": "Polygon", "coordinates": [[[86.375, 18.625], [86.625, 18.625], [86.625, 18.875], [86.375, 18.875], [86.375, 18.625]]]}, "properties": {"time": "2018-10-10T18:00:00", "variable": "ws", "tier": "moderate", "percentile": 99.5, "z": 4.95, "wind_ms": 17.84, "value": 17.84, "lat": 18.75, "lon": 86.5}}, {"type": "Feature", "geometry": {"type": "Polygon", "coordinates": [[[86.625, 18.625], [86.875, 18.625], [86.875, 18.875], [86.625, 18.875], [86.625, 18.625]]]}, "properties": {"time": "2018-10-10T18:00:00", "variable": "ws", "tier": "low", "percentile": 99.5, "z": 4.68, "wind_ms": 16.82, "value": 16.82, "lat": 18.75, "lon": 86.75}}, {"type": "Feature", "geometry": {"type": "Polygon", "coordinates": [[[86.875, 18.625], [87.125, 18.625], [87.125, 18.875], [86.875, 18.875], [86.875, 18.625]]]}, "properties": {"time": "2018-10-10T18:00:00", "variable": "ws", "tier": "low", "percentile": 99.5, "z": 4.18, "wind_ms": 15.37, "value": 15.37, "lat": 18.75, "lon": 87.0}}, {"type": "Feature", "geometry": {"type": "Polygon", "coordinates": [[[87.125, 18.625], [87.375, 18.625], [87.375, 18.875], [87.125, 18.875], [87.125, 18.625]]]}, "properties": {"time": "2018-10-10T18:00:00", "variable": "ws", "tier": "low", "percentile": 99.5, "z": 3.72, "wind_ms": 14.17, "value": 14.17, "lat": 18.75, "lon": 87.25}}, {"type": "Feature", "geometry": {"type": "Polygon", "coordinates": [[[87.375, 18.625], [87.625, 18.625], [87.625, 18.875], [87.375, 18.875], [87.375, 18.625]]]}, "properties": {"time": "2018-10-10T18:00:00", "variable": "ws", "tier": "low", "percentile": 98.6, "z": 3.41, "wind_ms": 13.36, "value": 13.36, "lat": 18.75, "lon": 87.5}}, {"type": "Feature", "geometry": {"type": "Polygon", "coordinates": [[[87.625, 18.625], [87.875, 18.625], [87.875, 18.875], [87.625, 18.875], [87.625, 18.625]]]}, "properties": {"time": "2018-10-10T18:00:00", "variable": "ws", "tier": "low", "percentile": 98.6, "z": 3.29, "wind_ms": 13.07, "value": 13.07, "lat": 18.75, "lon": 87.75}}, {"type": "Feature", "geometry": {"type": "Polygon", "coordinates": [[[84.375, 18.875], [84.625, 18.875], [84.625, 19.125], [84.375, 19.125], [84.375, 18.875]]]}, "properties": {"time": "2018-10-10T18:00:00", "variable": "ws", "tier": "low", "percentile": 99.5, "z": 7.87, "wind_ms": 11.45, "value": 11.45, "lat": 19.0, "lon": 84.5}}, {"type": "Feature", "geometry": {"type": "Polygon", "coordinates": [[[84.625, 18.875], [84.875, 18.875], [84.875, 19.125], [84.625, 19.125], [84.625, 18.875]]]}, "properties": {"time": "2018-10-10T18:00:00", "variable": "ws", "tier": "low", "percentile": 99.5, "z": 7.05, "wind_ms": 15.99, "value": 15.99, "lat": 19.0, "lon": 84.75}}, {"type": "Feature", "geometry": {"type": "Polygon", "coordinates": [[[84.875, 18.875], [85.125, 18.875], [85.125, 19.125], [84.875, 19.125], [84.875, 18.875]]]}, "properties": {"time": "2018-10-10T18:00:00", "variable": "ws", "tier": "moderate", "percentile": 99.5, "z": 5.62, "wind_ms": 18.67, "value": 18.67, "lat": 19.0, "lon": 85.0}}, {"type": "Feature", "geometry": {"type": "Polygon", "coordinates": [[[85.125, 18.875], [85.375, 18.875], [85.375, 19.125], [85.125, 19.125], [85.125, 18.875]]]}, "properties": {"time": "2018-10-10T18:00:00", "variable": "ws", "tier": "moderate", "percentile": 99.5, "z": 5.13, "wind_ms": 18.73, "value": 18.73, "lat": 19.0, "lon": 85.25}}, {"type": "Feature", "geometry": {"type": "Polygon", "coordinates": [[[85.375, 18.875], [85.625, 18.875], [85.625, 19.125], [85.375, 19.125], [85.375, 18.875]]]}, "properties": {"time": "2018-10-10T18:00:00", "variable": "ws", "tier": "moderate", "percentile": 99.5, "z": 4.98, "wind_ms": 17.91, "value": 17.91, "lat": 19.0, "lon": 85.5}}, {"type": "Feature", "geometry": {"type": "Polygon", "coordinates": [[[85.625, 18.875], [85.875, 18.875], [85.875, 19.125], [85.625, 19.125], [85.625, 18.875]]]}, "properties": {"time": "2018-10-10T18:00:00", "variable": "ws", "tier": "moderate", "percentile": 99.5, "z": 4.81, "wind_ms": 17.83, "value": 17.83, "lat": 19.0, "lon": 85.75}}, {"type": "Feature", "geometry": {"type": "Polygon", "coordinates": [[[85.875, 18.875], [86.125, 18.875], [86.125, 19.125], [85.875, 19.125], [85.875, 18.875]]]}, "properties": {"time": "2018-10-10T18:00:00", "variable": "ws", "tier": "moderate", "percentile": 99.5, "z": 4.97, "wind_ms": 18.16, "value": 18.16, "lat": 19.0, "lon": 86.0}}, {"type": "Feature", "geometry": {"type": "Polygon", "coordinates": [[[86.125, 18.875], [86.375, 18.875], [86.375, 19.125], [86.125, 19.125], [86.125, 18.875]]]}, "properties": {"time": "2018-10-10T18:00:00", "variable": "ws", "tier": "moderate", "percentile": 99.5, "z": 4.99, "wind_ms": 18.13, "value": 18.13, "lat": 19.0, "lon": 86.25}}, {"type": "Feature", "geometry": {"type": "Polygon", "coordinates": [[[86.375, 18.875], [86.625, 18.875], [86.625, 19.125], [86.375, 19.125], [86.375, 18.875]]]}, "properties": {"time": "2018-10-10T18:00:00", "variable": "ws", "tier": "moderate", "percentile": 99.5, "z": 4.74, "wind_ms": 17.09, "value": 17.09, "lat": 19.0, "lon": 86.5}}, {"type": "Feature", "geometry": {"type": "Polygon", "coordinates": [[[86.625, 18.875], [86.875, 18.875], [86.875, 19.125], [86.625, 19.125], [86.625, 18.875]]]}, "properties": {"time": "2018-10-10T18:00:00", "variable": "ws", "tier": "low", "percentile": 99.5, "z": 4.35, "wind_ms": 15.66, "value": 15.66, "lat": 19.0, "lon": 86.75}}, {"type": "Feature", "geometry": {"type": "Polygon", "coordinates": [[[86.875, 18.875], [87.125, 18.875], [87.125, 19.125], [86.875, 19.125], [86.875, 18.875]]]}, "properties": {"time": "2018-10-10T18:00:00", "variable": "ws", "tier": "low", "percentile": 99.5, "z": 3.97, "wind_ms": 14.57, "value": 14.57, "lat": 19.0, "lon": 87.0}}, {"type": "Feature", "geometry": {"type": "Polygon", "coordinates": [[[87.125, 18.875], [87.375, 18.875], [87.375, 19.125], [87.125, 19.125], [87.125, 18.875]]]}, "properties": {"time": "2018-10-10T18:00:00", "variable": "ws", "tier": "low", "percentile": 99.5, "z": 3.61, "wind_ms": 13.78, "value": 13.78, "lat": 19.0, "lon": 87.25}}, {"type": "Feature", "geometry": {"type": "Polygon", "coordinates": [[[87.375, 18.875], [87.625, 18.875], [87.625, 19.125], [87.375, 19.125], [87.375, 18.875]]]}, "properties": {"time": "2018-10-10T18:00:00", "variable": "ws", "tier": "low", "percentile": 98.6, "z": 3.33, "wind_ms": 13.08, "value": 13.08, "lat": 19.0, "lon": 87.5}}, {"type": "Feature", "geometry": {"type": "Polygon", "coordinates": [[[87.625, 18.875], [87.875, 18.875], [87.875, 19.125], [87.625, 19.125], [87.625, 18.875]]]}, "properties": {"time": "2018-10-10T18:00:00", "variable": "ws", "tier": "low", "percentile": 98.6, "z": 3.17, "wind_ms": 12.56, "value": 12.56, "lat": 19.0, "lon": 87.75}}, {"type": "Feature", "geometry": {"type": "Polygon", "coordinates": [[[84.375, 19.125], [84.625, 19.125], [84.625, 19.375], [84.375, 19.375], [84.375, 19.125]]]}, "properties": {"time": "2018-10-10T18:00:00", "variable": "ws", "tier": "low", "percentile": 99.5, "z": 7.48, "wind_ms": 8.86, "value": 8.86, "lat": 19.25, "lon": 84.5}}, {"type": "Feature", "geometry": {"type": "Polygon", "coordinates": [[[84.625, 19.125], [84.875, 19.125], [84.875, 19.375], [84.625, 19.375], [84.625, 19.125]]]}, "properties": {"time": "2018-10-10T18:00:00", "variable": "ws", "tier": "low", "percentile": 99.5, "z": 7.17, "wind_ms": 12.9, "value": 12.9, "lat": 19.25, "lon": 84.75}}, {"type": "Feature", "geometry": {"type": "Polygon", "coordinates": [[[84.875, 19.125], [85.125, 19.125], [85.125, 19.375], [84.875, 19.375], [84.875, 19.125]]]}, "properties": {"time": "2018-10-10T18:00:00", "variable": "ws", "tier": "moderate", "percentile": 99.5, "z": 6.33, "wind_ms": 18.79, "value": 18.79, "lat": 19.25, "lon": 85.0}}, {"type": "Feature", "geometry": {"type": "Polygon", "coordinates": [[[85.125, 19.125], [85.375, 19.125], [85.375, 19.375], [85.125, 19.375], [85.125, 19.125]]]}, "properties": {"time": "2018-10-10T18:00:00", "variable": "ws", "tier": "moderate", "percentile": 99.5, "z": 5.47, "wind_ms": 19.69, "value": 19.69, "lat": 19.25, "lon": 85.25}}, {"type": "Feature", "geometry": {"type": "Polygon", "coordinates": [[[85.375, 19.125], [85.625, 19.125], [85.625, 19.375], [85.375, 19.375], [85.375, 19.125]]]}, "properties": {"time": "2018-10-10T18:00:00", "variable": "ws", "tier": "moderate", "percentile": 99.5, "z": 5.23, "wind_ms": 18.66, "value": 18.66, "lat": 19.25, "lon": 85.5}}, {"type": "Feature", "geometry": {"type": "Polygon", "coordinates": [[[85.625, 19.125], [85.875, 19.125], [85.875, 19.375], [85.625, 19.375], [85.625, 19.125]]]}, "properties": {"time": "2018-10-10T18:00:00", "variable": "ws", "tier": "moderate", "percentile": 99.5, "z": 5.16, "wind_ms": 18.84, "value": 18.84, "lat": 19.25, "lon": 85.75}}, {"type": "Feature", "geometry": {"type": "Polygon", "coordinates": [[[85.875, 19.125], [86.125, 19.125], [86.125, 19.375], [85.875, 19.375], [85.875, 19.125]]]}, "properties": {"time": "2018-10-10T18:00:00", "variable": "ws", "tier": "moderate", "percentile": 99.5, "z": 4.97, "wind_ms": 18.28, "value": 18.28, "lat": 19.25, "lon": 86.0}}, {"type": "Feature", "geometry": {"type": "Polygon", "coordinates": [[[86.125, 19.125], [86.375, 19.125], [86.375, 19.375], [86.125, 19.375], [86.125, 19.125]]]}, "properties": {"time": "2018-10-10T18:00:00", "variable": "ws", "tier": "moderate", "percentile": 99.5, "z": 4.74, "wind_ms": 17.06, "value": 17.06, "lat": 19.25, "lon": 86.25}}, {"type": "Feature", "geometry": {"type": "Polygon", "coordinates": [[[86.375, 19.125], [86.625, 19.125], [86.625, 19.375], [86.375, 19.375], [86.375, 19.125]]]}, "properties": {"time": "2018-10-10T18:00:00", "variable": "ws", "tier": "low", "percentile": 99.5, "z": 4.4, "wind_ms": 15.69, "value": 15.69, "lat": 19.25, "lon": 86.5}}, {"type": "Feature", "geometry": {"type": "Polygon", "coordinates": [[[86.625, 19.125], [86.875, 19.125], [86.875, 19.375], [86.625, 19.375], [86.625, 19.125]]]}, "properties": {"time": "2018-10-10T18:00:00", "variable": "ws", "tier": "low", "percentile": 99.5, "z": 4.05, "wind_ms": 14.55, "value": 14.55, "lat": 19.25, "lon": 86.75}}, {"type": "Feature", "geometry": {"type": "Polygon", "coordinates": [[[86.875, 19.125], [87.125, 19.125], [87.125, 19.375], [86.875, 19.375], [86.875, 19.125]]]}, "properties": {"time": "2018-10-10T18:00:00", "variable": "ws", "tier": "low", "percentile": 99.5, "z": 3.73, "wind_ms": 13.66, "value": 13.66, "lat": 19.25, "lon": 87.0}}, {"type": "Feature", "geometry": {"type": "Polygon", "coordinates": [[[87.125, 19.125], [87.375, 19.125], [87.375, 19.375], [87.125, 19.375], [87.125, 19.125]]]}, "properties": {"time": "2018-10-10T18:00:00", "variable": "ws", "tier": "low", "percentile": 98.6, "z": 3.43, "wind_ms": 12.95, "value": 12.95, "lat": 19.25, "lon": 87.25}}, {"type": "Feature", "geometry": {"type": "Polygon", "coordinates": [[[87.375, 19.125], [87.625, 19.125], [87.625, 19.375], [87.375, 19.375], [87.375, 19.125]]]}, "properties": {"time": "2018-10-10T18:00:00", "variable": "ws", "tier": "low", "percentile": 98.6, "z": 3.22, "wind_ms": 12.52, "value": 12.52, "lat": 19.25, "lon": 87.5}}, {"type": "Feature", "geometry": {"type": "Polygon", "coordinates": [[[87.625, 19.125], [87.875, 19.125], [87.875, 19.375], [87.625, 19.375], [87.625, 19.125]]]}, "properties": {"time": "2018-10-10T18:00:00", "variable": "ws", "tier": "low", "percentile": 98.6, "z": 3.09, "wind_ms": 12.32, "value": 12.32, "lat": 19.25, "lon": 87.75}}, {"type": "Feature", "geometry": {"type": "Polygon", "coordinates": [[[84.625, 19.375], [84.875, 19.375], [84.875, 19.625], [84.625, 19.625], [84.625, 19.375]]]}, "properties": {"time": "2018-10-10T18:00:00", "variable": "ws", "tier": "low", "percentile": 99.5, "z": 6.71, "wind_ms": 9.44, "value": 9.44, "lat": 19.5, "lon": 84.75}}, {"type": "Feature", "geometry": {"type": "Polygon", "coordinates": [[[84.875, 19.375], [85.125, 19.375], [85.125, 19.625], [84.875, 19.625], [84.875, 19.375]]]}, "properties": {"time": "2018-10-10T18:00:00", "variable": "ws", "tier": "low", "percentile": 99.5, "z": 6.53, "wind_ms": 13.08, "value": 13.08, "lat": 19.5, "lon": 85.0}}, {"type": "Feature", "geometry": {"type": "Polygon", "coordinates": [[[85.125, 19.375], [85.375, 19.375], [85.375, 19.625], [85.125, 19.625], [85.125, 19.375]]]}, "properties": {"time": "2018-10-10T18:00:00", "variable": "ws", "tier": "low", "percentile": 99.5, "z": 5.45, "wind_ms": 16.28, "value": 16.28, "lat": 19.5, "lon": 85.25}}, {"type": "Feature", "geometry": {"type": "Polygon", "coordinates": [[[85.375, 19.375], [85.625, 19.375], [85.625, 19.625], [85.375, 19.625], [85.375, 19.375]]]}, "properties": {"time": "2018-10-10T18:00:00", "variable": "ws", "tier": "moderate", "percentile": 99.5, "z": 4.93, "wind_ms": 17.69, "value": 17.69, "lat": 19.5, "lon": 85.5}}, {"type": "Feature", "geometry": {"type": "Polygon", "coordinates": [[[85.625, 19.375], [85.875, 19.375], [85.875, 19.625], [85.625, 19.625], [85.625, 19.375]]]}, "properties": {"time": "2018-10-10T18:00:00", "variable": "ws", "tier": "low", "percentile": 99.5, "z": 4.85, "wind_ms": 16.35, "value": 16.35, "lat": 19.5, "lon": 85.75}}, {"type": "Feature", "geometry": {"type": "Polygon", "coordinates": [[[85.875, 19.375], [86.125, 19.375], [86.125, 19.625], [85.875, 19.625], [85.875, 19.375]]]}, "properties": {"time": "2018-10-10T18:00:00", "variable": "ws", "tier": "low", "percentile": 99.5, "z": 4.66, "wind_ms": 16.59, "value": 16.59, "lat": 19.5, "lon": 86.0}}, {"type": "Feature", "geometry": {"type": "Polygon", "coordinates": [[[86.125, 19.375], [86.375, 19.375], [86.375, 19.625], [86.125, 19.625], [86.125, 19.375]]]}, "properties": {"time": "2018-10-10T18:00:00", "variable": "ws", "tier": "low", "percentile": 99.5, "z": 4.45, "wind_ms": 15.89, "value": 15.89, "lat": 19.5, "lon": 86.25}}, {"type": "Feature", "geometry": {"type": "Polygon", "coordinates": [[[86.375, 19.375], [86.625, 19.375], [86.625, 19.625], [86.375, 19.625], [86.375, 19.375]]]}, "properties": {"time": "2018-10-10T18:00:00", "variable": "ws", "tier": "low", "percentile": 99.5, "z": 4.15, "wind_ms": 14.6, "value": 14.6, "lat": 19.5, "lon": 86.5}}, {"type": "Feature", "geometry": {"type": "Polygon", "coordinates": [[[86.625, 19.375], [86.875, 19.375], [86.875, 19.625], [86.625, 19.625], [86.625, 19.375]]]}, "properties": {"time": "2018-10-10T18:00:00", "variable": "ws", "tier": "low", "percentile": 99.5, "z": 3.98, "wind_ms": 13.99, "value": 13.99, "lat": 19.5, "lon": 86.75}}, {"type": "Feature", "geometry": {"type": "Polygon", "coordinates": [[[86.875, 19.375], [87.125, 19.375], [87.125, 19.625], [86.875, 19.625], [86.875, 19.375]]]}, "properties": {"time": "2018-10-10T18:00:00", "variable": "ws", "tier": "low", "percentile": 99.5, "z": 3.8, "wind_ms": 13.63, "value": 13.63, "lat": 19.5, "lon": 87.0}}, {"type": "Feature", "geometry": {"type": "Polygon", "coordinates": [[[87.125, 19.375], [87.375, 19.375], [87.375, 19.625], [87.125, 19.625], [87.125, 19.375]]]}, "properties": {"time": "2018-10-10T18:00:00", "variable": "ws", "tier": "low", "percentile": 98.6, "z": 3.5, "wind_ms": 13.06, "value": 13.06, "lat": 19.5, "lon": 87.25}}, {"type": "Feature", "geometry": {"type": "Polygon", "coordinates": [[[87.375, 19.375], [87.625, 19.375], [87.625, 19.625], [87.375, 19.625], [87.375, 19.375]]]}, "properties": {"time": "2018-10-10T18:00:00", "variable": "ws", "tier": "low", "percentile": 98.6, "z": 3.23, "wind_ms": 12.5, "value": 12.5, "lat": 19.5, "lon": 87.5}}, {"type": "Feature", "geometry": {"type": "Polygon", "coordinates": [[[87.625, 19.375], [87.875, 19.375], [87.875, 19.625], [87.625, 19.625], [87.625, 19.375]]]}, "properties": {"time": "2018-10-10T18:00:00", "variable": "ws", "tier": "low", "percentile": 97.7, "z": 3.05, "wind_ms": 11.98, "value": 11.98, "lat": 19.5, "lon": 87.75}}, {"type": "Feature", "geometry": {"type": "Polygon", "coordinates": [[[85.125, 19.625], [85.375, 19.625], [85.375, 19.875], [85.125, 19.875], [85.125, 19.625]]]}, "properties": {"time": "2018-10-10T18:00:00", "variable": "ws", "tier": "low", "percentile": 98.6, "z": 5.21, "wind_ms": 11.1, "value": 11.1, "lat": 19.75, "lon": 85.25}}, {"type": "Feature", "geometry": {"type": "Polygon", "coordinates": [[[85.375, 19.625], [85.625, 19.625], [85.625, 19.875], [85.375, 19.875], [85.375, 19.625]]]}, "properties": {"time": "2018-10-10T18:00:00", "variable": "ws", "tier": "low", "percentile": 98.6, "z": 4.79, "wind_ms": 13.23, "value": 13.23, "lat": 19.75, "lon": 85.5}}, {"type": "Feature", "geometry": {"type": "Polygon", "coordinates": [[[85.625, 19.625], [85.875, 19.625], [85.875, 19.875], [85.625, 19.875], [85.625, 19.625]]]}, "properties": {"time": "2018-10-10T18:00:00", "variable": "ws", "tier": "low", "percentile": 99.5, "z": 5.04, "wind_ms": 11.67, "value": 11.67, "lat": 19.75, "lon": 85.75}}, {"type": "Feature", "geometry": {"type": "Polygon", "coordinates": [[[85.875, 19.625], [86.125, 19.625], [86.125, 19.875], [85.875, 19.875], [85.875, 19.625]]]}, "properties": {"time": "2018-10-10T18:00:00", "variable": "ws", "tier": "low", "percentile": 99.5, "z": 4.81, "wind_ms": 13.61, "value": 13.61, "lat": 19.75, "lon": 86.0}}, {"type": "Feature", "geometry": {"type": "Polygon", "coordinates": [[[86.125, 19.625], [86.375, 19.625], [86.375, 19.875], [86.125, 19.875], [86.125, 19.625]]]}, "properties": {"time": "2018-10-10T18:00:00", "variable": "ws", "tier": "low", "percentile": 99.5, "z": 4.46, "wind_ms": 13.96, "value": 13.96, "lat": 19.75, "lon": 86.25}}, {"type": "Feature", "geometry": {"type": "Polygon", "coordinates": [[[86.375, 19.625], [86.625, 19.625], [86.625, 19.875], [86.375, 19.875], [86.375, 19.625]]]}, "properties": {"time": "2018-10-10T18:00:00", "variable": "ws", "tier": "low", "percentile": 99.5, "z": 4.11, "wind_ms": 14.17, "value": 14.17, "lat": 19.75, "lon": 86.5}}, {"type": "Feature", "geometry": {"type": "Polygon", "coordinates": [[[86.625, 19.625], [86.875, 19.625], [86.875, 19.875], [86.625, 19.875], [86.625, 19.625]]]}, "properties": {"time": "2018-10-10T18:00:00", "variable": "ws", "tier": "low", "percentile": 99.5, "z": 3.85, "wind_ms": 13.67, "value": 13.67, "lat": 19.75, "lon": 86.75}}, {"type": "Feature", "geometry": {"type": "Polygon", "coordinates": [[[86.875, 19.625], [87.125, 19.625], [87.125, 19.875], [86.875, 19.875], [86.875, 19.625]]]}, "properties": {"time": "2018-10-10T18:00:00", "variable": "ws", "tier": "low", "percentile": 99.5, "z": 3.65, "wind_ms": 13.05, "value": 13.05, "lat": 19.75, "lon": 87.0}}, {"type": "Feature", "geometry": {"type": "Polygon", "coordinates": [[[87.125, 19.625], [87.375, 19.625], [87.375, 19.875], [87.125, 19.875], [87.125, 19.625]]]}, "properties": {"time": "2018-10-10T18:00:00", "variable": "ws", "tier": "low", "percentile": 98.6, "z": 3.41, "wind_ms": 12.42, "value": 12.42, "lat": 19.75, "lon": 87.25}}, {"type": "Feature", "geometry": {"type": "Polygon", "coordinates": [[[87.375, 19.625], [87.625, 19.625], [87.625, 19.875], [87.375, 19.875], [87.375, 19.625]]]}, "properties": {"time": "2018-10-10T18:00:00", "variable": "ws", "tier": "low", "percentile": 97.7, "z": 3.19, "wind_ms": 12.27, "value": 12.27, "lat": 19.75, "lon": 87.5}}, {"type": "Feature", "geometry": {"type": "Polygon", "coordinates": [[[87.625, 19.625], [87.875, 19.625], [87.875, 19.875], [87.625, 19.875], [87.625, 19.625]]]}, "properties": {"time": "2018-10-10T18:00:00", "variable": "ws", "tier": "low", "percentile": 97.7, "z": 2.99, "wind_ms": 11.7, "value": 11.7, "lat": 19.75, "lon": 87.75}}, {"type": "Feature", "geometry": {"type": "Polygon", "coordinates": [[[85.875, 19.875], [86.125, 19.875], [86.125, 20.125], [85.875, 20.125], [85.875, 19.875]]]}, "properties": {"time": "2018-10-10T18:00:00", "variable": "ws", "tier": "low", "percentile": 99.5, "z": 4.87, "wind_ms": 8.94, "value": 8.94, "lat": 20.0, "lon": 86.0}}, {"type": "Feature", "geometry": {"type": "Polygon", "coordinates": [[[86.125, 19.875], [86.375, 19.875], [86.375, 20.125], [86.125, 20.125], [86.125, 19.875]]]}, "properties": {"time": "2018-10-10T18:00:00", "variable": "ws", "tier": "low", "percentile": 99.5, "z": 4.62, "wind_ms": 9.55, "value": 9.55, "lat": 20.0, "lon": 86.25}}, {"type": "Feature", "geometry": {"type": "Polygon", "coordinates": [[[86.375, 19.875], [86.625, 19.875], [86.625, 20.125], [86.375, 20.125], [86.375, 19.875]]]}, "properties": {"time": "2018-10-10T18:00:00", "variable": "ws", "tier": "low", "percentile": 99.5, "z": 4.05, "wind_ms": 10.56, "value": 10.56, "lat": 20.0, "lon": 86.5}}, {"type": "Feature", "geometry": {"type": "Polygon", "coordinates": [[[86.625, 19.875], [86.875, 19.875], [86.875, 20.125], [86.625, 20.125], [86.625, 19.875]]]}, "properties": {"time": "2018-10-10T18:00:00", "variable": "ws", "tier": "low", "percentile": 99.5, "z": 3.58, "wind_ms": 12.78, "value": 12.78, "lat": 20.0, "lon": 86.75}}, {"type": "Feature", "geometry": {"type": "Polygon", "coordinates": [[[86.875, 19.875], [87.125, 19.875], [87.125, 20.125], [86.875, 20.125], [86.875, 19.875]]]}, "properties": {"time": "2018-10-10T18:00:00", "variable": "ws", "tier": "low", "percentile": 98.6, "z": 3.37, "wind_ms": 12.65, "value": 12.65, "lat": 20.0, "lon": 87.0}}, {"type": "Feature", "geometry": {"type": "Polygon", "coordinates": [[[87.125, 19.875], [87.375, 19.875], [87.375, 20.125], [87.125, 20.125], [87.125, 19.875]]]}, "properties": {"time": "2018-10-10T18:00:00", "variable": "ws", "tier": "low", "percentile": 97.7, "z": 3.22, "wind_ms": 11.94, "value": 11.94, "lat": 20.0, "lon": 87.25}}, {"type": "Feature", "geometry": {"type": "Polygon", "coordinates": [[[87.375, 19.875], [87.625, 19.875], [87.625, 20.125], [87.375, 20.125], [87.375, 19.875]]]}, "properties": {"time": "2018-10-10T18:00:00", "variable": "ws", "tier": "low", "percentile": 97.7, "z": 3.07, "wind_ms": 11.7, "value": 11.7, "lat": 20.0, "lon": 87.5}}, {"type": "Feature", "geometry": {"type": "Polygon", "coordinates": [[[87.625, 19.875], [87.875, 19.875], [87.875, 20.125], [87.625, 20.125], [87.625, 19.875]]]}, "properties": {"time": "2018-10-10T18:00:00", "variable": "ws", "tier": "low", "percentile": 96.8, "z": 2.93, "wind_ms": 11.43, "value": 11.43, "lat": 20.0, "lon": 87.75}}, {"type": "Feature", "geometry": {"type": "Polygon", "coordinates": [[[86.625, 20.125], [86.875, 20.125], [86.875, 20.375], [86.625, 20.375], [86.625, 20.125]]]}, "properties": {"time": "2018-10-10T18:00:00", "variable": "ws", "tier": "low", "percentile": 98.6, "z": 3.51, "wind_ms": 9.54, "value": 9.54, "lat": 20.25, "lon": 86.75}}, {"type": "Feature", "geometry": {"type": "Polygon", "coordinates": [[[86.875, 20.125], [87.125, 20.125], [87.125, 20.375], [86.875, 20.375], [86.875, 20.125]]]}, "properties": {"time": "2018-10-10T18:00:00", "variable": "ws", "tier": "low", "percentile": 96.8, "z": 3.15, "wind_ms": 11.7, "value": 11.7, "lat": 20.25, "lon": 87.0}}, {"type": "Feature", "geometry": {"type": "Polygon", "coordinates": [[[87.125, 20.125], [87.375, 20.125], [87.375, 20.375], [87.125, 20.375], [87.125, 20.125]]]}, "properties": {"time": "2018-10-10T18:00:00", "variable": "ws", "tier": "low", "percentile": 96.8, "z": 3.0, "wind_ms": 11.51, "value": 11.51, "lat": 20.25, "lon": 87.25}}, {"type": "Feature", "geometry": {"type": "Polygon", "coordinates": [[[87.375, 20.125], [87.625, 20.125], [87.625, 20.375], [87.375, 20.375], [87.375, 20.125]]]}, "properties": {"time": "2018-10-10T18:00:00", "variable": "ws", "tier": "low", "percentile": 96.8, "z": 2.92, "wind_ms": 11.26, "value": 11.26, "lat": 20.25, "lon": 87.5}}, {"type": "Feature", "geometry": {"type": "Polygon", "coordinates": [[[87.625, 20.125], [87.875, 20.125], [87.875, 20.375], [87.625, 20.375], [87.625, 20.125]]]}, "properties": {"time": "2018-10-10T18:00:00", "variable": "ws", "tier": "low", "percentile": 96.8, "z": 2.83, "wind_ms": 11.0, "value": 11.0, "lat": 20.25, "lon": 87.75}}, {"type": "Feature", "geometry": {"type": "Polygon", "coordinates": [[[86.875, 20.375], [87.125, 20.375], [87.125, 20.625], [86.875, 20.625], [86.875, 20.375]]]}, "properties": {"time": "2018-10-10T18:00:00", "variable": "ws", "tier": "low", "percentile": 96.8, "z": 3.02, "wind_ms": 8.71, "value": 8.71, "lat": 20.5, "lon": 87.0}}, {"type": "Feature", "geometry": {"type": "Polygon", "coordinates": [[[87.125, 20.375], [87.375, 20.375], [87.375, 20.625], [87.125, 20.625], [87.125, 20.375]]]}, "properties": {"time": "2018-10-10T18:00:00", "variable": "ws", "tier": "low", "percentile": 95.9, "z": 2.8, "wind_ms": 10.85, "value": 10.85, "lat": 20.5, "lon": 87.25}}, {"type": "Feature", "geometry": {"type": "Polygon", "coordinates": [[[87.375, 20.375], [87.625, 20.375], [87.625, 20.625], [87.375, 20.625], [87.375, 20.375]]]}, "properties": {"time": "2018-10-10T18:00:00", "variable": "ws", "tier": "low", "percentile": 96.8, "z": 2.74, "wind_ms": 10.87, "value": 10.87, "lat": 20.5, "lon": 87.5}}, {"type": "Feature", "geometry": {"type": "Polygon", "coordinates": [[[87.625, 20.375], [87.875, 20.375], [87.875, 20.625], [87.625, 20.625], [87.625, 20.375]]]}, "properties": {"time": "2018-10-10T18:00:00", "variable": "ws", "tier": "low", "percentile": 96.8, "z": 2.66, "wind_ms": 10.56, "value": 10.56, "lat": 20.5, "lon": 87.75}}], "properties": {"thresholds": {"low_z": 1.5, "low_ws": 8.7, "moderate_z": 2.0, "moderate_ws": 17.0, "severe_z": 3.0, "severe_ws": 25.0}, "note": "Tiers: z-score AND wind >= 8.7/17/25 m/s (IMD D/CS/SCS), only inside tracked-object boxes + 1 deg. Adjusted after observing results; not validated against impacts. Per-hour ERA5 reanalysis climatology; single member, not an ensemble EFI."}}