{"type": "FeatureCollection", "features": [{"type": "Feature", "geometry": {"type": "Polygon", "coordinates": [[[80.625, 9.625], [80.875, 9.625], [80.875, 9.875], [80.625, 9.875], [80.625, 9.625]]]}, "properties": {"time": "2020-11-25T18:00:00", "variable": "msl", "tier": "low", "percentile": 96.5, "z": 2.04, "wind_ms": 9.42, "value": 1008.21, "lat": 9.75, "lon": 80.75}}, {"type": "Feature", "geometry": {"type": "Polygon", "coordinates": [[[80.875, 9.625], [81.125, 9.625], [81.125, 9.875], [80.875, 9.875], [80.875, 9.625]]]}, "properties": {"time": "2020-11-25T18:00:00", "variable": "msl", "tier": "low", "percentile": 96.5, "z": 1.98, "wind_ms": 10.21, "value": 1008.32, "lat": 9.75, "lon": 81.0}}, {"type": "Feature", "geometry": {"type": "Polygon", "coordinates": [[[81.125, 9.625], [81.375, 9.625], [81.375, 9.875], [81.125, 9.875], [81.125, 9.625]]]}, "properties": {"time": "2020-11-25T18:00:00", "variable": "msl", "tier": "low", "percentile": 95.7, "z": 1.87, "wind_ms": 10.64, "value": 1008.47, "lat": 9.75, "lon": 81.25}}, {"type": "Feature", "geometry": {"type": "Polygon", "coordinates": [[[81.375, 9.625], [81.625, 9.625], [81.625, 9.875], [81.375, 9.875], [81.375, 9.625]]]}, "properties": {"time": "2020-11-25T18:00:00", "variable": "msl", "tier": "low", "percentile": 93.9, "z": 1.74, "wind_ms": 10.82, "value": 1008.65, "lat": 9.75, "lon": 81.5}}, {"type": "Feature", "geometry": {"type": "Polygon", "coordinates": [[[81.625, 9.625], [81.875, 9.625], [81.875, 9.875], [81.625, 9.875], [81.625, 9.625]]]}, "properties": {"time": "2020-11-25T18:00:00", "variable": "msl", "tier": "low", "percentile": 93.9, "z": 1.56, "wind_ms": 10.37, "value": 1008.89, "lat": 9.75, "lon": 81.75}}, {"type": "Feature", "geometry": {"type": "Polygon", "coordinates": [[[79.625, 9.875], [79.875, 9.875], [79.875, 10.125], [79.625, 10.125], [79.625, 9.875]]]}, "properties": {"time": "2020-11-25T18:00:00", "variable": "msl", "tier": "low", "percentile": 96.5, "z": 2.25, "wind_ms": 8.88, "value": 1008.12, "lat": 10.0, "lon": 79.75}}, {"type": "Feature", "geometry": {"type": "Polygon", "coordinates": [[[79.875, 9.875], [80.125, 9.875], [80.125, 10.125], [79.875, 10.125], [79.875, 9.875]]]}, "properties": {"time": "2020-11-25T18:00:00", "variable": "msl", "tier": "low", "percentile": 97.4, "z": 2.25, "wind_ms": 9.18, "value": 1007.99, "lat": 10.0, "lon": 80.0}}, {"type": "Feature", "geometry": {"type": "Polygon", "coordinates": [[[80.125, 9.875], [80.375, 9.875], [80.375, 10.125], [80.125, 10.125], [80.125, 9.875]]]}, "properties": {"time": "2020-11-25T18:00:00", "variable": "msl", "tier": "low", "percentile": 97.4, "z": 2.25, "wind_ms": 9.32, "value": 1007.9, "lat": 10.0, "lon": 80.25}}, {"type": "Feature", "geometry": {"type": "Polygon", "coordinates": [[[80.375, 9.875], [80.625, 9.875], [80.625, 10.125], [80.375, 10.125], [80.375, 9.875]]]}, "properties": {"time": "2020-11-25T18:00:00", "variable": "msl", "tier": "low", "percentile": 97.4, "z": 2.24, "wind_ms": 10.24, "value": 1007.84, "lat": 10.0, "lon": 80.5}}, {"type": "Feature", "geometry": {"type": "Polygon", "coordinates": [[[80.625, 9.875], [80.875, 9.875], [80.875, 10.125], [80.625, 10.125], [80.625, 9.875]]]}, "properties": {"time": "2020-11-25T18:00:00", "variable": "msl", "tier": "low", "percentile": 97.4, "z": 2.24, "wind_ms": 10.86, "value": 1007.86, "lat": 10.0, "lon": 80.75}}, {"type": "Feature", "geometry": {"type": "Polygon", "coordinates": [[[80.875, 9.875], [81.125, 9.875], [81.125, 10.125], [80.875, 10.125], [80.875, 9.875]]]}, "properties": {"time": "2020-11-25T18:00:00", "variable": "msl", "tier": "low", "percentile": 96.5, "z": 2.22, "wind_ms": 11.65, "value": 1007.93, "lat": 10.0, "lon": 81.0}}, {"type": "Feature", "geometry": {"type": "Polygon", "coordinates": [[[81.125, 9.875], [81.375, 9.875], [81.375, 10.125], [81.125, 10.125], [81.125, 9.875]]]}, "properties": {"time": "2020-11-25T18:00:00", "variable": "msl", "tier": "low", "percentile": 96.5, "z": 2.12, "wind_ms": 12.09, "value": 1008.06, "lat": 10.0, "lon": 81.25}}, {"type": "Feature", "geometry": {"type": "Polygon", "coordinates": [[[81.375, 9.875], [81.625, 9.875], [81.625, 10.125], [81.375, 10.125], [81.375, 9.875]]]}, "properties": {"time": "2020-11-25T18:00:00", "variable": "msl", "tier": "low", "percentile": 95.7, "z": 1.97, "wind_ms": 11.93, "value": 1008.3, "lat": 10.0, "lon": 81.5}}, {"type": "Feature", "geometry": {"type": "Polygon", "coordinates": [[[81.625, 9.875], [81.875, 9.875], [81.875, 10.125], [81.625, 10.125], [81.625, 9.875]]]}, "properties": {"time": "2020-11-25T18:00:00", "variable": "msl", "tier": "low", "percentile": 93.9, "z": 1.76, "wind_ms": 11.36, "value": 1008.6, "lat": 10.0, "lon": 81.75}}, {"type": "Feature", "geometry": {"type": "Polygon", "coordinates": [[[81.875, 9.875], [82.125, 9.875], [82.125, 10.125], [81.875, 10.125], [81.875, 9.875]]]}, "properties": {"time": "2020-11-25T18:00:00", "variable": "msl", "tier": "low", "percentile": 93.0, "z": 1.54, "wind_ms": 10.54, "value": 1008.9, "lat": 10.0, "lon": 82.0}}, {"type": "Feature", "geometry": {"type": "Polygon", "coordinates": [[[79.625, 10.125], [79.875, 10.125], [79.875, 10.375], [79.625, 10.375], [79.625, 10.125]]]}, "properties": {"time": "2020-11-25T18:00:00", "variable": "msl", "tier": "low", "percentile": 98.3, "z": 2.49, "wind_ms": 10.55, "value": 1007.76, "lat": 10.25, "lon": 79.75}}, {"type": "Feature", "geometry": {"type": "Polygon", "coordinates": [[[79.875, 10.125], [80.125, 10.125], [80.125, 10.375], [79.875, 10.375], [79.875, 10.125]]]}, "properties": {"time": "2020-11-25T18:00:00", "variable": "msl", "tier": "low", "percentile": 98.3, "z": 2.49, "wind_ms": 12.03, "value": 1007.56, "lat": 10.25, "lon": 80.0}}, {"type": "Feature", "geometry": {"type": "Polygon", "coordinates": [[[80.125, 10.125], [80.375, 10.125], [80.375, 10.375], [80.125, 10.375], [80.125, 10.125]]]}, "properties": {"time": "2020-11-25T18:00:00", "variable": "msl", "tier": "low", "percentile": 98.3, "z": 2.49, "wind_ms": 12.6, "value": 1007.38, "lat": 10.25, "lon": 80.25}}, {"type": "Feature", "geometry": {"type": "Polygon", "coordinates": [[[80.375, 10.125], [80.625, 10.125], [80.625, 10.375], [80.375, 10.375], [80.375, 10.125]]]}, "properties": {"time": "2020-11-25T18:00:00", "variable": "msl", "tier": "low", "percentile": 98.3, "z": 2.51, "wind_ms": 13.21, "value": 1007.27, "lat": 10.25, "lon": 80.5}}, {"type": "Feature", "geometry": {"type": "Polygon", "coordinates": [[[80.625, 10.125], [80.875, 10.125], [80.875, 10.375], [80.625, 10.375], [80.625, 10.125]]]}, "properties": {"time": "2020-11-25T18:00:00", "variable": "msl", "tier": "low", "percentile": 98.3, "z": 2.53, "wind_ms": 13.34, "value": 1007.28, "lat": 10.25, "lon": 80.75}}, {"type": "Feature", "geometry": {"type": "Polygon", "coordinates": [[[80.875, 10.125], [81.125, 10.125], [81.125, 10.375], [80.875, 10.375], [80.875, 10.125]]]}, "properties": {"time": "2020-11-25T18:00:00", "variable": "msl", "tier": "low", "percentile": 98.3, "z": 2.53, "wind_ms": 13.35, "value": 1007.41, "lat": 10.25, "lon": 81.0}}, {"type": "Feature", "geometry": {"type": "Polygon", "coordinates": [[[81.125, 10.125], [81.375, 10.125], [81.375, 10.375], [81.125, 10.375], [81.125, 10.125]]]}, "properties": {"time": "2020-11-25T18:00:00", "variable": "msl", "tier": "low", "percentile": 97.4, "z": 2.42, "wind_ms": 13.01, "value": 1007.64, "lat": 10.25, "lon": 81.25}}, {"type": "Feature", "geometry": {"type": "Polygon", "coordinates": [[[81.375, 10.125], [81.625, 10.125], [81.625, 10.375], [81.375, 10.375], [81.375, 10.125]]]}, "properties": {"time": "2020-11-25T18:00:00", "variable": "msl", "tier": "low", "percentile": 95.7, "z": 2.22, "wind_ms": 12.65, "value": 1007.97, "lat": 10.25, "lon": 81.5}}, {"type": "Feature", "geometry": {"type": "Polygon", "coordinates": [[[81.625, 10.125], [81.875, 10.125], [81.875, 10.375], [81.625, 10.375], [81.625, 10.125]]]}, "properties": {"time": "2020-11-25T18:00:00", "variable": "msl", "tier": "low", "percentile": 95.7, "z": 1.97, "wind_ms": 12.09, "value": 1008.32, "lat": 10.25, "lon": 81.75}}, {"type": "Feature", "geometry": {"type": "Polygon", "coordinates": [[[81.875, 10.125], [82.125, 10.125], [82.125, 10.375], [81.875, 10.375], [81.875, 10.125]]]}, "properties": {"time": "2020-11-25T18:00:00", "variable": "msl", "tier": "low", "percentile": 93.0, "z": 1.73, "wind_ms": 11.36, "value": 1008.64, "lat": 10.25, "lon": 82.0}}, {"type": "Feature", "geometry": {"type": "Polygon", "coordinates": [[[82.125, 10.125], [82.375, 10.125], [82.375, 10.375], [82.125, 10.375], [82.125, 10.125]]]}, "properties": {"time": "2020-11-25T18:00:00", "variable": "msl", "tier": "low", "percentile": 93.0, "z": 1.51, "wind_ms": 10.66, "value": 1008.92, "lat": 10.25, "lon": 82.25}}, {"type": "Feature", "geometry": {"type": "Polygon", "coordinates": [[[79.625, 10.375], [79.875, 10.375], [79.875, 10.625], [79.625, 10.625], [79.625, 10.375]]]}, "properties": {"time": "2020-11-25T18:00:00", "variable": "msl", "tier": "low", "percentile": 99.1, "z": 2.96, "wind_ms": 10.02, "value": 1007.03, "lat": 10.5, "lon": 79.75}}, {"type": "Feature", "geometry": {"type": "Polygon", "coordinates": [[[79.875, 10.375], [80.125, 10.375], [80.125, 10.625], [79.875, 10.625], [79.875, 10.375]]]}, "properties": {"time": "2020-11-25T18:00:00", "variable": "msl", "tier": "low", "percentile": 99.1, "z": 2.96, "wind_ms": 13.34, "value": 1006.74, "lat": 10.5, "lon": 80.0}}, {"type": "Feature", "geometry": {"type": "Polygon", "coordinates": [[[80.125, 10.375], [80.375, 10.375], [80.375, 10.625], [80.125, 10.625], [80.125, 10.375]]]}, "properties": {"time": "2020-11-25T18:00:00", "variable": "msl", "tier": "low", "percentile": 99.1, "z": 2.95, "wind_ms": 14.67, "value": 1006.52, "lat": 10.5, "lon": 80.25}}, {"type": "Feature", "geometry": {"type": "Polygon", "coordinates": [[[80.375, 10.375], [80.625, 10.375], [80.625, 10.625], [80.375, 10.625], [80.375, 10.375]]]}, "properties": {"time": "2020-11-25T18:00:00", "variable": "msl", "tier": "low", "percentile": 99.1, "z": 3.0, "wind_ms": 15.36, "value": 1006.38, "lat": 10.5, "lon": 80.5}}, {"type": "Feature", "geometry": {"type": "Polygon", "coordinates": [[[80.625, 10.375], [80.875, 10.375], [80.875, 10.625], [80.625, 10.625], [80.625, 10.375]]]}, "properties": {"time": "2020-11-25T18:00:00", "variable": "msl", "tier": "low", "percentile": 98.3, "z": 3.02, "wind_ms": 15.63, "value": 1006.39, "lat": 10.5, "lon": 80.75}}, {"type": "Feature", "geometry": {"type": "Polygon", "coordinates": [[[80.875, 10.375], [81.125, 10.375], [81.125, 10.625], [80.875, 10.625], [80.875, 10.375]]]}, "properties": {"time": "2020-11-25T18:00:00", "variable": "msl", "tier": "low", "percentile": 98.3, "z": 3.0, "wind_ms": 15.09, "value": 1006.62, "lat": 10.5, "lon": 81.0}}, {"type": "Feature", "geometry": {"type": "Polygon", "coordinates": [[[81.125, 10.375], [81.375, 10.375], [81.375, 10.625], [81.125, 10.625], [81.125, 10.375]]]}, "properties": {"time": "2020-11-25T18:00:00", "variable": "msl", "tier": "low", "percentile": 98.3, "z": 2.82, "wind_ms": 14.46, "value": 1007.0, "lat": 10.5, "lon": 81.25}}, {"type": "Feature", "geometry": {"type": "Polygon", "coordinates": [[[81.375, 10.375], [81.625, 10.375], [81.625, 10.625], [81.375, 10.625], [81.375, 10.375]]]}, "properties": {"time": "2020-11-25T18:00:00", "variable": "msl", "tier": "low", "percentile": 98.3, "z": 2.57, "wind_ms": 13.69, "value": 1007.44, "lat": 10.5, "lon": 81.5}}, {"type": "Feature", "geometry": {"type": "Polygon", "coordinates": [[[81.625, 10.375], [81.875, 10.375], [81.875, 10.625], [81.625, 10.625], [81.625, 10.375]]]}, "properties": {"time": "2020-11-25T18:00:00", "variable": "msl", "tier": "low", "percentile": 96.5, "z": 2.26, "wind_ms": 12.77, "value": 1007.92, "lat": 10.5, "lon": 81.75}}, {"type": "Feature", "geometry": {"type": "Polygon", "coordinates": [[[81.875, 10.375], [82.125, 10.375], [82.125, 10.625], [81.875, 10.625], [81.875, 10.375]]]}, "properties": {"time": "2020-11-25T18:00:00", "variable": "msl", "tier": "low", "percentile": 96.5, "z": 1.98, "wind_ms": 12.05, "value": 1008.31, "lat": 10.5, "lon": 82.0}}, {"type": "Feature", "geometry": {"type": "Polygon", "coordinates": [[[82.125, 10.375], [82.375, 10.375], [82.375, 10.625], [82.125, 10.625], [82.125, 10.375]]]}, "properties": {"time": "2020-11-25T18:00:00", "variable": "msl", "tier": "low", "percentile": 93.9, "z": 1.72, "wind_ms": 11.42, "value": 1008.66, "lat": 10.5, "lon": 82.25}}, {"type": "Feature", "geometry": {"type": "Polygon", "coordinates": [[[79.625, 10.625], [79.875, 10.625], [79.875, 10.875], [79.625, 10.875], [79.625, 10.625]]]}, "properties": {"time": "2020-11-25T18:00:00", "variable": "msl", "tier": "low", "percentile": 99.1, "z": 3.58, "wind_ms": 10.33, "value": 1006.07, "lat": 10.75, "lon": 79.75}}, {"type": "Feature", "geometry": {"type": "Polygon", "coordinates": [[[79.875, 10.625], [80.125, 10.625], [80.125, 10.875], [79.875, 10.875], [79.875, 10.625]]]}, "properties": {"time": "2020-11-25T18:00:00", "variable": "msl", "tier": "low", "percentile": 99.1, "z": 3.61, "wind_ms": 13.88, "value": 1005.68, "lat": 10.75, "lon": 80.0}}, {"type": "Feature", "geometry": {"type": "Polygon", "coordinates": [[[80.125, 10.625], [80.375, 10.625], [80.375, 10.875], [80.125, 10.875], [80.125, 10.625]]]}, "properties": {"time": "2020-11-25T18:00:00", "variable": "msl", "tier": "low", "percentile": 99.1, "z": 3.66, "wind_ms": 15.88, "value": 1005.33, "lat": 10.75, "lon": 80.25}}, {"type": "Feature", "geometry": {"type": "Polygon", "coordinates": [[[80.375, 10.625], [80.625, 10.625], [80.625, 10.875], [80.375, 10.875], [80.375, 10.625]]]}, "properties": {"time": "2020-11-25T18:00:00", "variable": "msl", "tier": "low", "percentile": 99.1, "z": 3.71, "wind_ms": 16.68, "value": 1005.18, "lat": 10.75, "lon": 80.5}}, {"type": "Feature", "geometry": {"type": "Polygon", "coordinates": [[[80.625, 10.625], [80.875, 10.625], [80.875, 10.875], [80.625, 10.875], [80.625, 10.625]]]}, "properties": {"time": "2020-11-25T18:00:00", "variable": "msl", "tier": "moderate", "percentile": 99.1, "z": 3.69, "wind_ms": 17.14, "value": 1005.3, "lat": 10.75, "lon": 80.75}}, {"type": "Feature", "geometry": {"type": "Polygon", "coordinates": [[[80.875, 10.625], [81.125, 10.625], [81.125, 10.875], [80.875, 10.875], [80.875, 10.625]]]}, "properties": {"time": "2020-11-25T18:00:00", "variable": "msl", "tier": "low", "percentile": 99.1, "z": 3.57, "wind_ms": 16.43, "value": 1005.7, "lat": 10.75, "lon": 81.0}}, {"type": "Feature", "geometry": {"type": "Polygon", "coordinates": [[[81.125, 10.625], [81.375, 10.625], [81.375, 10.875], [81.125, 10.875], [81.125, 10.625]]]}, "properties": {"time": "2020-11-25T18:00:00", "variable": "msl", "tier": "low", "percentile": 100.0, "z": 3.31, "wind_ms": 15.66, "value": 1006.25, "lat": 10.75, "lon": 81.25}}, {"type": "Feature", "geometry": {"type": "Polygon", "coordinates": [[[81.375, 10.625], [81.625, 10.625], [81.625, 10.875], [81.375, 10.875], [81.375, 10.625]]]}, "properties": {"time": "2020-11-25T18:00:00", "variable": "msl", "tier": "low", "percentile": 98.3, "z": 2.94, "wind_ms": 14.55, "value": 1006.9, "lat": 10.75, "lon": 81.5}}, {"type": "Feature", "geometry": {"type": "Polygon", "coordinates": [[[81.625, 10.625], [81.875, 10.625], [81.875, 10.875], [81.625, 10.875], [81.625, 10.625]]]}, "properties": {"time": "2020-11-25T18:00:00", "variable": "msl", "tier": "low", "percentile": 98.3, "z": 2.59, "wind_ms": 13.77, "value": 1007.44, "lat": 10.75, "lon": 81.75}}, {"type": "Feature", "geometry": {"type": "Polygon", "coordinates": [[[81.875, 10.625], [82.125, 10.625], [82.125, 10.875], [81.875, 10.875], [81.875, 10.625]]]}, "properties": {"time": "2020-11-25T18:00:00", "variable": "msl", "tier": "low", "percentile": 96.5, "z": 2.23, "wind_ms": 12.97, "value": 1007.97, "lat": 10.75, "lon": 82.0}}, {"type": "Feature", "geometry": {"type": "Polygon", "coordinates": [[[82.125, 10.625], [82.375, 10.625], [82.375, 10.875], [82.125, 10.875], [82.125, 10.625]]]}, "properties": {"time": "2020-11-25T18:00:00", "variable": "msl", "tier": "low", "percentile": 95.7, "z": 1.94, "wind_ms": 12.28, "value": 1008.36, "lat": 10.75, "lon": 82.25}}, {"type": "Feature", "geometry": {"type": "Polygon", "coordinates": [[[82.375, 10.625], [82.625, 10.625], [82.625, 10.875], [82.375, 10.875], [82.375, 10.625]]]}, "properties": {"time": "2020-11-25T18:00:00", "variable": "msl", "tier": "low", "percentile": 93.9, "z": 1.68, "wind_ms": 11.57, "value": 1008.73, "lat": 10.75, "lon": 82.5}}, {"type": "Feature", "geometry": {"type": "Polygon", "coordinates": [[[79.625, 10.875], [79.875, 10.875], [79.875, 11.125], [79.625, 11.125], [79.625, 10.875]]]}, "properties": {"time": "2020-11-25T18:00:00", "variable": "msl", "tier": "low", "percentile": 100.0, "z": 4.24, "wind_ms": 10.46, "value": 1005.06, "lat": 11.0, "lon": 79.75}}, {"type": "Feature", "geometry": {"type": "Polygon", "coordinates": [[[79.875, 10.875], [80.125, 10.875], [80.125, 11.125], [79.875, 11.125], [79.875, 10.875]]]}, "properties": {"time": "2020-11-25T18:00:00", "variable": "msl", "tier": "low", "percentile": 100.0, "z": 4.44, "wind_ms": 14.39, "value": 1004.44, "lat": 11.0, "lon": 80.0}}, {"type": "Feature", "geometry": {"type": "Polygon", "coordinates": [[[80.125, 10.875], [80.375, 10.875], [80.375, 11.125], [80.125, 11.125], [80.125, 10.875]]]}, "properties": {"time": "2020-11-25T18:00:00", "variable": "msl", "tier": "low", "percentile": 100.0, "z": 4.51, "wind_ms": 16.37, "value": 1004.06, "lat": 11.0, "lon": 80.25}}, {"type": "Feature", "geometry": {"type": "Polygon", "coordinates": [[[80.375, 10.875], [80.625, 10.875], [80.625, 11.125], [80.375, 11.125], [80.375, 10.875]]]}, "properties": {"time": "2020-11-25T18:00:00", "variable": "msl", "tier": "moderate", "percentile": 100.0, "z": 4.6, "wind_ms": 17.59, "value": 1003.85, "lat": 11.0, "lon": 80.5}}, {"type": "Feature", "geometry": {"type": "Polygon", "coordinates": [[[80.625, 10.875], [80.875, 10.875], [80.875, 11.125], [80.625, 11.125], [80.625, 10.875]]]}, "properties": {"time": "2020-11-25T18:00:00", "variable": "msl", "tier": "moderate", "percentile": 100.0, "z": 4.56, "wind_ms": 18.16, "value": 1004.02, "lat": 11.0, "lon": 80.75}}, {"type": "Feature", "geometry": {"type": "Polygon", "coordinates": [[[80.875, 10.875], [81.125, 10.875], [81.125, 11.125], [80.875, 11.125], [80.875, 10.875]]]}, "properties": {"time": "2020-11-25T18:00:00", "variable": "msl", "tier": "moderate", "percentile": 100.0, "z": 4.29, "wind_ms": 17.74, "value": 1004.61, "lat": 11.0, "lon": 81.0}}, {"type": "Feature", "geometry": {"type": "Polygon", "coordinates": [[[81.125, 10.875], [81.375, 10.875], [81.375, 11.125], [81.125, 11.125], [81.125, 10.875]]]}, "properties": {"time": "2020-11-25T18:00:00", "variable": "msl", "tier": "moderate", "percentile": 100.0, "z": 3.87, "wind_ms": 17.06, "value": 1005.39, "lat": 11.0, "lon": 81.25}}, {"type": "Feature", "geometry": {"type": "Polygon", "coordinates": [[[81.375, 10.875], [81.625, 10.875], [81.625, 11.125], [81.375, 11.125], [81.375, 10.875]]]}, "properties": {"time": "2020-11-25T18:00:00", "variable": "msl", "tier": "low", "percentile": 100.0, "z": 3.44, "wind_ms": 15.94, "value": 1006.13, "lat": 11.0, "lon": 81.5}}, {"type": "Feature", "geometry": {"type": "Polygon", "coordinates": [[[81.625, 10.875], [81.875, 10.875], [81.875, 11.125], [81.625, 11.125], [81.625, 10.875]]]}, "properties": {"time": "2020-11-25T18:00:00", "variable": "msl", "tier": "low", "percentile": 99.1, "z": 2.92, "wind_ms": 14.93, "value": 1006.94, "lat": 11.0, "lon": 81.75}}, {"type": "Feature", "geometry": {"type": "Polygon", "coordinates": [[[81.875, 10.875], [82.125, 10.875], [82.125, 11.125], [81.875, 11.125], [81.875, 10.875]]]}, "properties": {"time": "2020-11-25T18:00:00", "variable": "msl", "tier": "low", "percentile": 97.4, "z": 2.54, "wind_ms": 14.17, "value": 1007.51, "lat": 11.0, "lon": 82.0}}, {"type": "Feature", "geometry": {"type": "Polygon", "coordinates": [[[82.125, 10.875], [82.375, 10.875], [82.375, 11.125], [82.125, 11.125], [82.125, 10.875]]]}, "properties": {"time": "2020-11-25T18:00:00", "variable": "msl", "tier": "low", "percentile": 95.7, "z": 2.15, "wind_ms": 13.07, "value": 1008.09, "lat": 11.0, "lon": 82.25}}, {"type": "Feature", "geometry": {"type": "Polygon", "coordinates": [[[82.375, 10.875], [82.625, 10.875], [82.625, 11.125], [82.375, 11.125], [82.375, 10.875]]]}, "properties": {"time": "2020-11-25T18:00:00", "variable": "msl", "tier": "low", "percentile": 94.8, "z": 1.87, "wind_ms": 12.35, "value": 1008.49, "lat": 11.0, "lon": 82.5}}, {"type": "Feature", "geometry": {"type": "Polygon", "coordinates": [[[82.625, 10.875], [82.875, 10.875], [82.875, 11.125], [82.625, 11.125], [82.625, 10.875]]]}, "properties": {"time": "2020-11-25T18:00:00", "variable": "msl", "tier": "low", "percentile": 93.9, "z": 1.57, "wind_ms": 11.78, "value": 1008.91, "lat": 11.0, "lon": 82.75}}, {"type": "Feature", "geometry": {"type": "Polygon", "coordinates": [[[79.625, 11.125], [79.875, 11.125], [79.875, 11.375], [79.625, 11.375], [79.625, 11.125]]]}, "properties": {"time": "2020-11-25T18:00:00", "variable": "msl", "tier": "low", "percentile": 100.0, "z": 5.07, "wind_ms": 10.99, "value": 1003.81, "lat": 11.25, "lon": 79.75}}, {"type": "Feature", "geometry": {"type": "Polygon", "coordinates": [[[79.875, 11.125], [80.125, 11.125], [80.125, 11.375], [79.875, 11.375], [79.875, 11.125]]]}, "properties": {"time": "2020-11-25T18:00:00", "variable": "msl", "tier": "low", "percentile": 100.0, "z": 5.27, "wind_ms": 14.78, "value": 1003.19, "lat": 11.25, "lon": 80.0}}, {"type": "Feature", "geometry": {"type": "Polygon", "coordinates": [[[80.125, 11.125], [80.375, 11.125], [80.375, 11.375], [80.125, 11.375], [80.125, 11.125]]]}, "properties": {"time": "2020-11-25T18:00:00", "variable": "msl", "tier": "moderate", "percentile": 100.0, "z": 5.57, "wind_ms": 17.09, "value": 1002.53, "lat": 11.25, "lon": 80.25}}, {"type": "Feature", "geometry": {"type": "Polygon", "coordinates": [[[80.375, 11.125], [80.625, 11.125], [80.625, 11.375], [80.375, 11.375], [80.375, 11.125]]]}, "properties": {"time": "2020-11-25T18:00:00", "variable": "msl", "tier": "moderate", "percentile": 100.0, "z": 5.67, "wind_ms": 18.14, "value": 1002.32, "lat": 11.25, "lon": 80.5}}, {"type": "Feature", "geometry": {"type": "Polygon", "coordinates": [[[80.625, 11.125], [80.875, 11.125], [80.875, 11.375], [80.625, 11.375], [80.625, 11.125]]]}, "properties": {"time": "2020-11-25T18:00:00", "variable": "msl", "tier": "moderate", "percentile": 100.0, "z": 5.51, "wind_ms": 18.65, "value": 1002.65, "lat": 11.25, "lon": 80.75}}, {"type": "Feature", "geometry": {"type": "Polygon", "coordinates": [[[80.875, 11.125], [81.125, 11.125], [81.125, 11.375], [80.875, 11.375], [80.875, 11.125]]]}, "properties": {"time": "2020-11-25T18:00:00", "variable": "msl", "tier": "moderate", "percentile": 100.0, "z": 5.14, "wind_ms": 18.6, "value": 1003.35, "lat": 11.25, "lon": 81.0}}, {"type": "Feature", "geometry": {"type": "Polygon", "coordinates": [[[81.125, 11.125], [81.375, 11.125], [81.375, 11.375], [81.125, 11.375], [81.125, 11.125]]]}, "properties": {"time": "2020-11-25T18:00:00", "variable": "msl", "tier": "moderate", "percentile": 100.0, "z": 4.57, "wind_ms": 18.25, "value": 1004.35, "lat": 11.25, "lon": 81.25}}, {"type": "Feature", "geometry": {"type": "Polygon", "coordinates": [[[81.375, 11.125], [81.625, 11.125], [81.625, 11.375], [81.375, 11.375], [81.375, 11.125]]]}, "properties": {"time": "2020-11-25T18:00:00", "variable": "msl", "tier": "moderate", "percentile": 100.0, "z": 3.9, "wind_ms": 17.21, "value": 1005.43, "lat": 11.25, "lon": 81.5}}, {"type": "Feature", "geometry": {"type": "Polygon", "coordinates": [[[81.625, 11.125], [81.875, 11.125], [81.875, 11.375], [81.625, 11.375], [81.625, 11.125]]]}, "properties": {"time": "2020-11-25T18:00:00", "variable": "msl", "tier": "low", "percentile": 99.1, "z": 3.35, "wind_ms": 16.37, "value": 1006.28, "lat": 11.25, "lon": 81.75}}, {"type": "Feature", "geometry": {"type": "Polygon", "coordinates": [[[81.875, 11.125], [82.125, 11.125], [82.125, 11.375], [81.875, 11.375], [81.875, 11.125]]]}, "properties": {"time": "2020-11-25T18:00:00", "variable": "msl", "tier": "low", "percentile": 99.1, "z": 2.78, "wind_ms": 15.11, "value": 1007.17, "lat": 11.25, "lon": 82.0}}, {"type": "Feature", "geometry": {"type": "Polygon", "coordinates": [[[82.125, 11.125], [82.375, 11.125], [82.375, 11.375], [82.125, 11.375], [82.125, 11.125]]]}, "properties": {"time": "2020-11-25T18:00:00", "variable": "msl", "tier": "low", "percentile": 97.4, "z": 2.39, "wind_ms": 14.02, "value": 1007.75, "lat": 11.25, "lon": 82.25}}, {"type": "Feature", "geometry": {"type": "Polygon", "coordinates": [[[82.375, 11.125], [82.625, 11.125], [82.625, 11.375], [82.375, 11.375], [82.375, 11.125]]]}, "properties": {"time": "2020-11-25T18:00:00", "variable": "msl", "tier": "low", "percentile": 95.7, "z": 2.01, "wind_ms": 13.06, "value": 1008.3, "lat": 11.25, "lon": 82.5}}, {"type": "Feature", "geometry": {"type": "Polygon", "coordinates": [[[82.625, 11.125], [82.875, 11.125], [82.875, 11.375], [82.625, 11.375], [82.625, 11.125]]]}, "properties": {"time": "2020-11-25T18:00:00", "variable": "msl", "tier": "low", "percentile": 93.9, "z": 1.71, "wind_ms": 12.48, "value": 1008.73, "lat": 11.25, "lon": 82.75}}, {"type": "Feature", "geometry": {"type": "Polygon", "coordinates": [[[79.625, 11.375], [79.875, 11.375], [79.875, 11.625], [79.625, 11.625], [79.625, 11.375]]]}, "properties": {"time": "2020-11-25T18:00:00", "variable": "msl", "tier": "low", "percentile": 100.0, "z": 5.74, "wind_ms": 11.49, "value": 1002.82, "lat": 11.5, "lon": 79.75}}, {"type": "Feature", "geometry": {"type": "Polygon", "coordinates": [[[79.875, 11.375], [80.125, 11.375], [80.125, 11.625], [79.875, 11.625], [79.875, 11.375]]]}, "properties": {"time": "2020-11-25T18:00:00", "variable": "msl", "tier": "low", "percentile": 100.0, "z": 6.5, "wind_ms": 15.69, "value": 1001.34, "lat": 11.5, "lon": 80.0}}, {"type": "Feature", "geometry": {"type": "Polygon", "coordinates": [[[80.125, 11.375], [80.375, 11.375], [80.375, 11.625], [80.125, 11.625], [80.125, 11.375]]]}, "properties": {"time": "2020-11-25T18:00:00", "variable": "msl", "tier": "moderate", "percentile": 100.0, "z": 6.81, "wind_ms": 17.67, "value": 1000.68, "lat": 11.5, "lon": 80.25}}, {"type": "Feature", "geometry": {"type": "Polygon", "coordinates": [[[80.375, 11.375], [80.625, 11.375], [80.625, 11.625], [80.375, 11.625], [80.375, 11.375]]]}, "properties": {"time": "2020-11-25T18:00:00", "variable": "msl", "tier": "moderate", "percentile": 100.0, "z": 6.85, "wind_ms": 18.09, "value": 1000.57, "lat": 11.5, "lon": 80.5}}, {"type": "Feature", "geometry": {"type": "Polygon", "coordinates": [[[80.625, 11.375], [80.875, 11.375], [80.875, 11.625], [80.625, 11.625], [80.625, 11.375]]]}, "properties": {"time": "2020-11-25T18:00:00", "variable": "msl", "tier": "moderate", "percentile": 100.0, "z": 6.61, "wind_ms": 18.36, "value": 1001.01, "lat": 11.5, "lon": 80.75}}, {"type": "Feature", "geometry": {"type": "Polygon", "coordinates": [[[80.875, 11.375], [81.125, 11.375], [81.125, 11.625], [80.875, 11.625], [80.875, 11.375]]]}, "properties": {"time": "2020-11-25T18:00:00", "variable": "msl", "tier": "moderate", "percentile": 100.0, "z": 6.05, "wind_ms": 18.96, "value": 1001.97, "lat": 11.5, "lon": 81.0}}, {"type": "Feature", "geometry": {"type": "Polygon", "coordinates": [[[81.125, 11.375], [81.375, 11.375], [81.375, 11.625], [81.125, 11.625], [81.125, 11.375]]]}, "properties": {"time": "2020-11-25T18:00:00", "variable": "msl", "tier": "moderate", "percentile": 100.0, "z": 5.2, "wind_ms": 19.15, "value": 1003.36, "lat": 11.5, "lon": 81.25}}, {"type": "Feature", "geometry": {"type": "Polygon", "coordinates": [[[81.375, 11.375], [81.625, 11.375], [81.625, 11.625], [81.375, 11.625], [81.375, 11.375]]]}, "properties": {"time": "2020-11-25T18:00:00", "variable": "msl", "tier": "moderate", "percentile": 100.0, "z": 4.43, "wind_ms": 18.31, "value": 1004.6, "lat": 11.5, "lon": 81.5}}, {"type": "Feature", "geometry": {"type": "Polygon", "coordinates": [[[81.625, 11.375], [81.875, 11.375], [81.875, 11.625], [81.625, 11.625], [81.625, 11.375]]]}, "properties": {"time": "2020-11-25T18:00:00", "variable": "msl", "tier": "moderate", "percentile": 100.0, "z": 3.66, "wind_ms": 17.27, "value": 1005.81, "lat": 11.5, "lon": 81.75}}, {"type": "Feature", "geometry": {"type": "Polygon", "coordinates": [[[81.875, 11.375], [82.125, 11.375], [82.125, 11.625], [81.875, 11.625], [81.875, 11.375]]]}, "properties": {"time": "2020-11-25T18:00:00", "variable": "msl", "tier": "low", "percentile": 99.1, "z": 3.08, "wind_ms": 16.16, "value": 1006.71, "lat": 11.5, "lon": 82.0}}, {"type": "Feature", "geometry": {"type": "Polygon", "coordinates": [[[82.125, 11.375], [82.375, 11.375], [82.375, 11.625], [82.125, 11.625], [82.125, 11.375]]]}, "properties": {"time": "2020-11-25T18:00:00", "variable": "msl", "tier": "low", "percentile": 97.4, "z": 2.55, "wind_ms": 14.74, "value": 1007.52, "lat": 11.5, "lon": 82.25}}, {"type": "Feature", "geometry": {"type": "Polygon", "coordinates": [[[82.375, 11.375], [82.625, 11.375], [82.625, 11.625], [82.375, 11.625], [82.375, 11.375]]]}, "properties": {"time": "2020-11-25T18:00:00", "variable": "msl", "tier": "low", "percentile": 96.5, "z": 2.18, "wind_ms": 13.74, "value": 1008.07, "lat": 11.5, "lon": 82.5}}, {"type": "Feature", "geometry": {"type": "Polygon", "coordinates": [[[82.625, 11.375], [82.875, 11.375], [82.875, 11.625], [82.625, 11.625], [82.625, 11.375]]]}, "properties": {"time": "2020-11-25T18:00:00", "variable": "msl", "tier": "low", "percentile": 94.8, "z": 1.83, "wind_ms": 12.95, "value": 1008.59, "lat": 11.5, "lon": 82.75}}, {"type": "Feature", "geometry": {"type": "Polygon", "coordinates": [[[82.875, 11.375], [83.125, 11.375], [83.125, 11.625], [82.875, 11.625], [82.875, 11.375]]]}, "properties": {"time": "2020-11-25T18:00:00", "variable": "msl", "tier": "low", "percentile": 93.0, "z": 1.55, "wind_ms": 12.27, "value": 1009.01, "lat": 11.5, "lon": 83.0}}, {"type": "Feature", "geometry": {"type": "Polygon", "coordinates": [[[79.375, 11.625], [79.625, 11.625], [79.625, 11.875], [79.375, 11.875], [79.375, 11.625]]]}, "properties": {"time": "2020-11-25T18:00:00", "variable": "msl", "tier": "low", "percentile": 100.0, "z": 5.73, "wind_ms": 8.72, "value": 1003.19, "lat": 11.75, "lon": 79.5}}, {"type": "Feature", "geometry": {"type": "Polygon", "coordinates": [[[79.625, 11.625], [79.875, 11.625], [79.875, 11.875], [79.625, 11.875], [79.625, 11.625]]]}, "properties": {"time": "2020-11-25T18:00:00", "variable": "msl", "tier": "low", "percentile": 100.0, "z": 6.82, "wind_ms": 12.57, "value": 1001.15, "lat": 11.75, "lon": 79.75}}, {"type": "Feature", "geometry": {"type": "Polygon", "coordinates": [[[79.875, 11.625], [80.125, 11.625], [80.125, 11.875], [79.875, 11.875], [79.875, 11.625]]]}, "properties": {"time": "2020-11-25T18:00:00", "variable": "msl", "tier": "low", "percentile": 100.0, "z": 7.6, "wind_ms": 16.28, "value": 999.64, "lat": 11.75, "lon": 80.0}}, {"type": "Feature", "geometry": {"type": "Polygon", "coordinates": [[[80.125, 11.625], [80.375, 11.625], [80.375, 11.875], [80.125, 11.875], [80.125, 11.625]]]}, "properties": {"time": "2020-11-25T18:00:00", "variable": "msl", "tier": "low", "percentile": 100.0, "z": 8.28, "wind_ms": 15.68, "value": 998.42, "lat": 11.75, "lon": 80.25}}, {"type": "Feature", "geometry": {"type": "Polygon", "coordinates": [[[80.375, 11.625], [80.625, 11.625], [80.625, 11.875], [80.375, 11.875], [80.375, 11.625]]]}, "properties": {"time": "2020-11-25T18:00:00", "variable": "msl", "tier": "low", "percentile": 100.0, "z": 8.34, "wind_ms": 15.69, "value": 998.3, "lat": 11.75, "lon": 80.5}}, {"type": "Feature", "geometry": {"type": "Polygon", "coordinates": [[[80.625, 11.625], [80.875, 11.625], [80.875, 11.875], [80.625, 11.875], [80.625, 11.625]]]}, "properties": {"time": "2020-11-25T18:00:00", "variable": "msl", "tier": "low", "percentile": 100.0, "z": 7.73, "wind_ms": 16.63, "value": 999.28, "lat": 11.75, "lon": 80.75}}, {"type": "Feature", "geometry": {"type": "Polygon", "coordinates": [[[80.875, 11.625], [81.125, 11.625], [81.125, 11.875], [80.875, 11.875], [80.875, 11.625]]]}, "properties": {"time": "2020-11-25T18:00:00", "variable": "msl", "tier": "moderate", "percentile": 100.0, "z": 6.93, "wind_ms": 18.4, "value": 1000.59, "lat": 11.75, "lon": 81.0}}, {"type": "Feature", "geometry": {"type": "Polygon", "coordinates": [[[81.125, 11.625], [81.375, 11.625], [81.375, 11.875], [81.125, 11.875], [81.125, 11.625]]]}, "properties": {"time": "2020-11-25T18:00:00", "variable": "msl", "tier": "moderate", "percentile": 100.0, "z": 5.83, "wind_ms": 19.39, "value": 1002.37, "lat": 11.75, "lon": 81.25}}, {"type": "Feature", "geometry": {"type": "Polygon", "coordinates": [[[81.375, 11.625], [81.625, 11.625], [81.625, 11.875], [81.375, 11.875], [81.375, 11.625]]]}, "properties": {"time": "2020-11-25T18:00:00", "variable": "msl", "tier": "moderate", "percentile": 100.0, "z": 4.77, "wind_ms": 18.82, "value": 1004.07, "lat": 11.75, "lon": 81.5}}, {"type": "Feature", "geometry": {"type": "Polygon", "coordinates": [[[81.625, 11.625], [81.875, 11.625], [81.875, 11.875], [81.625, 11.875], [81.625, 11.625]]]}, "properties": {"time": "2020-11-25T18:00:00", "variable": "msl", "tier": "moderate", "percentile": 100.0, "z": 3.97, "wind_ms": 18.17, "value": 1005.32, "lat": 11.75, "lon": 81.75}}, {"type": "Feature", "geometry": {"type": "Polygon", "coordinates": [[[81.875, 11.625], [82.125, 11.625], [82.125, 11.875], [81.875, 11.875], [81.875, 11.625]]]}, "properties": {"time": "2020-11-25T18:00:00", "variable": "msl", "tier": "low", "percentile": 99.1, "z": 3.27, "wind_ms": 16.8, "value": 1006.42, "lat": 11.75, "lon": 82.0}}, {"type": "Feature", "geometry": {"type": "Polygon", "coordinates": [[[82.125, 11.625], [82.375, 11.625], [82.375, 11.875], [82.125, 11.875], [82.125, 11.625]]]}, "properties": {"time": "2020-11-25T18:00:00", "variable": "msl", "tier": "low", "percentile": 98.3, "z": 2.75, "wind_ms": 15.33, "value": 1007.24, "lat": 11.75, "lon": 82.25}}, {"type": "Feature", "geometry": {"type": "Polygon", "coordinates": [[[82.375, 11.625], [82.625, 11.625], [82.625, 11.875], [82.375, 11.875], [82.375, 11.625]]]}, "properties": {"time": "2020-11-25T18:00:00", "variable": "msl", "tier": "low", "percentile": 96.5, "z": 2.29, "wind_ms": 14.13, "value": 1007.93, "lat": 11.75, "lon": 82.5}}, {"type": "Feature", "geometry": {"type": "Polygon", "coordinates": [[[82.625, 11.625], [82.875, 11.625], [82.875, 11.875], [82.625, 11.875], [82.625, 11.625]]]}, "properties": {"time": "2020-11-25T18:00:00", "variable": "msl", "tier": "low", "percentile": 95.7, "z": 1.93, "wind_ms": 13.32, "value": 1008.48, "lat": 11.75, "lon": 82.75}}, {"type": "Feature", "geometry": {"type": "Polygon", "coordinates": [[[82.875, 11.625], [83.125, 11.625], [83.125, 11.875], [82.875, 11.875], [82.875, 11.625]]]}, "properties": {"time": "2020-11-25T18:00:00", "variable": "msl", "tier": "low", "percentile": 93.9, "z": 1.65, "wind_ms": 12.6, "value": 1008.91, "lat": 11.75, "lon": 83.0}}, {"type": "Feature", "geometry": {"type": "Polygon", "coordinates": [[[79.375, 11.875], [79.625, 11.875], [79.625, 12.125], [79.375, 12.125], [79.375, 11.875]]]}, "properties": {"time": "2020-11-25T18:00:00", "variable": "msl", "tier": "low", "percentile": 100.0, "z": 6.34, "wind_ms": 9.7, "value": 1002.28, "lat": 12.0, "lon": 79.5}}, {"type": "Feature", "geometry": {"type": "Polygon", "coordinates": [[[79.625, 11.875], [79.875, 11.875], [79.875, 12.125], [79.625, 12.125], [79.625, 11.875]]]}, "properties": {"time": "2020-11-25T18:00:00", "variable": "msl", "tier": "low", "percentile": 100.0, "z": 7.54, "wind_ms": 13.08, "value": 1000.04, "lat": 12.0, "lon": 79.75}}, {"type": "Feature", "geometry": {"type": "Polygon", "coordinates": [[[79.875, 11.875], [80.125, 11.875], [80.125, 12.125], [79.875, 12.125], [79.875, 11.875]]]}, "properties": {"time": "2020-11-25T18:00:00", "variable": "msl", "tier": "low", "percentile": 100.0, "z": 8.77, "wind_ms": 11.69, "value": 997.82, "lat": 12.0, "lon": 80.0}}, {"type": "Feature", "geometry": {"type": "Polygon", "coordinates": [[[80.125, 11.875], [80.375, 11.875], [80.375, 12.125], [80.125, 12.125], [80.125, 11.875]]]}, "properties": {"time": "2020-11-25T18:00:00", "variable": "msl", "tier": "low", "percentile": 100.0, "z": 9.57, "wind_ms": 8.75, "value": 996.43, "lat": 12.0, "lon": 80.25}}, {"type": "Feature", "geometry": {"type": "Polygon", "coordinates": [[[80.375, 11.875], [80.625, 11.875], [80.625, 12.125], [80.375, 12.125], [80.375, 11.875]]]}, "properties": {"time": "2020-11-25T18:00:00", "variable": "msl", "tier": "low", "percentile": 100.0, "z": 9.55, "wind_ms": 9.02, "value": 996.41, "lat": 12.0, "lon": 80.5}}, {"type": "Feature", "geometry": {"type": "Polygon", "coordinates": [[[80.625, 11.875], [80.875, 11.875], [80.875, 12.125], [80.625, 12.125], [80.625, 11.875]]]}, "properties": {"time": "2020-11-25T18:00:00", "variable": "msl", "tier": "low", "percentile": 100.0, "z": 8.75, "wind_ms": 13.05, "value": 997.69, "lat": 12.0, "lon": 80.75}}, {"type": "Feature", "geometry": {"type": "Polygon", "coordinates": [[[80.875, 11.875], [81.125, 11.875], [81.125, 12.125], [80.875, 12.125], [80.875, 11.875]]]}, "properties": {"time": "2020-11-25T18:00:00", "variable": "msl", "tier": "moderate", "percentile": 100.0, "z": 7.59, "wind_ms": 17.03, "value": 999.55, "lat": 12.0, "lon": 81.0}}, {"type": "Feature", "geometry": {"type": "Polygon", "coordinates": [[[81.125, 11.875], [81.375, 11.875], [81.375, 12.125], [81.125, 12.125], [81.125, 11.875]]]}, "properties": {"time": "2020-11-25T18:00:00", "variable": "msl", "tier": "moderate", "percentile": 100.0, "z": 6.19, "wind_ms": 19.25, "value": 1001.81, "lat": 12.0, "lon": 81.25}}, {"type": "Feature", "geometry": {"type": "Polygon", "coordinates": [[[81.375, 11.875], [81.625, 11.875], [81.625, 12.125], [81.375, 12.125], [81.375, 11.875]]]}, "properties": {"time": "2020-11-25T18:00:00", "variable": "msl", "tier": "moderate", "percentile": 100.0, "z": 5.05, "wind_ms": 19.39, "value": 1003.65, "lat": 12.0, "lon": 81.5}}, {"type": "Feature", "geometry": {"type": "Polygon", "coordinates": [[[81.625, 11.875], [81.875, 11.875], [81.875, 12.125], [81.625, 12.125], [81.625, 11.875]]]}, "properties": {"time": "2020-11-25T18:00:00", "variable": "msl", "tier": "moderate", "percentile": 100.0, "z": 4.16, "wind_ms": 18.57, "value": 1005.06, "lat": 12.0, "lon": 81.75}}, {"type": "Feature", "geometry": {"type": "Polygon", "coordinates": [[[81.875, 11.875], [82.125, 11.875], [82.125, 12.125], [81.875, 12.125], [81.875, 11.875]]]}, "properties": {"time": "2020-11-25T18:00:00", "variable": "msl", "tier": "moderate", "percentile": 99.1, "z": 3.44, "wind_ms": 17.23, "value": 1006.19, "lat": 12.0, "lon": 82.0}}, {"type": "Feature", "geometry": {"type": "Polygon", "coordinates": [[[82.125, 11.875], [82.375, 11.875], [82.375, 12.125], [82.125, 12.125], [82.125, 11.875]]]}, "properties": {"time": "2020-11-25T18:00:00", "variable": "msl", "tier": "low", "percentile": 98.3, "z": 2.86, "wind_ms": 15.67, "value": 1007.11, "lat": 12.0, "lon": 82.25}}, {"type": "Feature", "geometry": {"type": "Polygon", "coordinates": [[[82.375, 11.875], [82.625, 11.875], [82.625, 12.125], [82.375, 12.125], [82.375, 11.875]]]}, "properties": {"time": "2020-11-25T18:00:00", "variable": "msl", "tier": "low", "percentile": 96.5, "z": 2.4, "wind_ms": 14.45, "value": 1007.82, "lat": 12.0, "lon": 82.5}}, {"type": "Feature", "geometry": {"type": "Polygon", "coordinates": [[[82.625, 11.875], [82.875, 11.875], [82.875, 12.125], [82.625, 12.125], [82.625, 11.875]]]}, "properties": {"time": "2020-11-25T18:00:00", "variable": "msl", "tier": "low", "percentile": 96.5, "z": 2.02, "wind_ms": 13.48, "value": 1008.39, "lat": 12.0, "lon": 82.75}}, {"type": "Feature", "geometry": {"type": "Polygon", "coordinates": [[[82.875, 11.875], [83.125, 11.875], [83.125, 12.125], [82.875, 12.125], [82.875, 11.875]]]}, "properties": {"time": "2020-11-25T18:00:00", "variable": "msl", "tier": "low", "percentile": 95.7, "z": 1.73, "wind_ms": 12.81, "value": 1008.82, "lat": 12.0, "lon": 83.0}}, {"type": "Feature", "geometry": {"type": "Polygon", "coordinates": [[[79.375, 12.125], [79.625, 12.125], [79.625, 12.375], [79.375, 12.375], [79.375, 12.125]]]}, "properties": {"time": "2020-11-25T18:00:00", "variable": "msl", "tier": "low", "percentile": 100.0, "z": 6.53, "wind_ms": 10.17, "value": 1002.01, "lat": 12.25, "lon": 79.5}}, {"type": "Feature", "geometry": {"type": "Polygon", "coordinates": [[[79.625, 12.125], [79.875, 12.125], [79.875, 12.375], [79.625, 12.375], [79.625, 12.125]]]}, "properties": {"time": "2020-11-25T18:00:00", "variable": "msl", "tier": "low", "percentile": 100.0, "z": 7.84, "wind_ms": 10.28, "value": 999.62, "lat": 12.25, "lon": 79.75}}, {"type": "Feature", "geometry": {"type": "Polygon", "coordinates": [[[80.375, 12.125], [80.625, 12.125], [80.625, 12.375], [80.375, 12.375], [80.375, 12.125]]]}, "properties": {"time": "2020-11-25T18:00:00", "variable": "msl", "tier": "low", "percentile": 100.0, "z": 9.98, "wind_ms": 10.71, "value": 995.78, "lat": 12.25, "lon": 80.5}}, {"type": "Feature", "geometry": {"type": "Polygon", "coordinates": [[[80.625, 12.125], [80.875, 12.125], [80.875, 12.375], [80.625, 12.375], [80.625, 12.125]]]}, "properties": {"time": "2020-11-25T18:00:00", "variable": "msl", "tier": "low", "percentile": 100.0, "z": 9.01, "wind_ms": 14.18, "value": 997.33, "lat": 12.25, "lon": 80.75}}, {"type": "Feature", "geometry": {"type": "Polygon", "coordinates": [[[80.875, 12.125], [81.125, 12.125], [81.125, 12.375], [80.875, 12.375], [80.875, 12.125]]]}, "properties": {"time": "2020-11-25T18:00:00", "variable": "msl", "tier": "moderate", "percentile": 100.0, "z": 7.74, "wind_ms": 17.03, "value": 999.37, "lat": 12.25, "lon": 81.0}}, {"type": "Feature", "geometry": {"type": "Polygon", "coordinates": [[[81.125, 12.125], [81.375, 12.125], [81.375, 12.375], [81.125, 12.375], [81.125, 12.125]]]}, "properties": {"time": "2020-11-25T18:00:00", "variable": "msl", "tier": "moderate", "percentile": 100.0, "z": 6.27, "wind_ms": 19.77, "value": 1001.73, "lat": 12.25, "lon": 81.25}}, {"type": "Feature", "geometry": {"type": "Polygon", "coordinates": [[[81.375, 12.125], [81.625, 12.125], [81.625, 12.375], [81.375, 12.375], [81.375, 12.125]]]}, "properties": {"time": "2020-11-25T18:00:00", "variable": "msl", "tier": "moderate", "percentile": 100.0, "z": 5.14, "wind_ms": 19.79, "value": 1003.52, "lat": 12.25, "lon": 81.5}}, {"type": "Feature", "geometry": {"type": "Polygon", "coordinates": [[[81.625, 12.125], [81.875, 12.125], [81.875, 12.375], [81.625, 12.375], [81.625, 12.125]]]}, "properties": {"time": "2020-11-25T18:00:00", "variable": "msl", "tier": "moderate", "percentile": 100.0, "z": 4.25, "wind_ms": 19.0, "value": 1004.94, "lat": 12.25, "lon": 81.75}}, {"type": "Feature", "geometry": {"type": "Polygon", "coordinates": [[[81.875, 12.125], [82.125, 12.125], [82.125, 12.375], [81.875, 12.375], [81.875, 12.125]]]}, "properties": {"time": "2020-11-25T18:00:00", "variable": "msl", "tier": "moderate", "percentile": 99.1, "z": 3.52, "wind_ms": 17.38, "value": 1006.09, "lat": 12.25, "lon": 82.0}}, {"type": "Feature", "geometry": {"type": "Polygon", "coordinates": [[[82.125, 12.125], [82.375, 12.125], [82.375, 12.375], [82.125, 12.375], [82.125, 12.125]]]}, "properties": {"time": "2020-11-25T18:00:00", "variable": "msl", "tier": "low", "percentile": 98.3, "z": 2.93, "wind_ms": 15.74, "value": 1007.03, "lat": 12.25, "lon": 82.25}}, {"type": "Feature", "geometry": {"type": "Polygon", "coordinates": [[[82.375, 12.125], [82.625, 12.125], [82.625, 12.375], [82.375, 12.375], [82.375, 12.125]]]}, "properties": {"time": "2020-11-25T18:00:00", "variable": "msl", "tier": "low", "percentile": 97.4, "z": 2.45, "wind_ms": 14.53, "value": 1007.78, "lat": 12.25, "lon": 82.5}}, {"type": "Feature", "geometry": {"type": "Polygon", "coordinates": [[[82.625, 12.125], [82.875, 12.125], [82.875, 12.375], [82.625, 12.375], [82.625, 12.125]]]}, "properties": {"time": "2020-11-25T18:00:00", "variable": "msl", "tier": "low", "percentile": 96.5, "z": 2.07, "wind_ms": 13.54, "value": 1008.37, "lat": 12.25, "lon": 82.75}}, {"type": "Feature", "geometry": {"type": "Polygon", "coordinates": [[[82.875, 12.125], [83.125, 12.125], [83.125, 12.375], [82.875, 12.375], [82.875, 12.125]]]}, "properties": {"time": "2020-11-25T18:00:00", "variable": "msl", "tier": "low", "percentile": 95.7, "z": 1.81, "wind_ms": 12.97, "value": 1008.77, "lat": 12.25, "lon": 83.0}}, {"type": "Feature", "geometry": {"type": "Polygon", "coordinates": [[[79.375, 12.375], [79.625, 12.375], [79.625, 12.625], [79.375, 12.625], [79.375, 12.375]]]}, "properties": {"time": "2020-11-25T18:00:00", "variable": "msl", "tier": "low", "percentile": 100.0, "z": 6.19, "wind_ms": 10.45, "value": 1002.69, "lat": 12.5, "lon": 79.5}}, {"type": "Feature", "geometry": {"type": "Polygon", "coordinates": [[[79.625, 12.375], [79.875, 12.375], [79.875, 12.625], [79.625, 12.625], [79.625, 12.375]]]}, "properties": {"time": "2020-11-25T18:00:00", "variable": "msl", "tier": "low", "percentile": 100.0, "z": 7.34, "wind_ms": 10.32, "value": 1000.54, "lat": 12.5, "lon": 79.75}}, {"type": "Feature", "geometry": {"type": "Polygon", "coordinates": [[[79.875, 12.375], [80.125, 12.375], [80.125, 12.625], [79.875, 12.625], [79.875, 12.375]]]}, "properties": {"time": "2020-11-25T18:00:00", "variable": "msl", "tier": "low", "percentile": 100.0, "z": 8.41, "wind_ms": 10.48, "value": 998.57, "lat": 12.5, "lon": 80.0}}, {"type": "Feature", "geometry": {"type": "Polygon", "coordinates": [[[80.125, 12.375], [80.375, 12.375], [80.375, 12.625], [80.125, 12.625], [80.125, 12.375]]]}, "properties": {"time": "2020-11-25T18:00:00", "variable": "msl", "tier": "low", "percentile": 100.0, "z": 9.12, "wind_ms": 13.66, "value": 997.24, "lat": 12.5, "lon": 80.25}}, {"type": "Feature", "geometry": {"type": "Polygon", "coordinates": [[[80.375, 12.375], [80.625, 12.375], [80.625, 12.625], [80.375, 12.625], [80.375, 12.375]]]}, "properties": {"time": "2020-11-25T18:00:00", "variable": "msl", "tier": "low", "percentile": 100.0, "z": 9.16, "wind_ms": 16.76, "value": 997.14, "lat": 12.5, "lon": 80.5}}, {"type": "Feature", "geometry": {"type": "Polygon", "coordinates": [[[80.625, 12.375], [80.875, 12.375], [80.875, 12.625], [80.625, 12.625], [80.625, 12.375]]]}, "properties": {"time": "2020-11-25T18:00:00", "variable": "msl", "tier": "moderate", "percentile": 100.0, "z": 8.4, "wind_ms": 17.67, "value": 998.35, "lat": 12.5, "lon": 80.75}}, {"type": "Feature", "geometry": {"type": "Polygon", "coordinates": [[[80.875, 12.375], [81.125, 12.375], [81.125, 12.625], [80.875, 12.625], [80.875, 12.375]]]}, "properties": {"time": "2020-11-25T18:00:00", "variable": "msl", "tier": "moderate", "percentile": 100.0, "z": 7.3, "wind_ms": 18.82, "value": 1000.12, "lat": 12.5, "lon": 81.0}}, {"type": "Feature", "geometry": {"type": "Polygon", "coordinates": [[[81.125, 12.375], [81.375, 12.375], [81.375, 12.625], [81.125, 12.625], [81.125, 12.375]]]}, "properties": {"time": "2020-11-25T18:00:00", "variable": "msl", "tier": "moderate", "percentile": 100.0, "z": 6.04, "wind_ms": 20.58, "value": 1002.12, "lat": 12.5, "lon": 81.25}}, {"type": "Feature", "geometry": {"type": "Polygon", "coordinates": [[[81.375, 12.375], [81.625, 12.375], [81.625, 12.625], [81.375, 12.625], [81.375, 12.375]]]}, "properties": {"time": "2020-11-25T18:00:00", "variable": "msl", "tier": "moderate", "percentile": 100.0, "z": 5.03, "wind_ms": 20.06, "value": 1003.74, "lat": 12.5, "lon": 81.5}}, {"type": "Feature", "geometry": {"type": "Polygon", "coordinates": [[[81.625, 12.375], [81.875, 12.375], [81.875, 12.625], [81.625, 12.625], [81.625, 12.375]]]}, "properties": {"time": "2020-11-25T18:00:00", "variable": "msl", "tier": "moderate", "percentile": 100.0, "z": 4.18, "wind_ms": 18.67, "value": 1005.1, "lat": 12.5, "lon": 81.75}}, {"type": "Feature", "geometry": {"type": "Polygon", "coordinates": [[[81.875, 12.375], [82.125, 12.375], [82.125, 12.625], [81.875, 12.625], [81.875, 12.375]]]}, "properties": {"time": "2020-11-25T18:00:00", "variable": "msl", "tier": "low", "percentile": 99.1, "z": 3.48, "wind_ms": 16.97, "value": 1006.23, "lat": 12.5, "lon": 82.0}}, {"type": "Feature", "geometry": {"type": "Polygon", "coordinates": [[[82.125, 12.375], [82.375, 12.375], [82.375, 12.625], [82.125, 12.625], [82.125, 12.375]]]}, "properties": {"time": "2020-11-25T18:00:00", "variable": "msl", "tier": "low", "percentile": 98.3, "z": 2.92, "wind_ms": 15.5, "value": 1007.14, "lat": 12.5, "lon": 82.25}}, {"type": "Feature", "geometry": {"type": "Polygon", "coordinates": [[[82.375, 12.375], [82.625, 12.375], [82.625, 12.625], [82.375, 12.625], [82.375, 12.375]]]}, "properties": {"time": "2020-11-25T18:00:00", "variable": "msl", "tier": "low", "percentile": 97.4, "z": 2.46, "wind_ms": 14.36, "value": 1007.84, "lat": 12.5, "lon": 82.5}}, {"type": "Feature", "geometry": {"type": "Polygon", "coordinates": [[[82.625, 12.375], [82.875, 12.375], [82.875, 12.625], [82.625, 12.625], [82.625, 12.375]]]}, "properties": {"time": "2020-11-25T18:00:00", "variable": "msl", "tier": "low", "percentile": 96.5, "z": 2.11, "wind_ms": 13.49, "value": 1008.36, "lat": 12.5, "lon": 82.75}}, {"type": "Feature", "geometry": {"type": "Polygon", "coordinates": [[[82.875, 12.375], [83.125, 12.375], [83.125, 12.625], [82.875, 12.625], [82.875, 12.375]]]}, "properties": {"time": "2020-11-25T18:00:00", "variable": "msl", "tier": "low", "percentile": 95.7, "z": 1.88, "wind_ms": 13.05, "value": 1008.71, "lat": 12.5, "lon": 83.0}}, {"type": "Feature", "geometry": {"type": "Polygon", "coordinates": [[[79.375, 12.625], [79.625, 12.625], [79.625, 12.875], [79.375, 12.875], [79.375, 12.625]]]}, "properties": {"time": "2020-11-25T18:00:00", "variable": "msl", "tier": "low", "percentile": 100.0, "z": 5.4, "wind_ms": 9.37, "value": 1004.08, "lat": 12.75, "lon": 79.5}}, {"type": "Feature", "geometry": {"type": "Polygon", "coordinates": [[[79.625, 12.625], [79.875, 12.625], [79.875, 12.875], [79.625, 12.875], [79.625, 12.625]]]}, "properties": {"time": "2020-11-25T18:00:00", "variable": "msl", "tier": "low", "percentile": 100.0, "z": 6.41, "wind_ms": 9.93, "value": 1002.16, "lat": 12.75, "lon": 79.75}}, {"type": "Feature", "geometry": {"type": "Polygon", "coordinates": [[[79.875, 12.625], [80.125, 12.625], [80.125, 12.875], [79.875, 12.875], [79.875, 12.625]]]}, "properties": {"time": "2020-11-25T18:00:00", "variable": "msl", "tier": "low", "percentile": 100.0, "z": 7.24, "wind_ms": 10.08, "value": 1000.6, "lat": 12.75, "lon": 80.0}}, {"type": "Feature", "geometry": {"type": "Polygon", "coordinates": [[[80.125, 12.625], [80.375, 12.625], [80.375, 12.875], [80.125, 12.875], [80.125, 12.625]]]}, "properties": {"time": "2020-11-25T18:00:00", "variable": "msl", "tier": "low", "percentile": 100.0, "z": 7.81, "wind_ms": 13.06, "value": 999.5, "lat": 12.75, "lon": 80.25}}, {"type": "Feature", "geometry": {"type": "Polygon", "coordinates": [[[80.375, 12.625], [80.625, 12.625], [80.625, 12.875], [80.375, 12.875], [80.375, 12.625]]]}, "properties": {"time": "2020-11-25T18:00:00", "variable": "msl", "tier": "moderate", "percentile": 100.0, "z": 7.92, "wind_ms": 18.29, "value": 999.23, "lat": 12.75, "lon": 80.5}}, {"type": "Feature", "geometry": {"type": "Polygon", "coordinates": [[[80.625, 12.625], [80.875, 12.625], [80.875, 12.875], [80.625, 12.875], [80.625, 12.625]]]}, "properties": {"time": "2020-11-25T18:00:00", "variable": "msl", "tier": "moderate", "percentile": 100.0, "z": 7.41, "wind_ms": 19.8, "value": 1000.01, "lat": 12.75, "lon": 80.75}}, {"type": "Feature", "geometry": {"type": "Polygon", "coordinates": [[[80.875, 12.625], [81.125, 12.625], [81.125, 12.875], [80.875, 12.875], [80.875, 12.625]]]}, "properties": {"time": "2020-11-25T18:00:00", "variable": "msl", "tier": "moderate", "percentile": 100.0, "z": 6.55, "wind_ms": 20.58, "value": 1001.35, "lat": 12.75, "lon": 81.0}}, {"type": "Feature", "geometry": {"type": "Polygon", "coordinates": [[[81.125, 12.625], [81.375, 12.625], [81.375, 12.875], [81.125, 12.875], [81.125, 12.625]]]}, "properties": {"time": "2020-11-25T18:00:00", "variable": "msl", "tier": "moderate", "percentile": 100.0, "z": 5.62, "wind_ms": 20.6, "value": 1002.82, "lat": 12.75, "lon": 81.25}}, {"type": "Feature", "geometry": {"type": "Polygon", "coordinates": [[[81.375, 12.625], [81.625, 12.625], [81.625, 12.875], [81.375, 12.875], [81.375, 12.625]]]}, "properties": {"time": "2020-11-25T18:00:00", "variable": "msl", "tier": "moderate", "percentile": 100.0, "z": 4.73, "wind_ms": 19.73, "value": 1004.26, "lat": 12.75, "lon": 81.5}}, {"type": "Feature", "geometry": {"type": "Polygon", "coordinates": [[[81.625, 12.625], [81.875, 12.625], [81.875, 12.875], [81.625, 12.875], [81.625, 12.625]]]}, "properties": {"time": "2020-11-25T18:00:00", "variable": "msl", "tier": "moderate", "percentile": 99.1, "z": 3.97, "wind_ms": 17.95, "value": 1005.48, "lat": 12.75, "lon": 81.75}}, {"type": "Feature", "geometry": {"type": "Polygon", "coordinates": [[[81.875, 12.625], [82.125, 12.625], [82.125, 12.875], [81.875, 12.875], [81.875, 12.625]]]}, "properties": {"time": "2020-11-25T18:00:00", "variable": "msl", "tier": "low", "percentile": 99.1, "z": 3.33, "wind_ms": 16.18, "value": 1006.52, "lat": 12.75, "lon": 82.0}}, {"type": "Feature", "geometry": {"type": "Polygon", "coordinates": [[[82.125, 12.625], [82.375, 12.625], [82.375, 12.875], [82.125, 12.875], [82.125, 12.625]]]}, "properties": {"time": "2020-11-25T18:00:00", "variable": "msl", "tier": "low", "percentile": 98.3, "z": 2.85, "wind_ms": 14.92, "value": 1007.31, "lat": 12.75, "lon": 82.25}}, {"type": "Feature", "geometry": {"type": "Polygon", "coordinates": [[[82.375, 12.625], [82.625, 12.625], [82.625, 12.875], [82.375, 12.875], [82.375, 12.625]]]}, "properties": {"time": "2020-11-25T18:00:00", "variable": "msl", "tier": "low", "percentile": 97.4, "z": 2.44, "wind_ms": 14.03, "value": 1007.95, "lat": 12.75, "lon": 82.5}}, {"type": "Feature", "geometry": {"type": "Polygon", "coordinates": [[[82.625, 12.625], [82.875, 12.625], [82.875, 12.875], [82.625, 12.875], [82.625, 12.625]]]}, "properties": {"time": "2020-11-25T18:00:00", "variable": "msl", "tier": "low", "percentile": 95.7, "z": 2.14, "wind_ms": 13.44, "value": 1008.4, "lat": 12.75, "lon": 82.75}}, {"type": "Feature", "geometry": {"type": "Polygon", "coordinates": [[[82.875, 12.625], [83.125, 12.625], [83.125, 12.875], [82.875, 12.875], [82.875, 12.625]]]}, "properties": {"time": "2020-11-25T18:00:00", "variable": "msl", "tier": "low", "percentile": 95.7, "z": 1.92, "wind_ms": 13.12, "value": 1008.74, "lat": 12.75, "lon": 83.0}}, {"type": "Feature", "geometry": {"type": "Polygon", "coordinates": [[[79.625, 12.875], [79.875, 12.875], [79.875, 13.125], [79.625, 13.125], [79.625, 12.875]]]}, "properties": {"time": "2020-11-25T18:00:00", "variable": "msl", "tier": "low", "percentile": 100.0, "z": 5.35, "wind_ms": 9.23, "value": 1004.0, "lat": 13.0, "lon": 79.75}}, {"type": "Feature", "geometry": {"type": "Polygon", "coordinates": [[[79.875, 12.875], [80.125, 12.875], [80.125, 13.125], [79.875, 13.125], [79.875, 12.875]]]}, "properties": {"time": "2020-11-25T18:00:00", "variable": "msl", "tier": "low", "percentile": 100.0, "z": 6.05, "wind_ms": 10.09, "value": 1002.61, "lat": 13.0, "lon": 80.0}}, {"type": "Feature", "geometry": {"type": "Polygon", "coordinates": [[[80.125, 12.875], [80.375, 12.875], [80.375, 13.125], [80.125, 13.125], [80.125, 12.875]]]}, "properties": {"time": "2020-11-25T18:00:00", "variable": "msl", "tier": "low", "percentile": 100.0, "z": 6.41, "wind_ms": 13.46, "value": 1001.84, "lat": 13.0, "lon": 80.25}}, {"type": "Feature", "geometry": {"type": "Polygon", "coordinates": [[[80.375, 12.875], [80.625, 12.875], [80.625, 13.125], [80.375, 13.125], [80.375, 12.875]]]}, "properties": {"time": "2020-11-25T18:00:00", "variable": "msl", "tier": "moderate", "percentile": 100.0, "z": 6.5, "wind_ms": 18.21, "value": 1001.58, "lat": 13.0, "lon": 80.5}}, {"type": "Feature", "geometry": {"type": "Polygon", "coordinates": [[[80.625, 12.875], [80.875, 12.875], [80.875, 13.125], [80.625, 13.125], [80.625, 12.875]]]}, "properties": {"time": "2020-11-25T18:00:00", "variable": "msl", "tier": "moderate", "percentile": 100.0, "z": 6.33, "wind_ms": 19.67, "value": 1001.8, "lat": 13.0, "lon": 80.75}}, {"type": "Feature", "geometry": {"type": "Polygon", "coordinates": [[[80.875, 12.875], [81.125, 12.875], [81.125, 13.125], [80.875, 13.125], [80.875, 12.875]]]}, "properties": {"time": "2020-11-25T18:00:00", "variable": "msl", "tier": "moderate", "percentile": 100.0, "z": 5.74, "wind_ms": 19.63, "value": 1002.71, "lat": 13.0, "lon": 81.0}}, {"type": "Feature", "geometry": {"type": "Polygon", "coordinates": [[[81.125, 12.875], [81.375, 12.875], [81.375, 13.125], [81.125, 13.125], [81.125, 12.875]]]}, "properties": {"time": "2020-11-25T18:00:00", "variable": "msl", "tier": "moderate", "percentile": 100.0, "z": 5.08, "wind_ms": 19.44, "value": 1003.74, "lat": 13.0, "lon": 81.25}}, {"type": "Feature", "geometry": {"type": "Polygon", "coordinates": [[[81.375, 12.875], [81.625, 12.875], [81.625, 13.125], [81.375, 13.125], [81.375, 12.875]]]}, "properties": {"time": "2020-11-25T18:00:00", "variable": "msl", "tier": "moderate", "percentile": 100.0, "z": 4.42, "wind_ms": 18.85, "value": 1004.8, "lat": 13.0, "lon": 81.5}}, {"type": "Feature", "geometry": {"type": "Polygon", "coordinates": [[[81.625, 12.875], [81.875, 12.875], [81.875, 13.125], [81.625, 13.125], [81.625, 12.875]]]}, "properties": {"time": "2020-11-25T18:00:00", "variable": "msl", "tier": "moderate", "percentile": 99.1, "z": 3.72, "wind_ms": 17.33, "value": 1005.96, "lat": 13.0, "lon": 81.75}}, {"type": "Feature", "geometry": {"type": "Polygon", "coordinates": [[[81.875, 12.875], [82.125, 12.875], [82.125, 13.125], [81.875, 13.125], [81.875, 12.875]]]}, "properties": {"time": "2020-11-25T18:00:00", "variable": "msl", "tier": "low", "percentile": 98.3, "z": 3.18, "wind_ms": 15.78, "value": 1006.86, "lat": 13.0, "lon": 82.0}}, {"type": "Feature", "geometry": {"type": "Polygon", "coordinates": [[[82.125, 12.875], [82.375, 12.875], [82.375, 13.125], [82.125, 13.125], [82.125, 12.875]]]}, "properties": {"time": "2020-11-25T18:00:00", "variable": "msl", "tier": "low", "percentile": 98.3, "z": 2.72, "wind_ms": 14.52, "value": 1007.6, "lat": 13.0, "lon": 82.25}}, {"type": "Feature", "geometry": {"type": "Polygon", "coordinates": [[[82.375, 12.875], [82.625, 12.875], [82.625, 13.125], [82.375, 13.125], [82.375, 12.875]]]}, "properties": {"time": "2020-11-25T18:00:00", "variable": "msl", "tier": "low", "percentile": 98.3, "z": 2.39, "wind_ms": 13.92, "value": 1008.11, "lat": 13.0, "lon": 82.5}}, {"type": "Feature", "geometry": {"type": "Polygon", "coordinates": [[[82.625, 12.875], [82.875, 12.875], [82.875, 13.125], [82.625, 13.125], [82.625, 12.875]]]}, "properties": {"time": "2020-11-25T18:00:00", "variable": "msl", "tier": "low", "percentile": 95.7, "z": 2.11, "wind_ms": 13.42, "value": 1008.52, "lat": 13.0, "lon": 82.75}}, {"type": "Feature", "geometry": {"type": "Polygon", "coordinates": [[[82.875, 12.875], [83.125, 12.875], [83.125, 13.125], [82.875, 13.125], [82.875, 12.875]]]}, "properties": {"time": "2020-11-25T18:00:00", "variable": "msl", "tier": "low", "percentile": 95.7, "z": 1.89, "wind_ms": 13.01, "value": 1008.84, "lat": 13.0, "lon": 83.0}}, {"type": "Feature", "geometry": {"type": "Polygon", "coordinates": [[[79.875, 13.125], [80.125, 13.125], [80.125, 13.375], [79.875, 13.375], [79.875, 13.125]]]}, "properties": {"time": "2020-11-25T18:00:00", "variable": "msl", "tier": "low", "percentile": 100.0, "z": 4.91, "wind_ms": 9.72, "value": 1004.57, "lat": 13.25, "lon": 80.0}}, {"type": "Feature", "geometry": {"type": "Polygon", "coordinates": [[[80.125, 13.125], [80.375, 13.125], [80.375, 13.375], [80.125, 13.375], [80.125, 13.125]]]}, "properties": {"time": "2020-11-25T18:00:00", "variable": "msl", "tier": "low", "percentile": 100.0, "z": 5.23, "wind_ms": 13.23, "value": 1003.84, "lat": 13.25, "lon": 80.25}}, {"type": "Feature", "geometry": {"type": "Polygon", "coordinates": [[[80.375, 13.125], [80.625, 13.125], [80.625, 13.375], [80.375, 13.375], [80.375, 13.125]]]}, "properties": {"time": "2020-11-25T18:00:00", "variable": "msl", "tier": "moderate", "percentile": 100.0, "z": 5.4, "wind_ms": 17.85, "value": 1003.43, "lat": 13.25, "lon": 80.5}}, {"type": "Feature", "geometry": {"type": "Polygon", "coordinates": [[[80.625, 13.125], [80.875, 13.125], [80.875, 13.375], [80.625, 13.375], [80.625, 13.125]]]}, "properties": {"time": "2020-11-25T18:00:00", "variable": "msl", "tier": "moderate", "percentile": 100.0, "z": 5.3, "wind_ms": 18.93, "value": 1003.55, "lat": 13.25, "lon": 80.75}}, {"type": "Feature", "geometry": {"type": "Polygon", "coordinates": [[[80.875, 13.125], [81.125, 13.125], [81.125, 13.375], [80.875, 13.375], [80.875, 13.125]]]}, "properties": {"time": "2020-11-25T18:00:00", "variable": "msl", "tier": "moderate", "percentile": 100.0, "z": 4.96, "wind_ms": 18.6, "value": 1004.03, "lat": 13.25, "lon": 81.0}}, {"type": "Feature", "geometry": {"type": "Polygon", "coordinates": [[[81.125, 13.125], [81.375, 13.125], [81.375, 13.375], [81.125, 13.375], [81.125, 13.125]]]}, "properties": {"time": "2020-11-25T18:00:00", "variable": "msl", "tier": "moderate", "percentile": 100.0, "z": 4.52, "wind_ms": 18.21, "value": 1004.72, "lat": 13.25, "lon": 81.25}}, {"type": "Feature", "geometry": {"type": "Polygon", "coordinates": [[[81.375, 13.125], [81.625, 13.125], [81.625, 13.375], [81.375, 13.375], [81.375, 13.125]]]}, "properties": {"time": "2020-11-25T18:00:00", "variable": "msl", "tier": "moderate", "percentile": 99.1, "z": 3.94, "wind_ms": 17.49, "value": 1005.65, "lat": 13.25, "lon": 81.5}}, {"type": "Feature", "geometry": {"type": "Polygon", "coordinates": [[[81.625, 13.125], [81.875, 13.125], [81.875, 13.375], [81.625, 13.375], [81.625, 13.125]]]}, "properties": {"time": "2020-11-25T18:00:00", "variable": "msl", "tier": "low", "percentile": 99.1, "z": 3.45, "wind_ms": 16.58, "value": 1006.45, "lat": 13.25, "lon": 81.75}}, {"type": "Feature", "geometry": {"type": "Polygon", "coordinates": [[[81.875, 13.125], [82.125, 13.125], [82.125, 13.375], [81.875, 13.375], [81.875, 13.125]]]}, "properties": {"time": "2020-11-25T18:00:00", "variable": "msl", "tier": "low", "percentile": 98.3, "z": 2.94, "wind_ms": 15.11, "value": 1007.31, "lat": 13.25, "lon": 82.0}}, {"type": "Feature", "geometry": {"type": "Polygon", "coordinates": [[[82.125, 13.125], [82.375, 13.125], [82.375, 13.375], [82.125, 13.375], [82.125, 13.125]]]}, "properties": {"time": "2020-11-25T18:00:00", "variable": "msl", "tier": "low", "percentile": 98.3, "z": 2.6, "wind_ms": 14.33, "value": 1007.83, "lat": 13.25, "lon": 82.25}}, {"type": "Feature", "geometry": {"type": "Polygon", "coordinates": [[[82.375, 13.125], [82.625, 13.125], [82.625, 13.375], [82.375, 13.375], [82.375, 13.125]]]}, "properties": {"time": "2020-11-25T18:00:00", "variable": "msl", "tier": "low", "percentile": 97.4, "z": 2.3, "wind_ms": 13.72, "value": 1008.3, "lat": 13.25, "lon": 82.5}}, {"type": "Feature", "geometry": {"type": "Polygon", "coordinates": [[[82.625, 13.125], [82.875, 13.125], [82.875, 13.375], [82.625, 13.375], [82.625, 13.125]]]}, "properties": {"time": "2020-11-25T18:00:00", "variable": "msl", "tier": "low", "percentile": 96.5, "z": 2.06, "wind_ms": 13.35, "value": 1008.67, "lat": 13.25, "lon": 82.75}}, {"type": "Feature", "geometry": {"type": "Polygon", "coordinates": [[[82.875, 13.125], [83.125, 13.125], [83.125, 13.375], [82.875, 13.375], [82.875, 13.125]]]}, "properties": {"time": "2020-11-25T18:00:00", "variable": "msl", "tier": "low", "percentile": 95.7, "z": 1.83, "wind_ms": 12.89, "value": 1009.02, "lat": 13.25, "lon": 83.0}}, {"type": "Feature", "geometry": {"type": "Polygon", "coordinates": [[[79.875, 13.375], [80.125, 13.375], [80.125, 13.625], [79.875, 13.625], [79.875, 13.375]]]}, "properties": {"time": "2020-11-25T18:00:00", "variable": "msl", "tier": "low", "percentile": 100.0, "z": 4.09, "wind_ms": 9.64, "value": 1006.05, "lat": 13.5, "lon": 80.0}}, {"type": "Feature", "geometry": {"type": "Polygon", "coordinates": [[[80.125, 13.375], [80.375, 13.375], [80.375, 13.625], [80.125, 13.625], [80.125, 13.375]]]}, "properties": {"time": "2020-11-25T18:00:00", "variable": "msl", "tier": "low", "percentile": 100.0, "z": 4.29, "wind_ms": 13.05, "value": 1005.45, "lat": 13.5, "lon": 80.25}}, {"type": "Feature", "geometry": {"type": "Polygon", "coordinates": [[[80.375, 13.375], [80.625, 13.375], [80.625, 13.625], [80.375, 13.625], [80.375, 13.375]]]}, "properties": {"time": "2020-11-25T18:00:00", "variable": "msl", "tier": "low", "percentile": 100.0, "z": 4.45, "wind_ms": 16.71, "value": 1005.07, "lat": 13.5, "lon": 80.5}}, {"type": "Feature", "geometry": {"type": "Polygon", "coordinates": [[[80.625, 13.375], [80.875, 13.375], [80.875, 13.625], [80.625, 13.625], [80.625, 13.375]]]}, "properties": {"time": "2020-11-25T18:00:00", "variable": "msl", "tier": "moderate", "percentile": 100.0, "z": 4.46, "wind_ms": 17.47, "value": 1005.01, "lat": 13.5, "lon": 80.75}}, {"type": "Feature", "geometry": {"type": "Polygon", "coordinates": [[[80.875, 13.375], [81.125, 13.375], [81.125, 13.625], [80.875, 13.625], [80.875, 13.375]]]}, "properties": {"time": "2020-11-25T18:00:00", "variable": "msl", "tier": "moderate", "percentile": 100.0, "z": 4.25, "wind_ms": 17.4, "value": 1005.29, "lat": 13.5, "lon": 81.0}}, {"type": "Feature", "geometry": {"type": "Polygon", "coordinates": [[[81.125, 13.375], [81.375, 13.375], [81.375, 13.625], [81.125, 13.625], [81.125, 13.375]]]}, "properties": {"time": "2020-11-25T18:00:00", "variable": "msl", "tier": "low", "percentile": 99.1, "z": 3.91, "wind_ms": 17.0, "value": 1005.81, "lat": 13.5, "lon": 81.25}}, {"type": "Feature", "geometry": {"type": "Polygon", "coordinates": [[[81.375, 13.375], [81.625, 13.375], [81.625, 13.625], [81.375, 13.625], [81.375, 13.375]]]}, "properties": {"time": "2020-11-25T18:00:00", "variable": "msl", "tier": "low", "percentile": 99.1, "z": 3.52, "wind_ms": 16.42, "value": 1006.43, "lat": 13.5, "lon": 81.5}}, {"type": "Feature", "geometry": {"type": "Polygon", "coordinates": [[[81.625, 13.375], [81.875, 13.375], [81.875, 13.625], [81.625, 13.625], [81.625, 13.375]]]}, "properties": {"time": "2020-11-25T18:00:00", "variable": "msl", "tier": "low", "percentile": 98.3, "z": 3.06, "wind_ms": 15.48, "value": 1007.17, "lat": 13.5, "lon": 81.75}}, {"type": "Feature", "geometry": {"type": "Polygon", "coordinates": [[[81.875, 13.375], [82.125, 13.375], [82.125, 13.625], [81.875, 13.625], [81.875, 13.375]]]}, "properties": {"time": "2020-11-25T18:00:00", "variable": "msl", "tier": "low", "percentile": 98.3, "z": 2.77, "wind_ms": 14.95, "value": 1007.64, "lat": 13.5, "lon": 82.0}}, {"type": "Feature", "geometry": {"type": "Polygon", "coordinates": [[[82.125, 13.375], [82.375, 13.375], [82.375, 13.625], [82.125, 13.625], [82.125, 13.375]]]}, "properties": {"time": "2020-11-25T18:00:00", "variable": "msl", "tier": "low", "percentile": 97.4, "z": 2.44, "wind_ms": 14.1, "value": 1008.16, "lat": 13.5, "lon": 82.25}}, {"type": "Feature", "geometry": {"type": "Polygon", "coordinates": [[[82.375, 13.375], [82.625, 13.375], [82.625, 13.625], [82.375, 13.625], [82.375, 13.375]]]}, "properties": {"time": "2020-11-25T18:00:00", "variable": "msl", "tier": "low", "percentile": 97.4, "z": 2.2, "wind_ms": 13.67, "value": 1008.52, "lat": 13.5, "lon": 82.5}}, {"type": "Feature", "geometry": {"type": "Polygon", "coordinates": [[[82.625, 13.375], [82.875, 13.375], [82.875, 13.625], [82.625, 13.625], [82.625, 13.375]]]}, "properties": {"time": "2020-11-25T18:00:00", "variable": "msl", "tier": "low", "percentile": 95.7, "z": 1.97, "wind_ms": 13.29, "value": 1008.87, "lat": 13.5, "lon": 82.75}}, {"type": "Feature", "geometry": {"type": "Polygon", "coordinates": [[[82.875, 13.375], [83.125, 13.375], [83.125, 13.625], [82.875, 13.625], [82.875, 13.375]]]}, "properties": {"time": "2020-11-25T18:00:00", "variable": "msl", "tier": "low", "percentile": 94.8, "z": 1.76, "wind_ms": 12.74, "value": 1009.2, "lat": 13.5, "lon": 83.0}}, {"type": "Feature", "geometry": {"type": "Polygon", "coordinates": [[[79.875, 13.625], [80.125, 13.625], [80.125, 13.875], [79.875, 13.875], [79.875, 13.625]]]}, "properties": {"time": "2020-11-25T18:00:00", "variable": "msl", "tier": "low", "percentile": 98.3, "z": 3.39, "wind_ms": 9.59, "value": 1007.28, "lat": 13.75, "lon": 80.0}}, {"type": "Feature", "geometry": {"type": "Polygon", "coordinates": [[[80.125, 13.625], [80.375, 13.625], [80.375, 13.875], [80.125, 13.875], [80.125, 13.625]]]}, "properties": {"time": "2020-11-25T18:00:00", "variable": "msl", "tier": "low", "percentile": 100.0, "z": 3.6, "wind_ms": 13.13, "value": 1006.68, "lat": 13.75, "lon": 80.25}}, {"type": "Feature", "geometry": {"type": "Polygon", "coordinates": [[[80.375, 13.625], [80.625, 13.625], [80.625, 13.875], [80.375, 13.875], [80.375, 13.625]]]}, "properties": {"time": "2020-11-25T18:00:00", "variable": "msl", "tier": "low", "percentile": 100.0, "z": 3.68, "wind_ms": 14.87, "value": 1006.43, "lat": 13.75, "lon": 80.5}}, {"type": "Feature", "geometry": {"type": "Polygon", "coordinates": [[[80.625, 13.625], [80.875, 13.625], [80.875, 13.875], [80.625, 13.875], [80.625, 13.625]]]}, "properties": {"time": "2020-11-25T18:00:00", "variable": "msl", "tier": "low", "percentile": 99.1, "z": 3.69, "wind_ms": 15.24, "value": 1006.37, "lat": 13.75, "lon": 80.75}}, {"type": "Feature", "geometry": {"type": "Polygon", "coordinates": [[[80.875, 13.625], [81.125, 13.625], [81.125, 13.875], [80.875, 13.875], [80.875, 13.625]]]}, "properties": {"time": "2020-11-25T18:00:00", "variable": "msl", "tier": "low", "percentile": 99.1, "z": 3.6, "wind_ms": 15.67, "value": 1006.46, "lat": 13.75, "lon": 81.0}}, {"type": "Feature", "geometry": {"type": "Polygon", "coordinates": [[[81.125, 13.625], [81.375, 13.625], [81.375, 13.875], [81.125, 13.875], [81.125, 13.625]]]}, "properties": {"time": "2020-11-25T18:00:00", "variable": "msl", "tier": "low", "percentile": 99.1, "z": 3.4, "wind_ms": 15.39, "value": 1006.75, "lat": 13.75, "lon": 81.25}}, {"type": "Feature", "geometry": {"type": "Polygon", "coordinates": [[[81.375, 13.625], [81.625, 13.625], [81.625, 13.875], [81.375, 13.875], [81.375, 13.625]]]}, "properties": {"time": "2020-11-25T18:00:00", "variable": "msl", "tier": "low", "percentile": 98.3, "z": 3.08, "wind_ms": 15.0, "value": 1007.25, "lat": 13.75, "lon": 81.5}}, {"type": "Feature", "geometry": {"type": "Polygon", "coordinates": [[[81.625, 13.625], [81.875, 13.625], [81.875, 13.875], [81.625, 13.875], [81.625, 13.625]]]}, "properties": {"time": "2020-11-25T18:00:00", "variable": "msl", "tier": "low", "percentile": 98.3, "z": 2.82, "wind_ms": 14.77, "value": 1007.64, "lat": 13.75, "lon": 81.75}}, {"type": "Feature", "geometry": {"type": "Polygon", "coordinates": [[[81.875, 13.625], [82.125, 13.625], [82.125, 13.875], [81.875, 13.875], [81.875, 13.625]]]}, "properties": {"time": "2020-11-25T18:00:00", "variable": "msl", "tier": "low", "percentile": 97.4, "z": 2.53, "wind_ms": 14.18, "value": 1008.1, "lat": 13.75, "lon": 82.0}}, {"type": "Feature", "geometry": {"type": "Polygon", "coordinates": [[[82.125, 13.625], [82.375, 13.625], [82.375, 13.875], [82.125, 13.875], [82.125, 13.625]]]}, "properties": {"time": "2020-11-25T18:00:00", "variable": "msl", "tier": "low", "percentile": 97.4, "z": 2.33, "wind_ms": 14.19, "value": 1008.4, "lat": 13.75, "lon": 82.25}}, {"type": "Feature", "geometry": {"type": "Polygon", "coordinates": [[[82.375, 13.625], [82.625, 13.625], [82.625, 13.875], [82.375, 13.875], [82.375, 13.625]]]}, "properties": {"time": "2020-11-25T18:00:00", "variable": "msl", "tier": "low", "percentile": 97.4, "z": 2.1, "wind_ms": 13.75, "value": 1008.76, "lat": 13.75, "lon": 82.5}}, {"type": "Feature", "geometry": {"type": "Polygon", "coordinates": [[[82.625, 13.625], [82.875, 13.625], [82.875, 13.875], [82.625, 13.875], [82.625, 13.625]]]}, "properties": {"time": "2020-11-25T18:00:00", "variable": "msl", "tier": "low", "percentile": 95.7, "z": 1.92, "wind_ms": 13.44, "value": 1009.03, "lat": 13.75, "lon": 82.75}}, {"type": "Feature", "geometry": {"type": "Polygon", "coordinates": [[[82.875, 13.625], [83.125, 13.625], [83.125, 13.875], [82.875, 13.875], [82.875, 13.625]]]}, "properties": {"time": "2020-11-25T18:00:00", "variable": "msl", "tier": "low", "percentile": 93.9, "z": 1.73, "wind_ms": 12.97, "value": 1009.32, "lat": 13.75, "lon": 83.0}}, {"type": "Feature", "geometry": {"type": "Polygon", "coordinates": [[[79.875, 13.875], [80.125, 13.875], [80.125, 14.125], [79.875, 14.125], [79.875, 13.875]]]}, "properties": {"time": "2020-11-25T18:00:00", "variable": "msl", "tier": "low", "percentile": 97.4, "z": 2.88, "wind_ms": 9.59, "value": 1008.08, "lat": 14.0, "lon": 80.0}}, {"type": "Feature", "geometry": {"type": "Polygon", "coordinates": [[[80.125, 13.875], [80.375, 13.875], [80.375, 14.125], [80.125, 14.125], [80.125, 13.875]]]}, "properties": {"time": "2020-11-25T18:00:00", "variable": "msl", "tier": "low", "percentile": 97.4, "z": 2.99, "wind_ms": 11.86, "value": 1007.75, "lat": 14.0, "lon": 80.25}}, {"type": "Feature", "geometry": {"type": "Polygon", "coordinates": [[[80.375, 13.875], [80.625, 13.875], [80.625, 14.125], [80.375, 14.125], [80.375, 13.875]]]}, "properties": {"time": "2020-11-25T18:00:00", "variable": "msl", "tier": "low", "percentile": 97.4, "z": 3.04, "wind_ms": 13.39, "value": 1007.57, "lat": 14.0, "lon": 80.5}}, {"type": "Feature", "geometry": {"type": "Polygon", "coordinates": [[[80.625, 13.875], [80.875, 13.875], [80.875, 14.125], [80.625, 14.125], [80.625, 13.875]]]}, "properties": {"time": "2020-11-25T18:00:00", "variable": "msl", "tier": "low", "percentile": 97.4, "z": 3.07, "wind_ms": 13.33, "value": 1007.49, "lat": 14.0, "lon": 80.75}}, {"type": "Feature", "geometry": {"type": "Polygon", "coordinates": [[[80.875, 13.875], [81.125, 13.875], [81.125, 14.125], [80.875, 14.125], [80.875, 13.875]]]}, "properties": {"time": "2020-11-25T18:00:00", "variable": "msl", "tier": "low", "percentile": 97.4, "z": 3.04, "wind_ms": 13.74, "value": 1007.48, "lat": 14.0, "lon": 81.0}}, {"type": "Feature", "geometry": {"type": "Polygon", "coordinates": [[[81.125, 13.875], [81.375, 13.875], [81.375, 14.125], [81.125, 14.125], [81.125, 13.875]]]}, "properties": {"time": "2020-11-25T18:00:00", "variable": "msl", "tier": "low", "percentile": 97.4, "z": 2.94, "wind_ms": 13.55, "value": 1007.6, "lat": 14.0, "lon": 81.25}}, {"type": "Feature", "geometry": {"type": "Polygon", "coordinates": [[[81.375, 13.875], [81.625, 13.875], [81.625, 14.125], [81.375, 14.125], [81.375, 13.875]]]}, "properties": {"time": "2020-11-25T18:00:00", "variable": "msl", "tier": "low", "percentile": 97.4, "z": 2.8, "wind_ms": 13.81, "value": 1007.79, "lat": 14.0, "lon": 81.5}}, {"type": "Feature", "geometry": {"type": "Polygon", "coordinates": [[[81.625, 13.875], [81.875, 13.875], [81.875, 14.125], [81.625, 14.125], [81.625, 13.875]]]}, "properties": {"time": "2020-11-25T18:00:00", "variable": "msl", "tier": "low", "percentile": 97.4, "z": 2.58, "wind_ms": 13.71, "value": 1008.12, "lat": 14.0, "lon": 81.75}}, {"type": "Feature", "geometry": {"type": "Polygon", "coordinates": [[[81.875, 13.875], [82.125, 13.875], [82.125, 14.125], [81.875, 14.125], [81.875, 13.875]]]}, "properties": {"time": "2020-11-25T18:00:00", "variable": "msl", "tier": "low", "percentile": 97.4, "z": 2.41, "wind_ms": 13.94, "value": 1008.37, "lat": 14.0, "lon": 82.0}}, {"type": "Feature", "geometry": {"type": "Polygon", "coordinates": [[[82.125, 13.875], [82.375, 13.875], [82.375, 14.125], [82.125, 14.125], [82.125, 13.875]]]}, "properties": {"time": "2020-11-25T18:00:00", "variable": "msl", "tier": "low", "percentile": 97.4, "z": 2.21, "wind_ms": 13.92, "value": 1008.67, "lat": 14.0, "lon": 82.25}}, {"type": "Feature", "geometry": {"type": "Polygon", "coordinates": [[[82.375, 13.875], [82.625, 13.875], [82.625, 14.125], [82.375, 14.125], [82.375, 13.875]]]}, "properties": {"time": "2020-11-25T18:00:00", "variable": "msl", "tier": "low", "percentile": 96.5, "z": 2.05, "wind_ms": 13.89, "value": 1008.9, "lat": 14.0, "lon": 82.5}}, {"type": "Feature", "geometry": {"type": "Polygon", "coordinates": [[[82.625, 13.875], [82.875, 13.875], [82.875, 14.125], [82.625, 14.125], [82.625, 13.875]]]}, "properties": {"time": "2020-11-25T18:00:00", "variable": "msl", "tier": "low", "percentile": 94.8, "z": 1.88, "wind_ms": 13.59, "value": 1009.15, "lat": 14.0, "lon": 82.75}}, {"type": "Feature", "geometry": {"type": "Polygon", "coordinates": [[[82.875, 13.875], [83.125, 13.875], [83.125, 14.125], [82.875, 14.125], [82.875, 13.875]]]}, "properties": {"time": "2020-11-25T18:00:00", "variable": "msl", "tier": "low", "percentile": 93.9, "z": 1.72, "wind_ms": 13.4, "value": 1009.4, "lat": 14.0, "lon": 83.0}}, {"type": "Feature", "geometry": {"type": "Polygon", "coordinates": [[[79.875, 14.125], [80.125, 14.125], [80.125, 14.375], [79.875, 14.375], [79.875, 14.125]]]}, "properties": {"time": "2020-11-25T18:00:00", "variable": "msl", "tier": "low", "percentile": 97.4, "z": 2.42, "wind_ms": 9.35, "value": 1008.93, "lat": 14.25, "lon": 80.0}}, {"type": "Feature", "geometry": {"type": "Polygon", "coordinates": [[[80.125, 14.125], [80.375, 14.125], [80.375, 14.375], [80.125, 14.375], [80.125, 14.125]]]}, "properties": {"time": "2020-11-25T18:00:00", "variable": "msl", "tier": "low", "percentile": 97.4, "z": 2.5, "wind_ms": 11.64, "value": 1008.63, "lat": 14.25, "lon": 80.25}}, {"type": "Feature", "geometry": {"type": "Polygon", "coordinates": [[[80.375, 14.125], [80.625, 14.125], [80.625, 14.375], [80.375, 14.375], [80.375, 14.125]]]}, "properties": {"time": "2020-11-25T18:00:00", "variable": "msl", "tier": "low", "percentile": 97.4, "z": 2.57, "wind_ms": 13.39, "value": 1008.43, "lat": 14.25, "lon": 80.5}}, {"type": "Feature", "geometry": {"type": "Polygon", "coordinates": [[[80.625, 14.125], [80.875, 14.125], [80.875, 14.375], [80.625, 14.375], [80.625, 14.125]]]}, "properties": {"time": "2020-11-25T18:00:00", "variable": "msl", "tier": "low", "percentile": 97.4, "z": 2.61, "wind_ms": 12.76, "value": 1008.32, "lat": 14.25, "lon": 80.75}}, {"type": "Feature", "geometry": {"type": "Polygon", "coordinates": [[[80.875, 14.125], [81.125, 14.125], [81.125, 14.375], [80.875, 14.375], [80.875, 14.125]]]}, "properties": {"time": "2020-11-25T18:00:00", "variable": "msl", "tier": "low", "percentile": 97.4, "z": 2.59, "wind_ms": 12.44, "value": 1008.3, "lat": 14.25, "lon": 81.0}}, {"type": "Feature", "geometry": {"type": "Polygon", "coordinates": [[[81.125, 14.125], [81.375, 14.125], [81.375, 14.375], [81.125, 14.375], [81.125, 14.125]]]}, "properties": {"time": "2020-11-25T18:00:00", "variable": "msl", "tier": "low", "percentile": 97.4, "z": 2.57, "wind_ms": 12.43, "value": 1008.29, "lat": 14.25, "lon": 81.25}}, {"type": "Feature", "geometry": {"type": "Polygon", "coordinates": [[[81.375, 14.125], [81.625, 14.125], [81.625, 14.375], [81.375, 14.375], [81.375, 14.125]]]}, "properties": {"time": "2020-11-25T18:00:00", "variable": "msl", "tier": "low", "percentile": 97.4, "z": 2.51, "wind_ms": 12.89, "value": 1008.36, "lat": 14.25, "lon": 81.5}}, {"type": "Feature", "geometry": {"type": "Polygon", "coordinates": [[[81.625, 14.125], [81.875, 14.125], [81.875, 14.375], [81.625, 14.375], [81.625, 14.125]]]}, "properties": {"time": "2020-11-25T18:00:00", "variable": "msl", "tier": "low", "percentile": 97.4, "z": 2.37, "wind_ms": 13.1, "value": 1008.56, "lat": 14.25, "lon": 81.75}}, {"type": "Feature", "geometry": {"type": "Polygon", "coordinates": [[[81.875, 14.125], [82.125, 14.125], [82.125, 14.375], [81.875, 14.375], [81.875, 14.125]]]}, "properties": {"time": "2020-11-25T18:00:00", "variable": "msl", "tier": "low", "percentile": 97.4, "z": 2.2, "wind_ms": 13.24, "value": 1008.8, "lat": 14.25, "lon": 82.0}}, {"type": "Feature", "geometry": {"type": "Polygon", "coordinates": [[[82.125, 14.125], [82.375, 14.125], [82.375, 14.375], [82.125, 14.375], [82.125, 14.125]]]}, "properties": {"time": "2020-11-25T18:00:00", "variable": "msl", "tier": "low", "percentile": 96.5, "z": 2.11, "wind_ms": 13.51, "value": 1008.93, "lat": 14.25, "lon": 82.25}}, {"type": "Feature", "geometry": {"type": "Polygon", "coordinates": [[[82.375, 14.125], [82.625, 14.125], [82.625, 14.375], [82.375, 14.375], [82.375, 14.125]]]}, "properties": {"time": "2020-11-25T18:00:00", "variable": "msl", "tier": "low", "percentile": 95.7, "z": 1.98, "wind_ms": 13.54, "value": 1009.1, "lat": 14.25, "lon": 82.5}}, {"type": "Feature", "geometry": {"type": "Polygon", "coordinates": [[[82.625, 14.125], [82.875, 14.125], [82.875, 14.375], [82.625, 14.375], [82.625, 14.125]]]}, "properties": {"time": "2020-11-25T18:00:00", "variable": "msl", "tier": "low", "percentile": 94.8, "z": 1.84, "wind_ms": 13.53, "value": 1009.29, "lat": 14.25, "lon": 82.75}}, {"type": "Feature", "geometry": {"type": "Polygon", "coordinates": [[[82.875, 14.125], [83.125, 14.125], [83.125, 14.375], [82.875, 14.375], [82.875, 14.125]]]}, "properties": {"time": "2020-11-25T18:00:00", "variable": "msl", "tier": "low", "percentile": 93.9, "z": 1.68, "wind_ms": 13.41, "value": 1009.53, "lat": 14.25, "lon": 83.0}}, {"type": "Feature", "geometry": {"type": "Polygon", "coordinates": [[[80.125, 14.375], [80.375, 14.375], [80.375, 14.625], [80.125, 14.625], [80.125, 14.375]]]}, "properties": {"time": "2020-11-25T18:00:00", "variable": "msl", "tier": "low", "percentile": 95.7, "z": 2.17, "wind_ms": 10.58, "value": 1009.24, "lat": 14.5, "lon": 80.25}}, {"type": "Feature", "geometry": {"type": "Polygon", "coordinates": [[[80.375, 14.375], [80.625, 14.375], [80.625, 14.625], [80.375, 14.625], [80.375, 14.375]]]}, "properties": {"time": "2020-11-25T18:00:00", "variable": "msl", "tier": "low", "percentile": 95.7, "z": 2.23, "wind_ms": 13.0, "value": 1009.07, "lat": 14.5, "lon": 80.5}}, {"type": "Feature", "geometry": {"type": "Polygon", "coordinates": [[[80.625, 14.375], [80.875, 14.375], [80.875, 14.625], [80.625, 14.625], [80.625, 14.375]]]}, "properties": {"time": "2020-11-25T18:00:00", "variable": "msl", "tier": "low", "percentile": 96.5, "z": 2.27, "wind_ms": 12.96, "value": 1008.98, "lat": 14.5, "lon": 80.75}}, {"type": "Feature", "geometry": {"type": "Polygon", "coordinates": [[[80.875, 14.375], [81.125, 14.375], [81.125, 14.625], [80.875, 14.625], [80.875, 14.375]]]}, "properties": {"time": "2020-11-25T18:00:00", "variable": "msl", "tier": "low", "percentile": 96.5, "z": 2.23, "wind_ms": 12.32, "value": 1008.98, "lat": 14.5, "lon": 81.0}}, {"type": "Feature", "geometry": {"type": "Polygon", "coordinates": [[[81.125, 14.375], [81.375, 14.375], [81.375, 14.625], [81.125, 14.625], [81.125, 14.375]]]}, "properties": {"time": "2020-11-25T18:00:00", "variable": "msl", "tier": "low", "percentile": 96.5, "z": 2.21, "wind_ms": 12.12, "value": 1008.98, "lat": 14.5, "lon": 81.25}}, {"type": "Feature", "geometry": {"type": "Polygon", "coordinates": [[[81.375, 14.375], [81.625, 14.375], [81.625, 14.625], [81.375, 14.625], [81.375, 14.375]]]}, "properties": {"time": "2020-11-25T18:00:00", "variable": "msl", "tier": "low", "percentile": 96.5, "z": 2.21, "wind_ms": 12.16, "value": 1008.93, "lat": 14.5, "lon": 81.5}}, {"type": "Feature", "geometry": {"type": "Polygon", "coordinates": [[[81.625, 14.375], [81.875, 14.375], [81.875, 14.625], [81.625, 14.625], [81.625, 14.375]]]}, "properties": {"time": "2020-11-25T18:00:00", "variable": "msl", "tier": "low", "percentile": 96.5, "z": 2.13, "wind_ms": 12.27, "value": 1009.03, "lat": 14.5, "lon": 81.75}}, {"type": "Feature", "geometry": {"type": "Polygon", "coordinates": [[[81.875, 14.375], [82.125, 14.375], [82.125, 14.625], [81.875, 14.625], [81.875, 14.375]]]}, "properties": {"time": "2020-11-25T18:00:00", "variable": "msl", "tier": "low", "percentile": 96.5, "z": 2.06, "wind_ms": 12.62, "value": 1009.1, "lat": 14.5, "lon": 82.0}}, {"type": "Feature", "geometry": {"type": "Polygon", "coordinates": [[[82.125, 14.375], [82.375, 14.375], [82.375, 14.625], [82.125, 14.625], [82.125, 14.375]]]}, "properties": {"time": "2020-11-25T18:00:00", "variable": "msl", "tier": "low", "percentile": 95.7, "z": 2.0, "wind_ms": 13.06, "value": 1009.17, "lat": 14.5, "lon": 82.25}}, {"type": "Feature", "geometry": {"type": "Polygon", "coordinates": [[[82.375, 14.375], [82.625, 14.375], [82.625, 14.625], [82.375, 14.625], [82.375, 14.375]]]}, "properties": {"time": "2020-11-25T18:00:00", "variable": "msl", "tier": "low", "percentile": 95.7, "z": 1.91, "wind_ms": 13.31, "value": 1009.28, "lat": 14.5, "lon": 82.5}}, {"type": "Feature", "geometry": {"type": "Polygon", "coordinates": [[[82.625, 14.375], [82.875, 14.375], [82.875, 14.625], [82.625, 14.625], [82.625, 14.375]]]}, "properties": {"time": "2020-11-25T18:00:00", "variable": "msl", "tier": "low", "percentile": 94.8, "z": 1.76, "wind_ms": 13.29, "value": 1009.49, "lat": 14.5, "lon": 82.75}}, {"type": "Feature", "geometry": {"type": "Polygon", "coordinates": [[[82.875, 14.375], [83.125, 14.375], [83.125, 14.625], [82.875, 14.625], [82.875, 14.375]]]}, "properties": {"time": "2020-11-25T18:00:00", "variable": "msl", "tier": "low", "percentile": 92.2, "z": 1.61, "wind_ms": 13.07, "value": 1009.73, "lat": 14.5, "lon": 83.0}}], "properties": {"thresholds": {"low_z": 1.5, "low_ws": 8.7, "moderate_z": 2.0, "moderate_ws": 17.0, "severe_z": 3.0, "severe_ws": 25.0}, "note": "Tiers: z-score AND wind >= 8.7/17/25 m/s (IMD D/CS/SCS), only inside tracked-object boxes + 1 deg. Adjusted after observing results; not validated against impacts. Per-hour ERA5 reanalysis climatology; single member, not an ensemble EFI."}}