{"type": "FeatureCollection", "features": [{"type": "Feature", "geometry": {"type": "Polygon", "coordinates": [[[84.125, 15.875], [84.375, 15.875], [84.375, 16.125], [84.125, 16.125], [84.125, 15.875]]]}, "properties": {"time": "2018-10-10T18:00:00", "variable": "msl", "tier": "low", "percentile": 99.5, "z": 2.62, "wind_ms": 8.91, "value": 1002.52, "lat": 16.0, "lon": 84.25}}, {"type": "Feature", "geometry": {"type": "Polygon", "coordinates": [[[84.375, 15.875], [84.625, 15.875], [84.625, 16.125], [84.375, 16.125], [84.375, 15.875]]]}, "properties": {"time": "2018-10-10T18:00:00", "variable": "msl", "tier": "low", "percentile": 99.5, "z": 2.62, "wind_ms": 10.65, "value": 1002.47, "lat": 16.0, "lon": 84.5}}, {"type": "Feature", "geometry": {"type": "Polygon", "coordinates": [[[84.625, 15.875], [84.875, 15.875], [84.875, 16.125], [84.625, 16.125], [84.625, 15.875]]]}, "properties": {"time": "2018-10-10T18:00:00", "variable": "msl", "tier": "low", "percentile": 98.6, "z": 2.55, "wind_ms": 11.16, "value": 1002.59, "lat": 16.0, "lon": 84.75}}, {"type": "Feature", "geometry": {"type": "Polygon", "coordinates": [[[84.875, 15.875], [85.125, 15.875], [85.125, 16.125], [84.875, 16.125], [84.875, 15.875]]]}, "properties": {"time": "2018-10-10T18:00:00", "variable": "msl", "tier": "low", "percentile": 98.6, "z": 2.46, "wind_ms": 11.82, "value": 1002.78, "lat": 16.0, "lon": 85.0}}, {"type": "Feature", "geometry": {"type": "Polygon", "coordinates": [[[85.125, 15.875], [85.375, 15.875], [85.375, 16.125], [85.125, 16.125], [85.125, 15.875]]]}, "properties": {"time": "2018-10-10T18:00:00", "variable": "msl", "tier": "low", "percentile": 97.7, "z": 2.37, "wind_ms": 12.3, "value": 1002.93, "lat": 16.0, "lon": 85.25}}, {"type": "Feature", "geometry": {"type": "Polygon", "coordinates": [[[85.375, 15.875], [85.625, 15.875], [85.625, 16.125], [85.375, 16.125], [85.375, 15.875]]]}, "properties": {"time": "2018-10-10T18:00:00", "variable": "msl", "tier": "low", "percentile": 96.8, "z": 2.26, "wind_ms": 12.52, "value": 1003.13, "lat": 16.0, "lon": 85.5}}, {"type": "Feature", "geometry": {"type": "Polygon", "coordinates": [[[85.625, 15.875], [85.875, 15.875], [85.875, 16.125], [85.625, 16.125], [85.625, 15.875]]]}, "properties": {"time": "2018-10-10T18:00:00", "variable": "msl", "tier": "low", "percentile": 96.8, "z": 2.12, "wind_ms": 12.33, "value": 1003.39, "lat": 16.0, "lon": 85.75}}, {"type": "Feature", "geometry": {"type": "Polygon", "coordinates": [[[85.875, 15.875], [86.125, 15.875], [86.125, 16.125], [85.875, 16.125], [85.875, 15.875]]]}, "properties": {"time": "2018-10-10T18:00:00", "variable": "msl", "tier": "low", "percentile": 95.9, "z": 2.0, "wind_ms": 11.99, "value": 1003.66, "lat": 16.0, "lon": 86.0}}, {"type": "Feature", "geometry": {"type": "Polygon", "coordinates": [[[86.125, 15.875], [86.375, 15.875], [86.375, 16.125], [86.125, 16.125], [86.125, 15.875]]]}, "properties": {"time": "2018-10-10T18:00:00", "variable": "msl", "tier": "low", "percentile": 95.9, "z": 1.87, "wind_ms": 11.7, "value": 1003.97, "lat": 16.0, "lon": 86.25}}, {"type": "Feature", "geometry": {"type": "Polygon", "coordinates": [[[86.375, 15.875], [86.625, 15.875], [86.625, 16.125], [86.375, 16.125], [86.375, 15.875]]]}, "properties": {"time": "2018-10-10T18:00:00", "variable": "msl", "tier": "low", "percentile": 95.9, "z": 1.77, "wind_ms": 11.6, "value": 1004.23, "lat": 16.0, "lon": 86.5}}, {"type": "Feature", "geometry": {"type": "Polygon", "coordinates": [[[86.625, 15.875], [86.875, 15.875], [86.875, 16.125], [86.625, 16.125], [86.625, 15.875]]]}, "properties": {"time": "2018-10-10T18:00:00", "variable": "msl", "tier": "low", "percentile": 95.9, "z": 1.67, "wind_ms": 11.6, "value": 1004.51, "lat": 16.0, "lon": 86.75}}, {"type": "Feature", "geometry": {"type": "Polygon", "coordinates": [[[86.875, 15.875], [87.125, 15.875], [87.125, 16.125], [86.875, 16.125], [86.875, 15.875]]]}, "properties": {"time": "2018-10-10T18:00:00", "variable": "msl", "tier": "low", "percentile": 95.9, "z": 1.57, "wind_ms": 11.77, "value": 1004.82, "lat": 16.0, "lon": 87.0}}, {"type": "Feature", "geometry": {"type": "Polygon", "coordinates": [[[84.125, 16.125], [84.375, 16.125], [84.375, 16.375], [84.125, 16.375], [84.125, 16.125]]]}, "properties": {"time": "2018-10-10T18:00:00", "variable": "msl", "tier": "low", "percentile": 99.5, "z": 2.69, "wind_ms": 8.88, "value": 1002.26, "lat": 16.25, "lon": 84.25}}, {"type": "Feature", "geometry": {"type": "Polygon", "coordinates": [[[84.375, 16.125], [84.625, 16.125], [84.625, 16.375], [84.375, 16.375], [84.375, 16.125]]]}, "properties": {"time": "2018-10-10T18:00:00", "variable": "msl", "tier": "low", "percentile": 99.5, "z": 2.68, "wind_ms": 10.54, "value": 1002.21, "lat": 16.25, "lon": 84.5}}, {"type": "Feature", "geometry": {"type": "Polygon", "coordinates": [[[84.625, 16.125], [84.875, 16.125], [84.875, 16.375], [84.625, 16.375], [84.625, 16.125]]]}, "properties": {"time": "2018-10-10T18:00:00", "variable": "msl", "tier": "low", "percentile": 99.5, "z": 2.67, "wind_ms": 11.81, "value": 1002.18, "lat": 16.25, "lon": 84.75}}, {"type": "Feature", "geometry": {"type": "Polygon", "coordinates": [[[84.875, 16.125], [85.125, 16.125], [85.125, 16.375], [84.875, 16.375], [84.875, 16.125]]]}, "properties": {"time": "2018-10-10T18:00:00", "variable": "msl", "tier": "low", "percentile": 98.6, "z": 2.59, "wind_ms": 12.29, "value": 1002.37, "lat": 16.25, "lon": 85.0}}, {"type": "Feature", "geometry": {"type": "Polygon", "coordinates": [[[85.125, 16.125], [85.375, 16.125], [85.375, 16.375], [85.125, 16.375], [85.125, 16.125]]]}, "properties": {"time": "2018-10-10T18:00:00", "variable": "msl", "tier": "low", "percentile": 98.6, "z": 2.52, "wind_ms": 12.67, "value": 1002.5, "lat": 16.25, "lon": 85.25}}, {"type": "Feature", "geometry": {"type": "Polygon", "coordinates": [[[85.375, 16.125], [85.625, 16.125], [85.625, 16.375], [85.375, 16.375], [85.375, 16.125]]]}, "properties": {"time": "2018-10-10T18:00:00", "variable": "msl", "tier": "low", "percentile": 97.7, "z": 2.41, "wind_ms": 12.8, "value": 1002.68, "lat": 16.25, "lon": 85.5}}, {"type": "Feature", "geometry": {"type": "Polygon", "coordinates": [[[85.625, 16.125], [85.875, 16.125], [85.875, 16.375], [85.625, 16.375], [85.625, 16.125]]]}, "properties": {"time": "2018-10-10T18:00:00", "variable": "msl", "tier": "low", "percentile": 96.8, "z": 2.28, "wind_ms": 12.59, "value": 1002.94, "lat": 16.25, "lon": 85.75}}, {"type": "Feature", "geometry": {"type": "Polygon", "coordinates": [[[85.875, 16.125], [86.125, 16.125], [86.125, 16.375], [85.875, 16.375], [85.875, 16.125]]]}, "properties": {"time": "2018-10-10T18:00:00", "variable": "msl", "tier": "low", "percentile": 96.8, "z": 2.14, "wind_ms": 12.42, "value": 1003.25, "lat": 16.25, "lon": 86.0}}, {"type": "Feature", "geometry": {"type": "Polygon", "coordinates": [[[86.125, 16.125], [86.375, 16.125], [86.375, 16.375], [86.125, 16.375], [86.125, 16.125]]]}, "properties": {"time": "2018-10-10T18:00:00", "variable": "msl", "tier": "low", "percentile": 96.8, "z": 2.01, "wind_ms": 12.13, "value": 1003.59, "lat": 16.25, "lon": 86.25}}, {"type": "Feature", "geometry": {"type": "Polygon", "coordinates": [[[86.375, 16.125], [86.625, 16.125], [86.625, 16.375], [86.375, 16.375], [86.375, 16.125]]]}, "properties": {"time": "2018-10-10T18:00:00", "variable": "msl", "tier": "low", "percentile": 95.9, "z": 1.88, "wind_ms": 12.0, "value": 1003.92, "lat": 16.25, "lon": 86.5}}, {"type": "Feature", "geometry": {"type": "Polygon", "coordinates": [[[86.625, 16.125], [86.875, 16.125], [86.875, 16.375], [86.625, 16.375], [86.625, 16.125]]]}, "properties": {"time": "2018-10-10T18:00:00", "variable": "msl", "tier": "low", "percentile": 95.9, "z": 1.78, "wind_ms": 11.99, "value": 1004.21, "lat": 16.25, "lon": 86.75}}, {"type": "Feature", "geometry": {"type": "Polygon", "coordinates": [[[86.875, 16.125], [87.125, 16.125], [87.125, 16.375], [86.875, 16.375], [86.875, 16.125]]]}, "properties": {"time": "2018-10-10T18:00:00", "variable": "msl", "tier": "low", "percentile": 95.9, "z": 1.68, "wind_ms": 12.03, "value": 1004.54, "lat": 16.25, "lon": 87.0}}, {"type": "Feature", "geometry": {"type": "Polygon", "coordinates": [[[87.125, 16.125], [87.375, 16.125], [87.375, 16.375], [87.125, 16.375], [87.125, 16.125]]]}, "properties": {"time": "2018-10-10T18:00:00", "variable": "msl", "tier": "low", "percentile": 95.9, "z": 1.57, "wind_ms": 12.12, "value": 1004.9, "lat": 16.25, "lon": 87.25}}, {"type": "Feature", "geometry": {"type": "Polygon", "coordinates": [[[84.125, 16.375], [84.375, 16.375], [84.375, 16.625], [84.125, 16.625], [84.125, 16.375]]]}, "properties": {"time": "2018-10-10T18:00:00", "variable": "msl", "tier": "low", "percentile": 99.5, "z": 2.73, "wind_ms": 9.86, "value": 1002.07, "lat": 16.5, "lon": 84.25}}, {"type": "Feature", "geometry": {"type": "Polygon", "coordinates": [[[84.375, 16.375], [84.625, 16.375], [84.625, 16.625], [84.375, 16.625], [84.375, 16.375]]]}, "properties": {"time": "2018-10-10T18:00:00", "variable": "msl", "tier": "low", "percentile": 99.5, "z": 2.77, "wind_ms": 11.44, "value": 1001.91, "lat": 16.5, "lon": 84.5}}, {"type": "Feature", "geometry": {"type": "Polygon", "coordinates": [[[84.625, 16.375], [84.875, 16.375], [84.875, 16.625], [84.625, 16.625], [84.625, 16.375]]]}, "properties": {"time": "2018-10-10T18:00:00", "variable": "msl", "tier": "low", "percentile": 99.5, "z": 2.78, "wind_ms": 12.74, "value": 1001.85, "lat": 16.5, "lon": 84.75}}, {"type": "Feature", "geometry": {"type": "Polygon", "coordinates": [[[84.875, 16.375], [85.125, 16.375], [85.125, 16.625], [84.875, 16.625], [84.875, 16.375]]]}, "properties": {"time": "2018-10-10T18:00:00", "variable": "msl", "tier": "low", "percentile": 99.5, "z": 2.74, "wind_ms": 13.33, "value": 1001.9, "lat": 16.5, "lon": 85.0}}, {"type": "Feature", "geometry": {"type": "Polygon", "coordinates": [[[85.125, 16.375], [85.375, 16.375], [85.375, 16.625], [85.125, 16.625], [85.125, 16.375]]]}, "properties": {"time": "2018-10-10T18:00:00", "variable": "msl", "tier": "low", "percentile": 98.6, "z": 2.68, "wind_ms": 13.59, "value": 1002.0, "lat": 16.5, "lon": 85.25}}, {"type": "Feature", "geometry": {"type": "Polygon", "coordinates": [[[85.375, 16.375], [85.625, 16.375], [85.625, 16.625], [85.375, 16.625], [85.375, 16.375]]]}, "properties": {"time": "2018-10-10T18:00:00", "variable": "msl", "tier": "low", "percentile": 98.6, "z": 2.58, "wind_ms": 13.54, "value": 1002.18, "lat": 16.5, "lon": 85.5}}, {"type": "Feature", "geometry": {"type": "Polygon", "coordinates": [[[85.625, 16.375], [85.875, 16.375], [85.875, 16.625], [85.625, 16.625], [85.625, 16.375]]]}, "properties": {"time": "2018-10-10T18:00:00", "variable": "msl", "tier": "low", "percentile": 97.7, "z": 2.45, "wind_ms": 13.16, "value": 1002.46, "lat": 16.5, "lon": 85.75}}, {"type": "Feature", "geometry": {"type": "Polygon", "coordinates": [[[85.875, 16.375], [86.125, 16.375], [86.125, 16.625], [85.875, 16.625], [85.875, 16.375]]]}, "properties": {"time": "2018-10-10T18:00:00", "variable": "msl", "tier": "low", "percentile": 96.8, "z": 2.31, "wind_ms": 12.91, "value": 1002.77, "lat": 16.5, "lon": 86.0}}, {"type": "Feature", "geometry": {"type": "Polygon", "coordinates": [[[86.125, 16.375], [86.375, 16.375], [86.375, 16.625], [86.125, 16.625], [86.125, 16.375]]]}, "properties": {"time": "2018-10-10T18:00:00", "variable": "msl", "tier": "low", "percentile": 96.8, "z": 2.16, "wind_ms": 12.7, "value": 1003.15, "lat": 16.5, "lon": 86.25}}, {"type": "Feature", "geometry": {"type": "Polygon", "coordinates": [[[86.375, 16.375], [86.625, 16.375], [86.625, 16.625], [86.375, 16.625], [86.375, 16.375]]]}, "properties": {"time": "2018-10-10T18:00:00", "variable": "msl", "tier": "low", "percentile": 96.8, "z": 2.03, "wind_ms": 12.56, "value": 1003.51, "lat": 16.5, "lon": 86.5}}, {"type": "Feature", "geometry": {"type": "Polygon", "coordinates": [[[86.625, 16.375], [86.875, 16.375], [86.875, 16.625], [86.625, 16.625], [86.625, 16.375]]]}, "properties": {"time": "2018-10-10T18:00:00", "variable": "msl", "tier": "low", "percentile": 96.8, "z": 1.9, "wind_ms": 12.48, "value": 1003.89, "lat": 16.5, "lon": 86.75}}, {"type": "Feature", "geometry": {"type": "Polygon", "coordinates": [[[86.875, 16.375], [87.125, 16.375], [87.125, 16.625], [86.875, 16.625], [86.875, 16.375]]]}, "properties": {"time": "2018-10-10T18:00:00", "variable": "msl", "tier": "low", "percentile": 95.9, "z": 1.79, "wind_ms": 12.5, "value": 1004.25, "lat": 16.5, "lon": 87.0}}, {"type": "Feature", "geometry": {"type": "Polygon", "coordinates": [[[87.125, 16.375], [87.375, 16.375], [87.375, 16.625], [87.125, 16.625], [87.125, 16.375]]]}, "properties": {"time": "2018-10-10T18:00:00", "variable": "msl", "tier": "low", "percentile": 95.9, "z": 1.67, "wind_ms": 12.5, "value": 1004.63, "lat": 16.5, "lon": 87.25}}, {"type": "Feature", "geometry": {"type": "Polygon", "coordinates": [[[87.375, 16.375], [87.625, 16.375], [87.625, 16.625], [87.375, 16.625], [87.375, 16.375]]]}, "properties": {"time": "2018-10-10T18:00:00", "variable": "msl", "tier": "low", "percentile": 95.9, "z": 1.56, "wind_ms": 12.51, "value": 1005.02, "lat": 16.5, "lon": 87.5}}, {"type": "Feature", "geometry": {"type": "Polygon", "coordinates": [[[83.625, 16.625], [83.875, 16.625], [83.875, 16.875], [83.625, 16.875], [83.625, 16.625]]]}, "properties": {"time": "2018-10-10T18:00:00", "variable": "msl", "tier": "low", "percentile": 99.5, "z": 2.89, "wind_ms": 8.91, "value": 1001.69, "lat": 16.75, "lon": 83.75}}, {"type": "Feature", "geometry": {"type": "Polygon", "coordinates": [[[83.875, 16.625], [84.125, 16.625], [84.125, 16.875], [83.875, 16.875], [83.875, 16.625]]]}, "properties": {"time": "2018-10-10T18:00:00", "variable": "msl", "tier": "low", "percentile": 99.5, "z": 2.89, "wind_ms": 10.74, "value": 1001.61, "lat": 16.75, "lon": 84.0}}, {"type": "Feature", "geometry": {"type": "Polygon", "coordinates": [[[84.125, 16.625], [84.375, 16.625], [84.375, 16.875], [84.125, 16.875], [84.125, 16.625]]]}, "properties": {"time": "2018-10-10T18:00:00", "variable": "msl", "tier": "low", "percentile": 99.5, "z": 2.95, "wind_ms": 12.42, "value": 1001.36, "lat": 16.75, "lon": 84.25}}, {"type": "Feature", "geometry": {"type": "Polygon", "coordinates": [[[84.375, 16.625], [84.625, 16.625], [84.625, 16.875], [84.375, 16.875], [84.375, 16.625]]]}, "properties": {"time": "2018-10-10T18:00:00", "variable": "msl", "tier": "low", "percentile": 99.5, "z": 3.0, "wind_ms": 13.63, "value": 1001.14, "lat": 16.75, "lon": 84.5}}, {"type": "Feature", "geometry": {"type": "Polygon", "coordinates": [[[84.625, 16.625], [84.875, 16.625], [84.875, 16.875], [84.625, 16.875], [84.625, 16.625]]]}, "properties": {"time": "2018-10-10T18:00:00", "variable": "msl", "tier": "low", "percentile": 99.5, "z": 3.03, "wind_ms": 14.4, "value": 1001.02, "lat": 16.75, "lon": 84.75}}, {"type": "Feature", "geometry": {"type": "Polygon", "coordinates": [[[84.875, 16.625], [85.125, 16.625], [85.125, 16.875], [84.875, 16.875], [84.875, 16.625]]]}, "properties": {"time": "2018-10-10T18:00:00", "variable": "msl", "tier": "low", "percentile": 99.5, "z": 3.0, "wind_ms": 14.93, "value": 1001.06, "lat": 16.75, "lon": 85.0}}, {"type": "Feature", "geometry": {"type": "Polygon", "coordinates": [[[85.125, 16.625], [85.375, 16.625], [85.375, 16.875], [85.125, 16.875], [85.125, 16.625]]]}, "properties": {"time": "2018-10-10T18:00:00", "variable": "msl", "tier": "low", "percentile": 99.5, "z": 2.92, "wind_ms": 15.06, "value": 1001.24, "lat": 16.75, "lon": 85.25}}, {"type": "Feature", "geometry": {"type": "Polygon", "coordinates": [[[85.375, 16.625], [85.625, 16.625], [85.625, 16.875], [85.375, 16.875], [85.375, 16.625]]]}, "properties": {"time": "2018-10-10T18:00:00", "variable": "msl", "tier": "low", "percentile": 98.6, "z": 2.81, "wind_ms": 14.92, "value": 1001.49, "lat": 16.75, "lon": 85.5}}, {"type": "Feature", "geometry": {"type": "Polygon", "coordinates": [[[85.625, 16.625], [85.875, 16.625], [85.875, 16.875], [85.625, 16.875], [85.625, 16.625]]]}, "properties": {"time": "2018-10-10T18:00:00", "variable": "msl", "tier": "low", "percentile": 98.6, "z": 2.67, "wind_ms": 14.37, "value": 1001.81, "lat": 16.75, "lon": 85.75}}, {"type": "Feature", "geometry": {"type": "Polygon", "coordinates": [[[85.875, 16.625], [86.125, 16.625], [86.125, 16.875], [85.875, 16.875], [85.875, 16.625]]]}, "properties": {"time": "2018-10-10T18:00:00", "variable": "msl", "tier": "low", "percentile": 97.7, "z": 2.49, "wind_ms": 13.7, "value": 1002.25, "lat": 16.75, "lon": 86.0}}, {"type": "Feature", "geometry": {"type": "Polygon", "coordinates": [[[86.125, 16.625], [86.375, 16.625], [86.375, 16.875], [86.125, 16.875], [86.125, 16.625]]]}, "properties": {"time": "2018-10-10T18:00:00", "variable": "msl", "tier": "low", "percentile": 96.8, "z": 2.33, "wind_ms": 13.42, "value": 1002.69, "lat": 16.75, "lon": 86.25}}, {"type": "Feature", "geometry": {"type": "Polygon", "coordinates": [[[86.375, 16.625], [86.625, 16.625], [86.625, 16.875], [86.375, 16.875], [86.375, 16.625]]]}, "properties": {"time": "2018-10-10T18:00:00", "variable": "msl", "tier": "low", "percentile": 96.8, "z": 2.17, "wind_ms": 13.22, "value": 1003.16, "lat": 16.75, "lon": 86.5}}, {"type": "Feature", "geometry": {"type": "Polygon", "coordinates": [[[86.625, 16.625], [86.875, 16.625], [86.875, 16.875], [86.625, 16.875], [86.625, 16.625]]]}, "properties": {"time": "2018-10-10T18:00:00", "variable": "msl", "tier": "low", "percentile": 96.8, "z": 2.03, "wind_ms": 13.14, "value": 1003.56, "lat": 16.75, "lon": 86.75}}, {"type": "Feature", "geometry": {"type": "Polygon", "coordinates": [[[86.875, 16.625], [87.125, 16.625], [87.125, 16.875], [86.875, 16.875], [86.875, 16.625]]]}, "properties": {"time": "2018-10-10T18:00:00", "variable": "msl", "tier": "low", "percentile": 96.8, "z": 1.91, "wind_ms": 13.06, "value": 1003.97, "lat": 16.75, "lon": 87.0}}, {"type": "Feature", "geometry": {"type": "Polygon", "coordinates": [[[87.125, 16.625], [87.375, 16.625], [87.375, 16.875], [87.125, 16.875], [87.125, 16.625]]]}, "properties": {"time": "2018-10-10T18:00:00", "variable": "msl", "tier": "low", "percentile": 95.9, "z": 1.78, "wind_ms": 13.01, "value": 1004.37, "lat": 16.75, "lon": 87.25}}, {"type": "Feature", "geometry": {"type": "Polygon", "coordinates": [[[87.375, 16.625], [87.625, 16.625], [87.625, 16.875], [87.375, 16.875], [87.375, 16.625]]]}, "properties": {"time": "2018-10-10T18:00:00", "variable": "msl", "tier": "low", "percentile": 95.9, "z": 1.65, "wind_ms": 12.96, "value": 1004.81, "lat": 16.75, "lon": 87.5}}, {"type": "Feature", "geometry": {"type": "Polygon", "coordinates": [[[87.625, 16.625], [87.875, 16.625], [87.875, 16.875], [87.625, 16.875], [87.625, 16.625]]]}, "properties": {"time": "2018-10-10T18:00:00", "variable": "msl", "tier": "low", "percentile": 94.1, "z": 1.51, "wind_ms": 12.64, "value": 1005.24, "lat": 16.75, "lon": 87.75}}, {"type": "Feature", "geometry": {"type": "Polygon", "coordinates": [[[83.375, 16.875], [83.625, 16.875], [83.625, 17.125], [83.375, 17.125], [83.375, 16.875]]]}, "properties": {"time": "2018-10-10T18:00:00", "variable": "msl", "tier": "low", "percentile": 99.5, "z": 3.01, "wind_ms": 9.64, "value": 1001.32, "lat": 17.0, "lon": 83.5}}, {"type": "Feature", "geometry": {"type": "Polygon", "coordinates": [[[83.625, 16.875], [83.875, 16.875], [83.875, 17.125], [83.625, 17.125], [83.625, 16.875]]]}, "properties": {"time": "2018-10-10T18:00:00", "variable": "msl", "tier": "low", "percentile": 99.5, "z": 3.08, "wind_ms": 11.35, "value": 1001.03, "lat": 17.0, "lon": 83.75}}, {"type": "Feature", "geometry": {"type": "Polygon", "coordinates": [[[83.875, 16.875], [84.125, 16.875], [84.125, 17.125], [83.875, 17.125], [83.875, 16.875]]]}, "properties": {"time": "2018-10-10T18:00:00", "variable": "msl", "tier": "low", "percentile": 99.5, "z": 3.18, "wind_ms": 12.97, "value": 1000.64, "lat": 17.0, "lon": 84.0}}, {"type": "Feature", "geometry": {"type": "Polygon", "coordinates": [[[84.125, 16.875], [84.375, 16.875], [84.375, 17.125], [84.125, 17.125], [84.125, 16.875]]]}, "properties": {"time": "2018-10-10T18:00:00", "variable": "msl", "tier": "low", "percentile": 99.5, "z": 3.31, "wind_ms": 14.48, "value": 1000.21, "lat": 17.0, "lon": 84.25}}, {"type": "Feature", "geometry": {"type": "Polygon", "coordinates": [[[84.375, 16.875], [84.625, 16.875], [84.625, 17.125], [84.375, 17.125], [84.375, 16.875]]]}, "properties": {"time": "2018-10-10T18:00:00", "variable": "msl", "tier": "low", "percentile": 99.5, "z": 3.42, "wind_ms": 15.78, "value": 999.85, "lat": 17.0, "lon": 84.5}}, {"type": "Feature", "geometry": {"type": "Polygon", "coordinates": [[[84.625, 16.875], [84.875, 16.875], [84.875, 17.125], [84.625, 17.125], [84.625, 16.875]]]}, "properties": {"time": "2018-10-10T18:00:00", "variable": "msl", "tier": "low", "percentile": 99.5, "z": 3.47, "wind_ms": 16.73, "value": 999.66, "lat": 17.0, "lon": 84.75}}, {"type": "Feature", "geometry": {"type": "Polygon", "coordinates": [[[84.875, 16.875], [85.125, 16.875], [85.125, 17.125], [84.875, 17.125], [84.875, 16.875]]]}, "properties": {"time": "2018-10-10T18:00:00", "variable": "msl", "tier": "moderate", "percentile": 99.5, "z": 3.44, "wind_ms": 17.34, "value": 999.69, "lat": 17.0, "lon": 85.0}}, {"type": "Feature", "geometry": {"type": "Polygon", "coordinates": [[[85.125, 16.875], [85.375, 16.875], [85.375, 17.125], [85.125, 17.125], [85.125, 16.875]]]}, "properties": {"time": "2018-10-10T18:00:00", "variable": "msl", "tier": "moderate", "percentile": 99.5, "z": 3.33, "wind_ms": 17.43, "value": 999.96, "lat": 17.0, "lon": 85.25}}, {"type": "Feature", "geometry": {"type": "Polygon", "coordinates": [[[85.375, 16.875], [85.625, 16.875], [85.625, 17.125], [85.375, 17.125], [85.375, 16.875]]]}, "properties": {"time": "2018-10-10T18:00:00", "variable": "msl", "tier": "low", "percentile": 99.5, "z": 3.15, "wind_ms": 16.72, "value": 1000.45, "lat": 17.0, "lon": 85.5}}, {"type": "Feature", "geometry": {"type": "Polygon", "coordinates": [[[85.625, 16.875], [85.875, 16.875], [85.875, 17.125], [85.625, 17.125], [85.625, 16.875]]]}, "properties": {"time": "2018-10-10T18:00:00", "variable": "msl", "tier": "low", "percentile": 99.5, "z": 2.95, "wind_ms": 15.86, "value": 1001.0, "lat": 17.0, "lon": 85.75}}, {"type": "Feature", "geometry": {"type": "Polygon", "coordinates": [[[85.875, 16.875], [86.125, 16.875], [86.125, 17.125], [85.875, 17.125], [85.875, 16.875]]]}, "properties": {"time": "2018-10-10T18:00:00", "variable": "msl", "tier": "low", "percentile": 98.6, "z": 2.74, "wind_ms": 15.06, "value": 1001.56, "lat": 17.0, "lon": 86.0}}, {"type": "Feature", "geometry": {"type": "Polygon", "coordinates": [[[86.125, 16.875], [86.375, 16.875], [86.375, 17.125], [86.125, 17.125], [86.125, 16.875]]]}, "properties": {"time": "2018-10-10T18:00:00", "variable": "msl", "tier": "low", "percentile": 97.7, "z": 2.54, "wind_ms": 14.55, "value": 1002.12, "lat": 17.0, "lon": 86.25}}, {"type": "Feature", "geometry": {"type": "Polygon", "coordinates": [[[86.375, 16.875], [86.625, 16.875], [86.625, 17.125], [86.375, 17.125], [86.375, 16.875]]]}, "properties": {"time": "2018-10-10T18:00:00", "variable": "msl", "tier": "low", "percentile": 96.8, "z": 2.34, "wind_ms": 14.16, "value": 1002.67, "lat": 17.0, "lon": 86.5}}, {"type": "Feature", "geometry": {"type": "Polygon", "coordinates": [[[86.625, 16.875], [86.875, 16.875], [86.875, 17.125], [86.625, 17.125], [86.625, 16.875]]]}, "properties": {"time": "2018-10-10T18:00:00", "variable": "msl", "tier": "low", "percentile": 96.8, "z": 2.17, "wind_ms": 13.89, "value": 1003.18, "lat": 17.0, "lon": 86.75}}, {"type": "Feature", "geometry": {"type": "Polygon", "coordinates": [[[86.875, 16.875], [87.125, 16.875], [87.125, 17.125], [86.875, 17.125], [86.875, 16.875]]]}, "properties": {"time": "2018-10-10T18:00:00", "variable": "msl", "tier": "low", "percentile": 96.8, "z": 2.02, "wind_ms": 13.72, "value": 1003.65, "lat": 17.0, "lon": 87.0}}, {"type": "Feature", "geometry": {"type": "Polygon", "coordinates": [[[87.125, 16.875], [87.375, 16.875], [87.375, 17.125], [87.125, 17.125], [87.125, 16.875]]]}, "properties": {"time": "2018-10-10T18:00:00", "variable": "msl", "tier": "low", "percentile": 96.8, "z": 1.88, "wind_ms": 13.55, "value": 1004.1, "lat": 17.0, "lon": 87.25}}, {"type": "Feature", "geometry": {"type": "Polygon", "coordinates": [[[87.375, 16.875], [87.625, 16.875], [87.625, 17.125], [87.375, 17.125], [87.375, 16.875]]]}, "properties": {"time": "2018-10-10T18:00:00", "variable": "msl", "tier": "low", "percentile": 95.9, "z": 1.74, "wind_ms": 13.4, "value": 1004.53, "lat": 17.0, "lon": 87.5}}, {"type": "Feature", "geometry": {"type": "Polygon", "coordinates": [[[87.625, 16.875], [87.875, 16.875], [87.875, 17.125], [87.625, 17.125], [87.625, 16.875]]]}, "properties": {"time": "2018-10-10T18:00:00", "variable": "msl", "tier": "low", "percentile": 94.1, "z": 1.59, "wind_ms": 13.07, "value": 1005.01, "lat": 17.0, "lon": 87.75}}, {"type": "Feature", "geometry": {"type": "Polygon", "coordinates": [[[83.375, 17.125], [83.625, 17.125], [83.625, 17.375], [83.375, 17.375], [83.375, 17.125]]]}, "properties": {"time": "2018-10-10T18:00:00", "variable": "msl", "tier": "low", "percentile": 99.5, "z": 3.16, "wind_ms": 10.24, "value": 1000.71, "lat": 17.25, "lon": 83.5}}, {"type": "Feature", "geometry": {"type": "Polygon", "coordinates": [[[83.625, 17.125], [83.875, 17.125], [83.875, 17.375], [83.625, 17.375], [83.625, 17.125]]]}, "properties": {"time": "2018-10-10T18:00:00", "variable": "msl", "tier": "low", "percentile": 99.5, "z": 3.28, "wind_ms": 12.27, "value": 1000.28, "lat": 17.25, "lon": 83.75}}, {"type": "Feature", "geometry": {"type": "Polygon", "coordinates": [[[83.875, 17.125], [84.125, 17.125], [84.125, 17.375], [83.875, 17.375], [83.875, 17.125]]]}, "properties": {"time": "2018-10-10T18:00:00", "variable": "msl", "tier": "low", "percentile": 99.5, "z": 3.49, "wind_ms": 14.56, "value": 999.58, "lat": 17.25, "lon": 84.0}}, {"type": "Feature", "geometry": {"type": "Polygon", "coordinates": [[[84.125, 17.125], [84.375, 17.125], [84.375, 17.375], [84.125, 17.375], [84.125, 17.125]]]}, "properties": {"time": "2018-10-10T18:00:00", "variable": "msl", "tier": "low", "percentile": 99.5, "z": 3.72, "wind_ms": 16.44, "value": 998.82, "lat": 17.25, "lon": 84.25}}, {"type": "Feature", "geometry": {"type": "Polygon", "coordinates": [[[84.375, 17.125], [84.625, 17.125], [84.625, 17.375], [84.375, 17.375], [84.375, 17.125]]]}, "properties": {"time": "2018-10-10T18:00:00", "variable": "msl", "tier": "moderate", "percentile": 99.5, "z": 3.96, "wind_ms": 17.96, "value": 997.98, "lat": 17.25, "lon": 84.5}}, {"type": "Feature", "geometry": {"type": "Polygon", "coordinates": [[[84.625, 17.125], [84.875, 17.125], [84.875, 17.375], [84.625, 17.375], [84.625, 17.125]]]}, "properties": {"time": "2018-10-10T18:00:00", "variable": "msl", "tier": "moderate", "percentile": 99.5, "z": 4.08, "wind_ms": 18.94, "value": 997.54, "lat": 17.25, "lon": 84.75}}, {"type": "Feature", "geometry": {"type": "Polygon", "coordinates": [[[84.875, 17.125], [85.125, 17.125], [85.125, 17.375], [84.875, 17.375], [84.875, 17.125]]]}, "properties": {"time": "2018-10-10T18:00:00", "variable": "msl", "tier": "moderate", "percentile": 99.5, "z": 4.06, "wind_ms": 19.51, "value": 997.6, "lat": 17.25, "lon": 85.0}}, {"type": "Feature", "geometry": {"type": "Polygon", "coordinates": [[[85.125, 17.125], [85.375, 17.125], [85.375, 17.375], [85.125, 17.375], [85.125, 17.125]]]}, "properties": {"time": "2018-10-10T18:00:00", "variable": "msl", "tier": "moderate", "percentile": 99.5, "z": 3.89, "wind_ms": 19.61, "value": 998.15, "lat": 17.25, "lon": 85.25}}, {"type": "Feature", "geometry": {"type": "Polygon", "coordinates": [[[85.375, 17.125], [85.625, 17.125], [85.625, 17.375], [85.375, 17.375], [85.375, 17.125]]]}, "properties": {"time": "2018-10-10T18:00:00", "variable": "msl", "tier": "moderate", "percentile": 99.5, "z": 3.58, "wind_ms": 18.58, "value": 999.13, "lat": 17.25, "lon": 85.5}}, {"type": "Feature", "geometry": {"type": "Polygon", "coordinates": [[[85.625, 17.125], [85.875, 17.125], [85.875, 17.375], [85.625, 17.375], [85.625, 17.125]]]}, "properties": {"time": "2018-10-10T18:00:00", "variable": "msl", "tier": "moderate", "percentile": 99.5, "z": 3.28, "wind_ms": 17.53, "value": 1000.01, "lat": 17.25, "lon": 85.75}}, {"type": "Feature", "geometry": {"type": "Polygon", "coordinates": [[[85.875, 17.125], [86.125, 17.125], [86.125, 17.375], [85.875, 17.375], [85.875, 17.125]]]}, "properties": {"time": "2018-10-10T18:00:00", "variable": "msl", "tier": "low", "percentile": 99.5, "z": 3.02, "wind_ms": 16.61, "value": 1000.76, "lat": 17.25, "lon": 86.0}}, {"type": "Feature", "geometry": {"type": "Polygon", "coordinates": [[[86.125, 17.125], [86.375, 17.125], [86.375, 17.375], [86.125, 17.375], [86.125, 17.125]]]}, "properties": {"time": "2018-10-10T18:00:00", "variable": "msl", "tier": "low", "percentile": 99.5, "z": 2.76, "wind_ms": 15.84, "value": 1001.5, "lat": 17.25, "lon": 86.25}}, {"type": "Feature", "geometry": {"type": "Polygon", "coordinates": [[[86.375, 17.125], [86.625, 17.125], [86.625, 17.375], [86.375, 17.375], [86.375, 17.125]]]}, "properties": {"time": "2018-10-10T18:00:00", "variable": "msl", "tier": "low", "percentile": 97.7, "z": 2.53, "wind_ms": 15.29, "value": 1002.19, "lat": 17.25, "lon": 86.5}}, {"type": "Feature", "geometry": {"type": "Polygon", "coordinates": [[[86.625, 17.125], [86.875, 17.125], [86.875, 17.375], [86.625, 17.375], [86.625, 17.125]]]}, "properties": {"time": "2018-10-10T18:00:00", "variable": "msl", "tier": "low", "percentile": 96.8, "z": 2.3, "wind_ms": 14.6, "value": 1002.86, "lat": 17.25, "lon": 86.75}}, {"type": "Feature", "geometry": {"type": "Polygon", "coordinates": [[[86.875, 17.125], [87.125, 17.125], [87.125, 17.375], [86.875, 17.375], [86.875, 17.125]]]}, "properties": {"time": "2018-10-10T18:00:00", "variable": "msl", "tier": "low", "percentile": 96.8, "z": 2.12, "wind_ms": 14.15, "value": 1003.4, "lat": 17.25, "lon": 87.0}}, {"type": "Feature", "geometry": {"type": "Polygon", "coordinates": [[[87.125, 17.125], [87.375, 17.125], [87.375, 17.375], [87.125, 17.375], [87.125, 17.125]]]}, "properties": {"time": "2018-10-10T18:00:00", "variable": "msl", "tier": "low", "percentile": 96.8, "z": 1.96, "wind_ms": 13.98, "value": 1003.88, "lat": 17.25, "lon": 87.25}}, {"type": "Feature", "geometry": {"type": "Polygon", "coordinates": [[[87.375, 17.125], [87.625, 17.125], [87.625, 17.375], [87.375, 17.375], [87.375, 17.125]]]}, "properties": {"time": "2018-10-10T18:00:00", "variable": "msl", "tier": "low", "percentile": 95.9, "z": 1.81, "wind_ms": 13.65, "value": 1004.34, "lat": 17.25, "lon": 87.5}}, {"type": "Feature", "geometry": {"type": "Polygon", "coordinates": [[[87.625, 17.125], [87.875, 17.125], [87.875, 17.375], [87.625, 17.375], [87.625, 17.125]]]}, "properties": {"time": "2018-10-10T18:00:00", "variable": "msl", "tier": "low", "percentile": 94.1, "z": 1.65, "wind_ms": 13.3, "value": 1004.86, "lat": 17.25, "lon": 87.75}}, {"type": "Feature", "geometry": {"type": "Polygon", "coordinates": [[[83.375, 17.375], [83.625, 17.375], [83.625, 17.625], [83.375, 17.625], [83.375, 17.375]]]}, "properties": {"time": "2018-10-10T18:00:00", "variable": "msl", "tier": "low", "percentile": 99.5, "z": 3.25, "wind_ms": 9.6, "value": 1000.32, "lat": 17.5, "lon": 83.5}}, {"type": "Feature", "geometry": {"type": "Polygon", "coordinates": [[[83.625, 17.375], [83.875, 17.375], [83.875, 17.625], [83.625, 17.625], [83.625, 17.375]]]}, "properties": {"time": "2018-10-10T18:00:00", "variable": "msl", "tier": "low", "percentile": 99.5, "z": 3.47, "wind_ms": 12.43, "value": 999.56, "lat": 17.5, "lon": 83.75}}, {"type": "Feature", "geometry": {"type": "Polygon", "coordinates": [[[83.875, 17.375], [84.125, 17.375], [84.125, 17.625], [83.875, 17.625], [83.875, 17.375]]]}, "properties": {"time": "2018-10-10T18:00:00", "variable": "msl", "tier": "low", "percentile": 99.5, "z": 3.77, "wind_ms": 14.96, "value": 998.58, "lat": 17.5, "lon": 84.0}}, {"type": "Feature", "geometry": {"type": "Polygon", "coordinates": [[[84.125, 17.375], [84.375, 17.375], [84.375, 17.625], [84.125, 17.625], [84.125, 17.375]]]}, "properties": {"time": "2018-10-10T18:00:00", "variable": "msl", "tier": "moderate", "percentile": 99.5, "z": 4.21, "wind_ms": 17.73, "value": 997.09, "lat": 17.5, "lon": 84.25}}, {"type": "Feature", "geometry": {"type": "Polygon", "coordinates": [[[84.375, 17.375], [84.625, 17.375], [84.625, 17.625], [84.375, 17.625], [84.375, 17.375]]]}, "properties": {"time": "2018-10-10T18:00:00", "variable": "msl", "tier": "moderate", "percentile": 99.5, "z": 4.51, "wind_ms": 19.3, "value": 996.02, "lat": 17.5, "lon": 84.5}}, {"type": "Feature", "geometry": {"type": "Polygon", "coordinates": [[[84.625, 17.375], [84.875, 17.375], [84.875, 17.625], [84.625, 17.625], [84.625, 17.375]]]}, "properties": {"time": "2018-10-10T18:00:00", "variable": "msl", "tier": "moderate", "percentile": 99.5, "z": 4.7, "wind_ms": 20.42, "value": 995.29, "lat": 17.5, "lon": 84.75}}, {"type": "Feature", "geometry": {"type": "Polygon", "coordinates": [[[84.875, 17.375], [85.125, 17.375], [85.125, 17.625], [84.875, 17.625], [84.875, 17.375]]]}, "properties": {"time": "2018-10-10T18:00:00", "variable": "msl", "tier": "moderate", "percentile": 99.5, "z": 4.68, "wind_ms": 20.61, "value": 995.35, "lat": 17.5, "lon": 85.0}}, {"type": "Feature", "geometry": {"type": "Polygon", "coordinates": [[[85.125, 17.375], [85.375, 17.375], [85.375, 17.625], [85.125, 17.625], [85.125, 17.375]]]}, "properties": {"time": "2018-10-10T18:00:00", "variable": "msl", "tier": "moderate", "percentile": 99.5, "z": 4.38, "wind_ms": 20.59, "value": 996.39, "lat": 17.5, "lon": 85.25}}, {"type": "Feature", "geometry": {"type": "Polygon", "coordinates": [[[85.375, 17.375], [85.625, 17.375], [85.625, 17.625], [85.375, 17.625], [85.375, 17.375]]]}, "properties": {"time": "2018-10-10T18:00:00", "variable": "msl", "tier": "moderate", "percentile": 99.5, "z": 4.01, "wind_ms": 20.28, "value": 997.67, "lat": 17.5, "lon": 85.5}}, {"type": "Feature", "geometry": {"type": "Polygon", "coordinates": [[[85.625, 17.375], [85.875, 17.375], [85.875, 17.625], [85.625, 17.625], [85.625, 17.375]]]}, "properties": {"time": "2018-10-10T18:00:00", "variable": "msl", "tier": "moderate", "percentile": 99.5, "z": 3.66, "wind_ms": 19.27, "value": 998.79, "lat": 17.5, "lon": 85.75}}, {"type": "Feature", "geometry": {"type": "Polygon", "coordinates": [[[85.875, 17.375], [86.125, 17.375], [86.125, 17.625], [85.875, 17.625], [85.875, 17.375]]]}, "properties": {"time": "2018-10-10T18:00:00", "variable": "msl", "tier": "moderate", "percentile": 99.5, "z": 3.31, "wind_ms": 18.04, "value": 999.88, "lat": 17.5, "lon": 86.0}}, {"type": "Feature", "geometry": {"type": "Polygon", "coordinates": [[[86.125, 17.375], [86.375, 17.375], [86.375, 17.625], [86.125, 17.625], [86.125, 17.375]]]}, "properties": {"time": "2018-10-10T18:00:00", "variable": "msl", "tier": "moderate", "percentile": 99.5, "z": 3.02, "wind_ms": 17.13, "value": 1000.73, "lat": 17.5, "lon": 86.25}}, {"type": "Feature", "geometry": {"type": "Polygon", "coordinates": [[[86.375, 17.375], [86.625, 17.375], [86.625, 17.625], [86.375, 17.625], [86.375, 17.375]]]}, "properties": {"time": "2018-10-10T18:00:00", "variable": "msl", "tier": "low", "percentile": 99.5, "z": 2.7, "wind_ms": 16.14, "value": 1001.69, "lat": 17.5, "lon": 86.5}}, {"type": "Feature", "geometry": {"type": "Polygon", "coordinates": [[[86.625, 17.375], [86.875, 17.375], [86.875, 17.625], [86.625, 17.625], [86.625, 17.375]]]}, "properties": {"time": "2018-10-10T18:00:00", "variable": "msl", "tier": "low", "percentile": 97.7, "z": 2.43, "wind_ms": 15.21, "value": 1002.47, "lat": 17.5, "lon": 86.75}}, {"type": "Feature", "geometry": {"type": "Polygon", "coordinates": [[[86.875, 17.375], [87.125, 17.375], [87.125, 17.625], [86.875, 17.625], [86.875, 17.375]]]}, "properties": {"time": "2018-10-10T18:00:00", "variable": "msl", "tier": "low", "percentile": 96.8, "z": 2.19, "wind_ms": 14.24, "value": 1003.18, "lat": 17.5, "lon": 87.0}}, {"type": "Feature", "geometry": {"type": "Polygon", "coordinates": [[[87.125, 17.375], [87.375, 17.375], [87.375, 17.625], [87.125, 17.625], [87.125, 17.375]]]}, "properties": {"time": "2018-10-10T18:00:00", "variable": "msl", "tier": "low", "percentile": 96.8, "z": 2.02, "wind_ms": 14.14, "value": 1003.7, "lat": 17.5, "lon": 87.25}}, {"type": "Feature", "geometry": {"type": "Polygon", "coordinates": [[[87.375, 17.375], [87.625, 17.375], [87.625, 17.625], [87.375, 17.625], [87.375, 17.375]]]}, "properties": {"time": "2018-10-10T18:00:00", "variable": "msl", "tier": "low", "percentile": 95.9, "z": 1.86, "wind_ms": 13.82, "value": 1004.19, "lat": 17.5, "lon": 87.5}}, {"type": "Feature", "geometry": {"type": "Polygon", "coordinates": [[[87.625, 17.375], [87.875, 17.375], [87.875, 17.625], [87.625, 17.625], [87.625, 17.375]]]}, "properties": {"time": "2018-10-10T18:00:00", "variable": "msl", "tier": "low", "percentile": 95.0, "z": 1.69, "wind_ms": 13.42, "value": 1004.71, "lat": 17.5, "lon": 87.75}}, {"type": "Feature", "geometry": {"type": "Polygon", "coordinates": [[[83.625, 17.625], [83.875, 17.625], [83.875, 17.875], [83.625, 17.875], [83.625, 17.625]]]}, "properties": {"time": "2018-10-10T18:00:00", "variable": "msl", "tier": "low", "percentile": 99.5, "z": 3.65, "wind_ms": 12.36, "value": 998.87, "lat": 17.75, "lon": 83.75}}, {"type": "Feature", "geometry": {"type": "Polygon", "coordinates": [[[83.875, 17.625], [84.125, 17.625], [84.125, 17.875], [83.875, 17.875], [83.875, 17.625]]]}, "properties": {"time": "2018-10-10T18:00:00", "variable": "msl", "tier": "low", "percentile": 99.5, "z": 4.18, "wind_ms": 15.96, "value": 997.04, "lat": 17.75, "lon": 84.0}}, {"type": "Feature", "geometry": {"type": "Polygon", "coordinates": [[[84.125, 17.625], [84.375, 17.625], [84.375, 17.875], [84.125, 17.875], [84.125, 17.625]]]}, "properties": {"time": "2018-10-10T18:00:00", "variable": "msl", "tier": "moderate", "percentile": 99.5, "z": 4.64, "wind_ms": 18.23, "value": 995.38, "lat": 17.75, "lon": 84.25}}, {"type": "Feature", "geometry": {"type": "Polygon", "coordinates": [[[84.375, 17.625], [84.625, 17.625], [84.625, 17.875], [84.375, 17.875], [84.375, 17.625]]]}, "properties": {"time": "2018-10-10T18:00:00", "variable": "msl", "tier": "moderate", "percentile": 99.5, "z": 5.2, "wind_ms": 18.43, "value": 993.21, "lat": 17.75, "lon": 84.5}}, {"type": "Feature", "geometry": {"type": "Polygon", "coordinates": [[[84.625, 17.625], [84.875, 17.625], [84.875, 17.875], [84.625, 17.875], [84.625, 17.625]]]}, "properties": {"time": "2018-10-10T18:00:00", "variable": "msl", "tier": "moderate", "percentile": 99.5, "z": 5.42, "wind_ms": 18.13, "value": 992.25, "lat": 17.75, "lon": 84.75}}, {"type": "Feature", "geometry": {"type": "Polygon", "coordinates": [[[84.875, 17.625], [85.125, 17.625], [85.125, 17.875], [84.875, 17.875], [84.875, 17.625]]]}, "properties": {"time": "2018-10-10T18:00:00", "variable": "msl", "tier": "moderate", "percentile": 99.5, "z": 5.35, "wind_ms": 19.3, "value": 992.62, "lat": 17.75, "lon": 85.0}}, {"type": "Feature", "geometry": {"type": "Polygon", "coordinates": [[[85.125, 17.625], [85.375, 17.625], [85.375, 17.875], [85.125, 17.875], [85.125, 17.625]]]}, "properties": {"time": "2018-10-10T18:00:00", "variable": "msl", "tier": "moderate", "percentile": 99.5, "z": 4.99, "wind_ms": 20.35, "value": 994.05, "lat": 17.75, "lon": 85.25}}, {"type": "Feature", "geometry": {"type": "Polygon", "coordinates": [[[85.375, 17.625], [85.625, 17.625], [85.625, 17.875], [85.375, 17.875], [85.375, 17.625]]]}, "properties": {"time": "2018-10-10T18:00:00", "variable": "msl", "tier": "moderate", "percentile": 99.5, "z": 4.48, "wind_ms": 21.54, "value": 995.99, "lat": 17.75, "lon": 85.5}}, {"type": "Feature", "geometry": {"type": "Polygon", "coordinates": [[[85.625, 17.625], [85.875, 17.625], [85.875, 17.875], [85.625, 17.875], [85.625, 17.625]]]}, "properties": {"time": "2018-10-10T18:00:00", "variable": "msl", "tier": "moderate", "percentile": 99.5, "z": 4.01, "wind_ms": 20.5, "value": 997.61, "lat": 17.75, "lon": 85.75}}, {"type": "Feature", "geometry": {"type": "Polygon", "coordinates": [[[85.875, 17.625], [86.125, 17.625], [86.125, 17.875], [85.875, 17.875], [85.875, 17.625]]]}, "properties": {"time": "2018-10-10T18:00:00", "variable": "msl", "tier": "moderate", "percentile": 99.5, "z": 3.64, "wind_ms": 19.51, "value": 998.83, "lat": 17.75, "lon": 86.0}}, {"type": "Feature", "geometry": {"type": "Polygon", "coordinates": [[[86.125, 17.625], [86.375, 17.625], [86.375, 17.875], [86.125, 17.875], [86.125, 17.625]]]}, "properties": {"time": "2018-10-10T18:00:00", "variable": "msl", "tier": "moderate", "percentile": 99.5, "z": 3.24, "wind_ms": 18.3, "value": 1000.08, "lat": 17.75, "lon": 86.25}}, {"type": "Feature", "geometry": {"type": "Polygon", "coordinates": [[[86.375, 17.625], [86.625, 17.625], [86.625, 17.875], [86.375, 17.875], [86.375, 17.625]]]}, "properties": {"time": "2018-10-10T18:00:00", "variable": "msl", "tier": "moderate", "percentile": 99.5, "z": 2.89, "wind_ms": 17.19, "value": 1001.13, "lat": 17.75, "lon": 86.5}}, {"type": "Feature", "geometry": {"type": "Polygon", "coordinates": [[[86.625, 17.625], [86.875, 17.625], [86.875, 17.875], [86.625, 17.875], [86.625, 17.625]]]}, "properties": {"time": "2018-10-10T18:00:00", "variable": "msl", "tier": "low", "percentile": 98.6, "z": 2.5, "wind_ms": 15.63, "value": 1002.29, "lat": 17.75, "lon": 86.75}}, {"type": "Feature", "geometry": {"type": "Polygon", "coordinates": [[[86.875, 17.625], [87.125, 17.625], [87.125, 17.875], [86.875, 17.875], [86.875, 17.625]]]}, "properties": {"time": "2018-10-10T18:00:00", "variable": "msl", "tier": "low", "percentile": 97.7, "z": 2.25, "wind_ms": 14.78, "value": 1003.05, "lat": 17.75, "lon": 87.0}}, {"type": "Feature", "geometry": {"type": "Polygon", "coordinates": [[[87.125, 17.625], [87.375, 17.625], [87.375, 17.875], [87.125, 17.875], [87.125, 17.625]]]}, "properties": {"time": "2018-10-10T18:00:00", "variable": "msl", "tier": "low", "percentile": 96.8, "z": 2.05, "wind_ms": 14.21, "value": 1003.6, "lat": 17.75, "lon": 87.25}}, {"type": "Feature", "geometry": {"type": "Polygon", "coordinates": [[[87.375, 17.625], [87.625, 17.625], [87.625, 17.875], [87.375, 17.875], [87.375, 17.625]]]}, "properties": {"time": "2018-10-10T18:00:00", "variable": "msl", "tier": "low", "percentile": 96.8, "z": 1.89, "wind_ms": 13.98, "value": 1004.09, "lat": 17.75, "lon": 87.5}}, {"type": "Feature", "geometry": {"type": "Polygon", "coordinates": [[[87.625, 17.625], [87.875, 17.625], [87.875, 17.875], [87.625, 17.875], [87.625, 17.625]]]}, "properties": {"time": "2018-10-10T18:00:00", "variable": "msl", "tier": "low", "percentile": 95.0, "z": 1.7, "wind_ms": 13.76, "value": 1004.64, "lat": 17.75, "lon": 87.75}}, {"type": "Feature", "geometry": {"type": "Polygon", "coordinates": [[[83.625, 17.875], [83.875, 17.875], [83.875, 18.125], [83.625, 18.125], [83.625, 17.875]]]}, "properties": {"time": "2018-10-10T18:00:00", "variable": "msl", "tier": "low", "percentile": 99.5, "z": 3.93, "wind_ms": 12.48, "value": 997.92, "lat": 18.0, "lon": 83.75}}, {"type": "Feature", "geometry": {"type": "Polygon", "coordinates": [[[83.875, 17.875], [84.125, 17.875], [84.125, 18.125], [83.875, 18.125], [83.875, 17.875]]]}, "properties": {"time": "2018-10-10T18:00:00", "variable": "msl", "tier": "low", "percentile": 99.5, "z": 4.46, "wind_ms": 15.96, "value": 995.99, "lat": 18.0, "lon": 84.0}}, {"type": "Feature", "geometry": {"type": "Polygon", "coordinates": [[[84.125, 17.875], [84.375, 17.875], [84.375, 18.125], [84.125, 18.125], [84.125, 17.875]]]}, "properties": {"time": "2018-10-10T18:00:00", "variable": "msl", "tier": "moderate", "percentile": 99.5, "z": 5.14, "wind_ms": 17.43, "value": 993.41, "lat": 18.0, "lon": 84.25}}, {"type": "Feature", "geometry": {"type": "Polygon", "coordinates": [[[84.375, 17.875], [84.625, 17.875], [84.625, 18.125], [84.375, 18.125], [84.375, 17.875]]]}, "properties": {"time": "2018-10-10T18:00:00", "variable": "msl", "tier": "low", "percentile": 99.5, "z": 5.64, "wind_ms": 16.86, "value": 991.25, "lat": 18.0, "lon": 84.5}}, {"type": "Feature", "geometry": {"type": "Polygon", "coordinates": [[[84.875, 17.875], [85.125, 17.875], [85.125, 18.125], [84.875, 18.125], [84.875, 17.875]]]}, "properties": {"time": "2018-10-10T18:00:00", "variable": "msl", "tier": "low", "percentile": 99.5, "z": 5.98, "wind_ms": 12.23, "value": 989.67, "lat": 18.0, "lon": 85.0}}, {"type": "Feature", "geometry": {"type": "Polygon", "coordinates": [[[85.125, 17.875], [85.375, 17.875], [85.375, 18.125], [85.125, 18.125], [85.125, 17.875]]]}, "properties": {"time": "2018-10-10T18:00:00", "variable": "msl", "tier": "moderate", "percentile": 99.5, "z": 5.47, "wind_ms": 18.21, "value": 991.99, "lat": 18.0, "lon": 85.25}}, {"type": "Feature", "geometry": {"type": "Polygon", "coordinates": [[[85.375, 17.875], [85.625, 17.875], [85.625, 18.125], [85.375, 18.125], [85.375, 17.875]]]}, "properties": {"time": "2018-10-10T18:00:00", "variable": "msl", "tier": "moderate", "percentile": 99.5, "z": 4.88, "wind_ms": 21.24, "value": 994.43, "lat": 18.0, "lon": 85.5}}, {"type": "Feature", "geometry": {"type": "Polygon", "coordinates": [[[85.625, 17.875], [85.875, 17.875], [85.875, 18.125], [85.625, 18.125], [85.625, 17.875]]]}, "properties": {"time": "2018-10-10T18:00:00", "variable": "msl", "tier": "moderate", "percentile": 99.5, "z": 4.34, "wind_ms": 20.91, "value": 996.42, "lat": 18.0, "lon": 85.75}}, {"type": "Feature", "geometry": {"type": "Polygon", "coordinates": [[[85.875, 17.875], [86.125, 17.875], [86.125, 18.125], [85.875, 18.125], [85.875, 17.875]]]}, "properties": {"time": "2018-10-10T18:00:00", "variable": "msl", "tier": "moderate", "percentile": 99.5, "z": 3.88, "wind_ms": 20.52, "value": 998.0, "lat": 18.0, "lon": 86.0}}, {"type": "Feature", "geometry": {"type": "Polygon", "coordinates": [[[86.125, 17.875], [86.375, 17.875], [86.375, 18.125], [86.125, 18.125], [86.125, 17.875]]]}, "properties": {"time": "2018-10-10T18:00:00", "variable": "msl", "tier": "moderate", "percentile": 99.5, "z": 3.47, "wind_ms": 19.34, "value": 999.33, "lat": 18.0, "lon": 86.25}}, {"type": "Feature", "geometry": {"type": "Polygon", "coordinates": [[[86.375, 17.875], [86.625, 17.875], [86.625, 18.125], [86.375, 18.125], [86.375, 17.875]]]}, "properties": {"time": "2018-10-10T18:00:00", "variable": "msl", "tier": "moderate", "percentile": 99.5, "z": 2.98, "wind_ms": 17.66, "value": 1000.86, "lat": 18.0, "lon": 86.5}}, {"type": "Feature", "geometry": {"type": "Polygon", "coordinates": [[[86.625, 17.875], [86.875, 17.875], [86.875, 18.125], [86.625, 18.125], [86.625, 17.875]]]}, "properties": {"time": "2018-10-10T18:00:00", "variable": "msl", "tier": "low", "percentile": 99.5, "z": 2.59, "wind_ms": 16.41, "value": 1002.02, "lat": 18.0, "lon": 86.75}}, {"type": "Feature", "geometry": {"type": "Polygon", "coordinates": [[[86.875, 17.875], [87.125, 17.875], [87.125, 18.125], [86.875, 18.125], [86.875, 17.875]]]}, "properties": {"time": "2018-10-10T18:00:00", "variable": "msl", "tier": "low", "percentile": 97.7, "z": 2.27, "wind_ms": 15.13, "value": 1002.95, "lat": 18.0, "lon": 87.0}}, {"type": "Feature", "geometry": {"type": "Polygon", "coordinates": [[[87.125, 17.875], [87.375, 17.875], [87.375, 18.125], [87.125, 18.125], [87.125, 17.875]]]}, "properties": {"time": "2018-10-10T18:00:00", "variable": "msl", "tier": "low", "percentile": 97.7, "z": 2.07, "wind_ms": 14.33, "value": 1003.52, "lat": 18.0, "lon": 87.25}}, {"type": "Feature", "geometry": {"type": "Polygon", "coordinates": [[[87.375, 17.875], [87.625, 17.875], [87.625, 18.125], [87.375, 18.125], [87.375, 17.875]]]}, "properties": {"time": "2018-10-10T18:00:00", "variable": "msl", "tier": "low", "percentile": 96.8, "z": 1.88, "wind_ms": 14.12, "value": 1004.09, "lat": 18.0, "lon": 87.5}}, {"type": "Feature", "geometry": {"type": "Polygon", "coordinates": [[[87.625, 17.875], [87.875, 17.875], [87.875, 18.125], [87.625, 18.125], [87.625, 17.875]]]}, "properties": {"time": "2018-10-10T18:00:00", "variable": "msl", "tier": "low", "percentile": 95.0, "z": 1.68, "wind_ms": 14.12, "value": 1004.66, "lat": 18.0, "lon": 87.75}}, {"type": "Feature", "geometry": {"type": "Polygon", "coordinates": [[[83.625, 18.125], [83.875, 18.125], [83.875, 18.375], [83.625, 18.375], [83.625, 18.125]]]}, "properties": {"time": "2018-10-10T18:00:00", "variable": "msl", "tier": "low", "percentile": 99.5, "z": 4.01, "wind_ms": 11.48, "value": 997.68, "lat": 18.25, "lon": 83.75}}, {"type": "Feature", "geometry": {"type": "Polygon", "coordinates": [[[83.875, 18.125], [84.125, 18.125], [84.125, 18.375], [83.875, 18.375], [83.875, 18.125]]]}, "properties": {"time": "2018-10-10T18:00:00", "variable": "msl", "tier": "low", "percentile": 99.5, "z": 4.57, "wind_ms": 13.46, "value": 995.52, "lat": 18.25, "lon": 84.0}}, {"type": "Feature", "geometry": {"type": "Polygon", "coordinates": [[[84.125, 18.125], [84.375, 18.125], [84.375, 18.375], [84.125, 18.375], [84.125, 18.125]]]}, "properties": {"time": "2018-10-10T18:00:00", "variable": "msl", "tier": "low", "percentile": 99.5, "z": 5.24, "wind_ms": 16.24, "value": 992.94, "lat": 18.25, "lon": 84.25}}, {"type": "Feature", "geometry": {"type": "Polygon", "coordinates": [[[84.375, 18.125], [84.625, 18.125], [84.625, 18.375], [84.375, 18.375], [84.375, 18.125]]]}, "properties": {"time": "2018-10-10T18:00:00", "variable": "msl", "tier": "low", "percentile": 99.5, "z": 5.81, "wind_ms": 15.08, "value": 990.38, "lat": 18.25, "lon": 84.5}}, {"type": "Feature", "geometry": {"type": "Polygon", "coordinates": [[[84.875, 18.125], [85.125, 18.125], [85.125, 18.375], [84.875, 18.375], [84.875, 18.125]]]}, "properties": {"time": "2018-10-10T18:00:00", "variable": "msl", "tier": "low", "percentile": 99.5, "z": 6.16, "wind_ms": 10.64, "value": 988.68, "lat": 18.25, "lon": 85.0}}, {"type": "Feature", "geometry": {"type": "Polygon", "coordinates": [[[85.125, 18.125], [85.375, 18.125], [85.375, 18.375], [85.125, 18.375], [85.125, 18.125]]]}, "properties": {"time": "2018-10-10T18:00:00", "variable": "msl", "tier": "low", "percentile": 99.5, "z": 5.68, "wind_ms": 16.45, "value": 991.02, "lat": 18.25, "lon": 85.25}}, {"type": "Feature", "geometry": {"type": "Polygon", "coordinates": [[[85.375, 18.125], [85.625, 18.125], [85.625, 18.375], [85.375, 18.375], [85.375, 18.125]]]}, "properties": {"time": "2018-10-10T18:00:00", "variable": "msl", "tier": "moderate", "percentile": 99.5, "z": 5.08, "wind_ms": 19.7, "value": 993.57, "lat": 18.25, "lon": 85.5}}, {"type": "Feature", "geometry": {"type": "Polygon", "coordinates": [[[85.625, 18.125], [85.875, 18.125], [85.875, 18.375], [85.625, 18.375], [85.625, 18.125]]]}, "properties": {"time": "2018-10-10T18:00:00", "variable": "msl", "tier": "moderate", "percentile": 99.5, "z": 4.52, "wind_ms": 20.51, "value": 995.75, "lat": 18.25, "lon": 85.75}}, {"type": "Feature", "geometry": {"type": "Polygon", "coordinates": [[[85.875, 18.125], [86.125, 18.125], [86.125, 18.375], [85.875, 18.375], [85.875, 18.125]]]}, "properties": {"time": "2018-10-10T18:00:00", "variable": "msl", "tier": "moderate", "percentile": 99.5, "z": 4.04, "wind_ms": 20.18, "value": 997.42, "lat": 18.25, "lon": 86.0}}, {"type": "Feature", "geometry": {"type": "Polygon", "coordinates": [[[86.125, 18.125], [86.375, 18.125], [86.375, 18.375], [86.125, 18.375], [86.125, 18.125]]]}, "properties": {"time": "2018-10-10T18:00:00", "variable": "msl", "tier": "moderate", "percentile": 99.5, "z": 3.54, "wind_ms": 19.09, "value": 999.09, "lat": 18.25, "lon": 86.25}}, {"type": "Feature", "geometry": {"type": "Polygon", "coordinates": [[[86.375, 18.125], [86.625, 18.125], [86.625, 18.375], [86.375, 18.375], [86.375, 18.125]]]}, "properties": {"time": "2018-10-10T18:00:00", "variable": "msl", "tier": "moderate", "percentile": 99.5, "z": 3.04, "wind_ms": 17.96, "value": 1000.62, "lat": 18.25, "lon": 86.5}}, {"type": "Feature", "geometry": {"type": "Polygon", "coordinates": [[[86.625, 18.125], [86.875, 18.125], [86.875, 18.375], [86.625, 18.375], [86.625, 18.125]]]}, "properties": {"time": "2018-10-10T18:00:00", "variable": "msl", "tier": "moderate", "percentile": 99.5, "z": 2.62, "wind_ms": 17.21, "value": 1001.91, "lat": 18.25, "lon": 86.75}}, {"type": "Feature", "geometry": {"type": "Polygon", "coordinates": [[[86.875, 18.125], [87.125, 18.125], [87.125, 18.375], [86.875, 18.375], [86.875, 18.125]]]}, "properties": {"time": "2018-10-10T18:00:00", "variable": "msl", "tier": "low", "percentile": 98.6, "z": 2.3, "wind_ms": 15.97, "value": 1002.83, "lat": 18.25, "lon": 87.0}}, {"type": "Feature", "geometry": {"type": "Polygon", "coordinates": [[[87.125, 18.125], [87.375, 18.125], [87.375, 18.375], [87.125, 18.375], [87.125, 18.125]]]}, "properties": {"time": "2018-10-10T18:00:00", "variable": "msl", "tier": "low", "percentile": 97.7, "z": 2.05, "wind_ms": 14.33, "value": 1003.56, "lat": 18.25, "lon": 87.25}}, {"type": "Feature", "geometry": {"type": "Polygon", "coordinates": [[[87.375, 18.125], [87.625, 18.125], [87.625, 18.375], [87.375, 18.375], [87.375, 18.125]]]}, "properties": {"time": "2018-10-10T18:00:00", "variable": "msl", "tier": "low", "percentile": 95.9, "z": 1.84, "wind_ms": 14.05, "value": 1004.17, "lat": 18.25, "lon": 87.5}}, {"type": "Feature", "geometry": {"type": "Polygon", "coordinates": [[[87.625, 18.125], [87.875, 18.125], [87.875, 18.375], [87.625, 18.375], [87.625, 18.125]]]}, "properties": {"time": "2018-10-10T18:00:00", "variable": "msl", "tier": "low", "percentile": 94.1, "z": 1.64, "wind_ms": 14.12, "value": 1004.73, "lat": 18.25, "lon": 87.75}}, {"type": "Feature", "geometry": {"type": "Polygon", "coordinates": [[[83.625, 18.375], [83.875, 18.375], [83.875, 18.625], [83.625, 18.625], [83.625, 18.375]]]}, "properties": {"time": "2018-10-10T18:00:00", "variable": "msl", "tier": "low", "percentile": 99.5, "z": 3.88, "wind_ms": 8.82, "value": 998.37, "lat": 18.5, "lon": 83.75}}, {"type": "Feature", "geometry": {"type": "Polygon", "coordinates": [[[83.875, 18.375], [84.125, 18.375], [84.125, 18.625], [83.875, 18.625], [83.875, 18.375]]]}, "properties": {"time": "2018-10-10T18:00:00", "variable": "msl", "tier": "low", "percentile": 99.5, "z": 4.43, "wind_ms": 10.62, "value": 996.19, "lat": 18.5, "lon": 84.0}}, {"type": "Feature", "geometry": {"type": "Polygon", "coordinates": [[[84.125, 18.375], [84.375, 18.375], [84.375, 18.625], [84.125, 18.625], [84.125, 18.375]]]}, "properties": {"time": "2018-10-10T18:00:00", "variable": "msl", "tier": "low", "percentile": 99.5, "z": 4.95, "wind_ms": 13.45, "value": 994.03, "lat": 18.5, "lon": 84.25}}, {"type": "Feature", "geometry": {"type": "Polygon", "coordinates": [[[84.375, 18.375], [84.625, 18.375], [84.625, 18.625], [84.375, 18.625], [84.375, 18.375]]]}, "properties": {"time": "2018-10-10T18:00:00", "variable": "msl", "tier": "low", "percentile": 99.5, "z": 5.55, "wind_ms": 14.92, "value": 991.49, "lat": 18.5, "lon": 84.5}}, {"type": "Feature", "geometry": {"type": "Polygon", "coordinates": [[[84.625, 18.375], [84.875, 18.375], [84.875, 18.625], [84.625, 18.625], [84.625, 18.375]]]}, "properties": {"time": "2018-10-10T18:00:00", "variable": "msl", "tier": "low", "percentile": 99.5, "z": 5.87, "wind_ms": 14.57, "value": 989.97, "lat": 18.5, "lon": 84.75}}, {"type": "Feature", "geometry": {"type": "Polygon", "coordinates": [[[84.875, 18.375], [85.125, 18.375], [85.125, 18.625], [84.875, 18.625], [84.875, 18.375]]]}, "properties": {"time": "2018-10-10T18:00:00", "variable": "msl", "tier": "low", "percentile": 99.5, "z": 5.84, "wind_ms": 13.47, "value": 990.15, "lat": 18.5, "lon": 85.0}}, {"type": "Feature", "geometry": {"type": "Polygon", "coordinates": [[[85.125, 18.375], [85.375, 18.375], [85.375, 18.625], [85.125, 18.625], [85.125, 18.375]]]}, "properties": {"time": "2018-10-10T18:00:00", "variable": "msl", "tier": "low", "percentile": 99.5, "z": 5.52, "wind_ms": 16.21, "value": 991.62, "lat": 18.5, "lon": 85.25}}, {"type": "Feature", "geometry": {"type": "Polygon", "coordinates": [[[85.375, 18.375], [85.625, 18.375], [85.625, 18.625], [85.375, 18.625], [85.375, 18.375]]]}, "properties": {"time": "2018-10-10T18:00:00", "variable": "msl", "tier": "moderate", "percentile": 99.5, "z": 5.02, "wind_ms": 17.7, "value": 993.78, "lat": 18.5, "lon": 85.5}}, {"type": "Feature", "geometry": {"type": "Polygon", "coordinates": [[[85.625, 18.375], [85.875, 18.375], [85.875, 18.625], [85.625, 18.625], [85.625, 18.375]]]}, "properties": {"time": "2018-10-10T18:00:00", "variable": "msl", "tier": "moderate", "percentile": 99.5, "z": 4.48, "wind_ms": 18.39, "value": 995.86, "lat": 18.5, "lon": 85.75}}, {"type": "Feature", "geometry": {"type": "Polygon", "coordinates": [[[85.875, 18.375], [86.125, 18.375], [86.125, 18.625], [85.875, 18.625], [85.875, 18.375]]]}, "properties": {"time": "2018-10-10T18:00:00", "variable": "msl", "tier": "moderate", "percentile": 99.5, "z": 3.99, "wind_ms": 18.47, "value": 997.55, "lat": 18.5, "lon": 86.0}}, {"type": "Feature", "geometry": {"type": "Polygon", "coordinates": [[[86.125, 18.375], [86.375, 18.375], [86.375, 18.625], [86.125, 18.625], [86.125, 18.375]]]}, "properties": {"time": "2018-10-10T18:00:00", "variable": "msl", "tier": "moderate", "percentile": 99.5, "z": 3.47, "wind_ms": 17.98, "value": 999.27, "lat": 18.5, "lon": 86.25}}, {"type": "Feature", "geometry": {"type": "Polygon", "coordinates": [[[86.375, 18.375], [86.625, 18.375], [86.625, 18.625], [86.375, 18.625], [86.375, 18.375]]]}, "properties": {"time": "2018-10-10T18:00:00", "variable": "msl", "tier": "moderate", "percentile": 99.5, "z": 3.01, "wind_ms": 18.01, "value": 1000.69, "lat": 18.5, "lon": 86.5}}, {"type": "Feature", "geometry": {"type": "Polygon", "coordinates": [[[86.625, 18.375], [86.875, 18.375], [86.875, 18.625], [86.625, 18.625], [86.625, 18.375]]]}, "properties": {"time": "2018-10-10T18:00:00", "variable": "msl", "tier": "moderate", "percentile": 99.5, "z": 2.59, "wind_ms": 17.42, "value": 1001.98, "lat": 18.5, "lon": 86.75}}, {"type": "Feature", "geometry": {"type": "Polygon", "coordinates": [[[86.875, 18.375], [87.125, 18.375], [87.125, 18.625], [86.875, 18.625], [86.875, 18.375]]]}, "properties": {"time": "2018-10-10T18:00:00", "variable": "msl", "tier": "low", "percentile": 98.6, "z": 2.27, "wind_ms": 16.03, "value": 1002.91, "lat": 18.5, "lon": 87.0}}, {"type": "Feature", "geometry": {"type": "Polygon", "coordinates": [[[87.125, 18.375], [87.375, 18.375], [87.375, 18.625], [87.125, 18.625], [87.125, 18.375]]]}, "properties": {"time": "2018-10-10T18:00:00", "variable": "msl", "tier": "low", "percentile": 96.8, "z": 2.0, "wind_ms": 14.36, "value": 1003.66, "lat": 18.5, "lon": 87.25}}, {"type": "Feature", "geometry": {"type": "Polygon", "coordinates": [[[87.375, 18.375], [87.625, 18.375], [87.625, 18.625], [87.375, 18.625], [87.375, 18.375]]]}, "properties": {"time": "2018-10-10T18:00:00", "variable": "msl", "tier": "low", "percentile": 95.9, "z": 1.77, "wind_ms": 13.75, "value": 1004.33, "lat": 18.5, "lon": 87.5}}, {"type": "Feature", "geometry": {"type": "Polygon", "coordinates": [[[87.625, 18.375], [87.875, 18.375], [87.875, 18.625], [87.625, 18.625], [87.625, 18.375]]]}, "properties": {"time": "2018-10-10T18:00:00", "variable": "msl", "tier": "low", "percentile": 95.0, "z": 1.58, "wind_ms": 13.7, "value": 1004.87, "lat": 18.5, "lon": 87.75}}, {"type": "Feature", "geometry": {"type": "Polygon", "coordinates": [[[84.125, 18.625], [84.375, 18.625], [84.375, 18.875], [84.125, 18.875], [84.125, 18.625]]]}, "properties": {"time": "2018-10-10T18:00:00", "variable": "msl", "tier": "low", "percentile": 99.5, "z": 4.58, "wind_ms": 10.9, "value": 995.93, "lat": 18.75, "lon": 84.25}}, {"type": "Feature", "geometry": {"type": "Polygon", "coordinates": [[[84.375, 18.625], [84.625, 18.625], [84.625, 18.875], [84.375, 18.875], [84.375, 18.625]]]}, "properties": {"time": "2018-10-10T18:00:00", "variable": "msl", "tier": "low", "percentile": 99.5, "z": 4.88, "wind_ms": 14.59, "value": 994.32, "lat": 18.75, "lon": 84.5}}, {"type": "Feature", "geometry": {"type": "Polygon", "coordinates": [[[84.625, 18.625], [84.875, 18.625], [84.875, 18.875], [84.625, 18.875], [84.625, 18.625]]]}, "properties": {"time": "2018-10-10T18:00:00", "variable": "msl", "tier": "low", "percentile": 99.5, "z": 5.16, "wind_ms": 15.38, "value": 993.01, "lat": 18.75, "lon": 84.75}}, {"type": "Feature", "geometry": {"type": "Polygon", "coordinates": [[[84.875, 18.625], [85.125, 18.625], [85.125, 18.875], [84.875, 18.875], [84.875, 18.625]]]}, "properties": {"time": "2018-10-10T18:00:00", "variable": "msl", "tier": "low", "percentile": 99.5, "z": 5.29, "wind_ms": 16.48, "value": 992.5, "lat": 18.75, "lon": 85.0}}, {"type": "Feature", "geometry": {"type": "Polygon", "coordinates": [[[85.125, 18.625], [85.375, 18.625], [85.375, 18.875], [85.125, 18.875], [85.125, 18.625]]]}, "properties": {"time": "2018-10-10T18:00:00", "variable": "msl", "tier": "low", "percentile": 99.5, "z": 5.06, "wind_ms": 16.6, "value": 993.52, "lat": 18.75, "lon": 85.25}}, {"type": "Feature", "geometry": {"type": "Polygon", "coordinates": [[[85.375, 18.625], [85.625, 18.625], [85.625, 18.875], [85.375, 18.875], [85.375, 18.625]]]}, "properties": {"time": "2018-10-10T18:00:00", "variable": "msl", "tier": "low", "percentile": 99.5, "z": 4.67, "wind_ms": 16.65, "value": 995.02, "lat": 18.75, "lon": 85.5}}, {"type": "Feature", "geometry": {"type": "Polygon", "coordinates": [[[85.625, 18.625], [85.875, 18.625], [85.875, 18.875], [85.625, 18.875], [85.625, 18.625]]]}, "properties": {"time": "2018-10-10T18:00:00", "variable": "msl", "tier": "low", "percentile": 99.5, "z": 4.21, "wind_ms": 16.65, "value": 996.75, "lat": 18.75, "lon": 85.75}}, {"type": "Feature", "geometry": {"type": "Polygon", "coordinates": [[[85.875, 18.625], [86.125, 18.625], [86.125, 18.875], [85.875, 18.875], [85.875, 18.625]]]}, "properties": {"time": "2018-10-10T18:00:00", "variable": "msl", "tier": "moderate", "percentile": 99.5, "z": 3.71, "wind_ms": 17.0, "value": 998.42, "lat": 18.75, "lon": 86.0}}, {"type": "Feature", "geometry": {"type": "Polygon", "coordinates": [[[86.125, 18.625], [86.375, 18.625], [86.375, 18.875], [86.125, 18.875], [86.125, 18.625]]]}, "properties": {"time": "2018-10-10T18:00:00", "variable": "msl", "tier": "moderate", "percentile": 99.5, "z": 3.26, "wind_ms": 17.63, "value": 999.85, "lat": 18.75, "lon": 86.25}}, {"type": "Feature", "geometry": {"type": "Polygon", "coordinates": [[[86.375, 18.625], [86.625, 18.625], [86.625, 18.875], [86.375, 18.875], [86.375, 18.625]]]}, "properties": {"time": "2018-10-10T18:00:00", "variable": "msl", "tier": "moderate", "percentile": 99.5, "z": 2.82, "wind_ms": 17.84, "value": 1001.21, "lat": 18.75, "lon": 86.5}}, {"type": "Feature", "geometry": {"type": "Polygon", "coordinates": [[[86.625, 18.625], [86.875, 18.625], [86.875, 18.875], [86.625, 18.875], [86.625, 18.625]]]}, "properties": {"time": "2018-10-10T18:00:00", "variable": "msl", "tier": "low", "percentile": 99.5, "z": 2.48, "wind_ms": 16.82, "value": 1002.22, "lat": 18.75, "lon": 86.75}}, {"type": "Feature", "geometry": {"type": "Polygon", "coordinates": [[[86.875, 18.625], [87.125, 18.625], [87.125, 18.875], [86.875, 18.875], [86.875, 18.625]]]}, "properties": {"time": "2018-10-10T18:00:00", "variable": "msl", "tier": "low", "percentile": 97.7, "z": 2.17, "wind_ms": 15.37, "value": 1003.11, "lat": 18.75, "lon": 87.0}}, {"type": "Feature", "geometry": {"type": "Polygon", "coordinates": [[[87.125, 18.625], [87.375, 18.625], [87.375, 18.875], [87.125, 18.875], [87.125, 18.625]]]}, "properties": {"time": "2018-10-10T18:00:00", "variable": "msl", "tier": "low", "percentile": 96.8, "z": 1.91, "wind_ms": 14.17, "value": 1003.87, "lat": 18.75, "lon": 87.25}}, {"type": "Feature", "geometry": {"type": "Polygon", "coordinates": [[[87.375, 18.625], [87.625, 18.625], [87.625, 18.875], [87.375, 18.875], [87.375, 18.625]]]}, "properties": {"time": "2018-10-10T18:00:00", "variable": "msl", "tier": "low", "percentile": 95.9, "z": 1.67, "wind_ms": 13.36, "value": 1004.56, "lat": 18.75, "lon": 87.5}}, {"type": "Feature", "geometry": {"type": "Polygon", "coordinates": [[[84.375, 18.875], [84.625, 18.875], [84.625, 19.125], [84.375, 19.125], [84.375, 18.875]]]}, "properties": {"time": "2018-10-10T18:00:00", "variable": "msl", "tier": "low", "percentile": 99.5, "z": 4.12, "wind_ms": 11.45, "value": 997.68, "lat": 19.0, "lon": 84.5}}, {"type": "Feature", "geometry": {"type": "Polygon", "coordinates": [[[84.625, 18.875], [84.875, 18.875], [84.875, 19.125], [84.625, 19.125], [84.625, 18.875]]]}, "properties": {"time": "2018-10-10T18:00:00", "variable": "msl", "tier": "low", "percentile": 99.5, "z": 4.3, "wind_ms": 15.99, "value": 996.32, "lat": 19.0, "lon": 84.75}}, {"type": "Feature", "geometry": {"type": "Polygon", "coordinates": [[[84.875, 18.875], [85.125, 18.875], [85.125, 19.125], [84.875, 19.125], [84.875, 18.875]]]}, "properties": {"time": "2018-10-10T18:00:00", "variable": "msl", "tier": "moderate", "percentile": 99.5, "z": 4.47, "wind_ms": 18.67, "value": 995.59, "lat": 19.0, "lon": 85.0}}, {"type": "Feature", "geometry": {"type": "Polygon", "coordinates": [[[85.125, 18.875], [85.375, 18.875], [85.375, 19.125], [85.125, 19.125], [85.125, 18.875]]]}, "properties": {"time": "2018-10-10T18:00:00", "variable": "msl", "tier": "moderate", "percentile": 99.5, "z": 4.44, "wind_ms": 18.73, "value": 995.79, "lat": 19.0, "lon": 85.25}}, {"type": "Feature", "geometry": {"type": "Polygon", "coordinates": [[[85.375, 18.875], [85.625, 18.875], [85.625, 19.125], [85.375, 19.125], [85.375, 18.875]]]}, "properties": {"time": "2018-10-10T18:00:00", "variable": "msl", "tier": "moderate", "percentile": 99.5, "z": 4.13, "wind_ms": 17.91, "value": 996.89, "lat": 19.0, "lon": 85.5}}, {"type": "Feature", "geometry": {"type": "Polygon", "coordinates": [[[85.625, 18.875], [85.875, 18.875], [85.875, 19.125], [85.625, 19.125], [85.625, 18.875]]]}, "properties": {"time": "2018-10-10T18:00:00", "variable": "msl", "tier": "moderate", "percentile": 99.5, "z": 3.73, "wind_ms": 17.83, "value": 998.28, "lat": 19.0, "lon": 85.75}}, {"type": "Feature", "geometry": {"type": "Polygon", "coordinates": [[[85.875, 18.875], [86.125, 18.875], [86.125, 19.125], [85.875, 19.125], [85.875, 18.875]]]}, "properties": {"time": "2018-10-10T18:00:00", "variable": "msl", "tier": "moderate", "percentile": 99.5, "z": 3.34, "wind_ms": 18.16, "value": 999.55, "lat": 19.0, "lon": 86.0}}, {"type": "Feature", "geometry": {"type": "Polygon", "coordinates": [[[86.125, 18.875], [86.375, 18.875], [86.375, 19.125], [86.125, 19.125], [86.125, 18.875]]]}, "properties": {"time": "2018-10-10T18:00:00", "variable": "msl", "tier": "moderate", "percentile": 99.5, "z": 2.93, "wind_ms": 18.13, "value": 1000.81, "lat": 19.0, "lon": 86.25}}, {"type": "Feature", "geometry": {"type": "Polygon", "coordinates": [[[86.375, 18.875], [86.625, 18.875], [86.625, 19.125], [86.375, 19.125], [86.375, 18.875]]]}, "properties": {"time": "2018-10-10T18:00:00", "variable": "msl", "tier": "moderate", "percentile": 98.6, "z": 2.58, "wind_ms": 17.09, "value": 1001.87, "lat": 19.0, "lon": 86.5}}, {"type": "Feature", "geometry": {"type": "Polygon", "coordinates": [[[86.625, 18.875], [86.875, 18.875], [86.875, 19.125], [86.625, 19.125], [86.625, 18.875]]]}, "properties": {"time": "2018-10-10T18:00:00", "variable": "msl", "tier": "low", "percentile": 98.6, "z": 2.27, "wind_ms": 15.66, "value": 1002.81, "lat": 19.0, "lon": 86.75}}, {"type": "Feature", "geometry": {"type": "Polygon", "coordinates": [[[86.875, 18.875], [87.125, 18.875], [87.125, 19.125], [86.875, 19.125], [86.875, 18.875]]]}, "properties": {"time": "2018-10-10T18:00:00", "variable": "msl", "tier": "low", "percentile": 97.7, "z": 2.0, "wind_ms": 14.57, "value": 1003.59, "lat": 19.0, "lon": 87.0}}, {"type": "Feature", "geometry": {"type": "Polygon", "coordinates": [[[87.125, 18.875], [87.375, 18.875], [87.375, 19.125], [87.125, 19.125], [87.125, 18.875]]]}, "properties": {"time": "2018-10-10T18:00:00", "variable": "msl", "tier": "low", "percentile": 95.9, "z": 1.75, "wind_ms": 13.78, "value": 1004.3, "lat": 19.0, "lon": 87.25}}, {"type": "Feature", "geometry": {"type": "Polygon", "coordinates": [[[87.375, 18.875], [87.625, 18.875], [87.625, 19.125], [87.375, 19.125], [87.375, 18.875]]]}, "properties": {"time": "2018-10-10T18:00:00", "variable": "msl", "tier": "low", "percentile": 95.0, "z": 1.55, "wind_ms": 13.08, "value": 1004.86, "lat": 19.0, "lon": 87.5}}, {"type": "Feature", "geometry": {"type": "Polygon", "coordinates": [[[84.375, 19.125], [84.625, 19.125], [84.625, 19.375], [84.375, 19.375], [84.375, 19.125]]]}, "properties": {"time": "2018-10-10T18:00:00", "variable": "msl", "tier": "low", "percentile": 99.5, "z": 3.28, "wind_ms": 8.86, "value": 1000.56, "lat": 19.25, "lon": 84.5}}, {"type": "Feature", "geometry": {"type": "Polygon", "coordinates": [[[84.625, 19.125], [84.875, 19.125], [84.875, 19.375], [84.625, 19.375], [84.625, 19.125]]]}, "properties": {"time": "2018-10-10T18:00:00", "variable": "msl", "tier": "low", "percentile": 99.5, "z": 3.4, "wind_ms": 12.9, "value": 999.4, "lat": 19.25, "lon": 84.75}}, {"type": "Feature", "geometry": {"type": "Polygon", "coordinates": [[[84.875, 19.125], [85.125, 19.125], [85.125, 19.375], [84.875, 19.375], [84.875, 19.125]]]}, "properties": {"time": "2018-10-10T18:00:00", "variable": "msl", "tier": "moderate", "percentile": 99.5, "z": 3.63, "wind_ms": 18.79, "value": 998.51, "lat": 19.25, "lon": 85.0}}, {"type": "Feature", "geometry": {"type": "Polygon", "coordinates": [[[85.125, 19.125], [85.375, 19.125], [85.375, 19.375], [85.125, 19.375], [85.125, 19.125]]]}, "properties": {"time": "2018-10-10T18:00:00", "variable": "msl", "tier": "moderate", "percentile": 99.5, "z": 3.7, "wind_ms": 19.69, "value": 998.27, "lat": 19.25, "lon": 85.25}}, {"type": "Feature", "geometry": {"type": "Polygon", "coordinates": [[[85.375, 19.125], [85.625, 19.125], [85.625, 19.375], [85.375, 19.375], [85.375, 19.125]]]}, "properties": {"time": "2018-10-10T18:00:00", "variable": "msl", "tier": "moderate", "percentile": 99.5, "z": 3.56, "wind_ms": 18.66, "value": 998.77, "lat": 19.25, "lon": 85.5}}, {"type": "Feature", "geometry": {"type": "Polygon", "coordinates": [[[85.625, 19.125], [85.875, 19.125], [85.875, 19.375], [85.625, 19.375], [85.625, 19.125]]]}, "properties": {"time": "2018-10-10T18:00:00", "variable": "msl", "tier": "moderate", "percentile": 99.5, "z": 3.24, "wind_ms": 18.84, "value": 999.71, "lat": 19.25, "lon": 85.75}}, {"type": "Feature", "geometry": {"type": "Polygon", "coordinates": [[[85.875, 19.125], [86.125, 19.125], [86.125, 19.375], [85.875, 19.375], [85.875, 19.125]]]}, "properties": {"time": "2018-10-10T18:00:00", "variable": "msl", "tier": "moderate", "percentile": 99.5, "z": 2.92, "wind_ms": 18.28, "value": 1000.71, "lat": 19.25, "lon": 86.0}}, {"type": "Feature", "geometry": {"type": "Polygon", "coordinates": [[[86.125, 19.125], [86.375, 19.125], [86.375, 19.375], [86.125, 19.375], [86.125, 19.125]]]}, "properties": {"time": "2018-10-10T18:00:00", "variable": "msl", "tier": "moderate", "percentile": 98.6, "z": 2.59, "wind_ms": 17.06, "value": 1001.73, "lat": 19.25, "lon": 86.25}}, {"type": "Feature", "geometry": {"type": "Polygon", "coordinates": [[[86.375, 19.125], [86.625, 19.125], [86.625, 19.375], [86.375, 19.375], [86.375, 19.125]]]}, "properties": {"time": "2018-10-10T18:00:00", "variable": "msl", "tier": "low", "percentile": 98.6, "z": 2.28, "wind_ms": 15.69, "value": 1002.66, "lat": 19.25, "lon": 86.5}}, {"type": "Feature", "geometry": {"type": "Polygon", "coordinates": [[[86.625, 19.125], [86.875, 19.125], [86.875, 19.375], [86.625, 19.375], [86.625, 19.125]]]}, "properties": {"time": "2018-10-10T18:00:00", "variable": "msl", "tier": "low", "percentile": 98.6, "z": 2.01, "wind_ms": 14.55, "value": 1003.46, "lat": 19.25, "lon": 86.75}}, {"type": "Feature", "geometry": {"type": "Polygon", "coordinates": [[[86.875, 19.125], [87.125, 19.125], [87.125, 19.375], [86.875, 19.375], [86.875, 19.125]]]}, "properties": {"time": "2018-10-10T18:00:00", "variable": "msl", "tier": "low", "percentile": 95.9, "z": 1.78, "wind_ms": 13.66, "value": 1004.13, "lat": 19.25, "lon": 87.0}}, {"type": "Feature", "geometry": {"type": "Polygon", "coordinates": [[[87.125, 19.125], [87.375, 19.125], [87.375, 19.375], [87.125, 19.375], [87.125, 19.125]]]}, "properties": {"time": "2018-10-10T18:00:00", "variable": "msl", "tier": "low", "percentile": 95.9, "z": 1.57, "wind_ms": 12.95, "value": 1004.73, "lat": 19.25, "lon": 87.25}}, {"type": "Feature", "geometry": {"type": "Polygon", "coordinates": [[[84.625, 19.375], [84.875, 19.375], [84.875, 19.625], [84.625, 19.625], [84.625, 19.375]]]}, "properties": {"time": "2018-10-10T18:00:00", "variable": "msl", "tier": "low", "percentile": 99.5, "z": 2.76, "wind_ms": 9.44, "value": 1001.38, "lat": 19.5, "lon": 84.75}}, {"type": "Feature", "geometry": {"type": "Polygon", "coordinates": [[[84.875, 19.375], [85.125, 19.375], [85.125, 19.625], [84.875, 19.625], [84.875, 19.375]]]}, "properties": {"time": "2018-10-10T18:00:00", "variable": "msl", "tier": "low", "percentile": 99.5, "z": 2.88, "wind_ms": 13.08, "value": 1000.98, "lat": 19.5, "lon": 85.0}}, {"type": "Feature", "geometry": {"type": "Polygon", "coordinates": [[[85.125, 19.375], [85.375, 19.375], [85.375, 19.625], [85.125, 19.625], [85.125, 19.375]]]}, "properties": {"time": "2018-10-10T18:00:00", "variable": "msl", "tier": "low", "percentile": 99.5, "z": 2.9, "wind_ms": 16.28, "value": 1000.75, "lat": 19.5, "lon": 85.25}}, {"type": "Feature", "geometry": {"type": "Polygon", "coordinates": [[[85.375, 19.375], [85.625, 19.375], [85.625, 19.625], [85.375, 19.625], [85.375, 19.375]]]}, "properties": {"time": "2018-10-10T18:00:00", "variable": "msl", "tier": "moderate", "percentile": 99.5, "z": 2.88, "wind_ms": 17.69, "value": 1000.76, "lat": 19.5, "lon": 85.5}}, {"type": "Feature", "geometry": {"type": "Polygon", "coordinates": [[[85.625, 19.375], [85.875, 19.375], [85.875, 19.625], [85.625, 19.625], [85.625, 19.375]]]}, "properties": {"time": "2018-10-10T18:00:00", "variable": "msl", "tier": "low", "percentile": 98.6, "z": 2.68, "wind_ms": 16.35, "value": 1001.39, "lat": 19.5, "lon": 85.75}}, {"type": "Feature", "geometry": {"type": "Polygon", "coordinates": [[[85.875, 19.375], [86.125, 19.375], [86.125, 19.625], [85.875, 19.625], [85.875, 19.375]]]}, "properties": {"time": "2018-10-10T18:00:00", "variable": "msl", "tier": "low", "percentile": 98.6, "z": 2.42, "wind_ms": 16.59, "value": 1002.15, "lat": 19.5, "lon": 86.0}}, {"type": "Feature", "geometry": {"type": "Polygon", "coordinates": [[[86.125, 19.375], [86.375, 19.375], [86.375, 19.625], [86.125, 19.625], [86.125, 19.375]]]}, "properties": {"time": "2018-10-10T18:00:00", "variable": "msl", "tier": "low", "percentile": 98.6, "z": 2.18, "wind_ms": 15.89, "value": 1002.83, "lat": 19.5, "lon": 86.25}}, {"type": "Feature", "geometry": {"type": "Polygon", "coordinates": [[[86.375, 19.375], [86.625, 19.375], [86.625, 19.625], [86.375, 19.625], [86.375, 19.375]]]}, "properties": {"time": "2018-10-10T18:00:00", "variable": "msl", "tier": "low", "percentile": 98.6, "z": 1.92, "wind_ms": 14.6, "value": 1003.61, "lat": 19.5, "lon": 86.5}}, {"type": "Feature", "geometry": {"type": "Polygon", "coordinates": [[[86.625, 19.375], [86.875, 19.375], [86.875, 19.625], [86.625, 19.625], [86.625, 19.375]]]}, "properties": {"time": "2018-10-10T18:00:00", "variable": "msl", "tier": "low", "percentile": 96.8, "z": 1.72, "wind_ms": 13.99, "value": 1004.24, "lat": 19.5, "lon": 86.75}}, {"type": "Feature", "geometry": {"type": "Polygon", "coordinates": [[[86.875, 19.375], [87.125, 19.375], [87.125, 19.625], [86.875, 19.625], [86.875, 19.375]]]}, "properties": {"time": "2018-10-10T18:00:00", "variable": "msl", "tier": "low", "percentile": 95.0, "z": 1.54, "wind_ms": 13.63, "value": 1004.79, "lat": 19.5, "lon": 87.0}}, {"type": "Feature", "geometry": {"type": "Polygon", "coordinates": [[[85.125, 19.625], [85.375, 19.625], [85.375, 19.875], [85.125, 19.875], [85.125, 19.625]]]}, "properties": {"time": "2018-10-10T18:00:00", "variable": "msl", "tier": "low", "percentile": 98.6, "z": 2.32, "wind_ms": 11.1, "value": 1002.72, "lat": 19.75, "lon": 85.25}}, {"type": "Feature", "geometry": {"type": "Polygon", "coordinates": [[[85.375, 19.625], [85.625, 19.625], [85.625, 19.875], [85.375, 19.875], [85.375, 19.625]]]}, "properties": {"time": "2018-10-10T18:00:00", "variable": "msl", "tier": "low", "percentile": 98.6, "z": 2.29, "wind_ms": 13.23, "value": 1002.58, "lat": 19.75, "lon": 85.5}}, {"type": "Feature", "geometry": {"type": "Polygon", "coordinates": [[[85.625, 19.625], [85.875, 19.625], [85.875, 19.875], [85.625, 19.875], [85.625, 19.625]]]}, "properties": {"time": "2018-10-10T18:00:00", "variable": "msl", "tier": "low", "percentile": 98.6, "z": 2.14, "wind_ms": 11.67, "value": 1003.0, "lat": 19.75, "lon": 85.75}}, {"type": "Feature", "geometry": {"type": "Polygon", "coordinates": [[[85.875, 19.625], [86.125, 19.625], [86.125, 19.875], [85.875, 19.875], [85.875, 19.625]]]}, "properties": {"time": "2018-10-10T18:00:00", "variable": "msl", "tier": "low", "percentile": 98.6, "z": 1.96, "wind_ms": 13.61, "value": 1003.43, "lat": 19.75, "lon": 86.0}}, {"type": "Feature", "geometry": {"type": "Polygon", "coordinates": [[[86.125, 19.625], [86.375, 19.625], [86.375, 19.875], [86.125, 19.875], [86.125, 19.625]]]}, "properties": {"time": "2018-10-10T18:00:00", "variable": "msl", "tier": "low", "percentile": 98.6, "z": 1.76, "wind_ms": 13.96, "value": 1003.98, "lat": 19.75, "lon": 86.25}}, {"type": "Feature", "geometry": {"type": "Polygon", "coordinates": [[[86.375, 19.625], [86.625, 19.625], [86.625, 19.875], [86.375, 19.875], [86.375, 19.625]]]}, "properties": {"time": "2018-10-10T18:00:00", "variable": "msl", "tier": "low", "percentile": 95.9, "z": 1.61, "wind_ms": 14.17, "value": 1004.41, "lat": 19.75, "lon": 86.5}}, {"type": "Feature", "geometry": {"type": "Polygon", "coordinates": [[[85.875, 19.875], [86.125, 19.875], [86.125, 20.125], [85.875, 20.125], [85.875, 19.875]]]}, "properties": {"time": "2018-10-10T18:00:00", "variable": "msl", "tier": "low", "percentile": 95.9, "z": 1.59, "wind_ms": 8.94, "value": 1004.6, "lat": 20.0, "lon": 86.0}}], "properties": {"thresholds": {"low_z": 1.5, "low_ws": 8.7, "moderate_z": 2.0, "moderate_ws": 17.0, "severe_z": 3.0, "severe_ws": 25.0}, "note": "Tiers: z-score AND wind >= 8.7/17/25 m/s (IMD D/CS/SCS), only inside tracked-object boxes + 1 deg. Adjusted after observing results; not validated against impacts. Per-hour ERA5 reanalysis climatology; single member, not an ensemble EFI."}}